Corrected acceleration    (Format v01.20 with 13 text lines)
Record of Point MacKenzie Earthquake of Fri Nov 30, 2018 17:29 UTC
Hypocenter: 61.34000 -149.93660 H= 40km Mw=7.0
Origin: 2018/11/30 17:29:28    UTC
Statn No: 02-002738 Code:NP-2738   USGS  AK:Cantwell;ADOT Maint Sta
Coords: 63.3888 -148.8849  Site geology:
Recorder: K2              ( 3 Chns of   3 at Sta) Sensor: (see comment)    
Rcrd start time: 2018/11/30 17:29:30.938 UTC (Q=5) RcrdId: (see comment)
Sta Chan   2:360 Deg (Rcrdr Chan  ?) Location:Ground
Raw record length = 210.000 sec, Uncor max =     50516, at  66.915 sec.
Processed:2018-12-03 21:55:14 GMT, UNKN, Max =   91.915 cm/sec2 at   67.040 sec
Record filtered below  0.10 Hz (periods over 10.00 secs), and above 40.0 Hz
Values used when parameter or data value is unknown/unspecified:   -999, -999.00
 100 Integer-header values follow on  10 lines, Format= (10I8)
       2       1       4     120       1    -999    -999    2738    -999    -999
       2       2    -999       8    -999       1    -999    -999       4    -999
    -999       2       3    -999    -999    -999    -999    -999    -999     108
       3     536       3    -999      24      24    -999    -999    -999    2018
     334      11      30      17      29       5       5    -999    -999       2
    -999       7    -999     360    -999    -999    -999    -999    -999    -999
       5       5    -999       1    -999    -999    -999    -999    -999    -999
    -999    -999    -999    -999       1       0    -999    -999    -999    -999
    -999    -999    -999    -999    -999    -999    -999    -999    -999    -999
    -999    -999    -999    -999    -999    -999    -999    -999    -999    -999
 100 Real-header values follow on  20 lines, Format= (5F15.6)
      63.388820    -148.884900     661.000000    -999.000000    -999.000000
    -999.000000    -999.000000    -999.000000    -999.000000      61.340000
    -149.936600      40.900000       7.000000    -999.000000    -999.000000
    -999.000000     234.187120      13.392848    -999.000000    -999.000000
    -999.000000       2.384188       5.000000      30.000000     180.000000
      80.000000    -999.000000    -999.000000    -999.000000      30.937860
    -999.000000       0.000000    -999.000000       0.005000     210.000000
      -6.482611    -999.000000    -999.000000    -999.000000     223.976073
       0.697089       1.245400       2.490800       2.000000      80.000000
    -999.000000       1.000000    -999.000000    -999.000000    -999.000000
    -999.000000    -999.000000    -999.000000       0.100000    -999.000000
    -999.000000      40.000000    -999.000000    -999.000000    -999.000000
    -999.000000       5.000000     210.000000      91.914902      67.040000
       0.000060    -999.000000      -0.000001       0.000039    -999.000000
    -999.000000    -999.000000    -999.000000    -999.000000    -999.000000
    -999.000000    -999.000000    -999.000000    -999.000000      13.870000
      43.220000       0.264812       5.438743    -999.000000       0.272383
    -999.000000    -999.000000     980.665000    -999.000000    -999.000000
    -999.000000    -999.000000    -999.000000    -999.000000    -999.000000
    -999.000000    -999.000000    -999.000000    -999.000000    -999.000000
   7 Comment line(s) follow, each starting with a "|":
| Sensor: Kinemetrics FBA-23 Accel. (2 g max 1.25 v/g)
| RcrdId: US.1000hyfh.NP.2738.HNN.--
|<SCNL>2738.HNN.NP.--    <AUTH> 2018/11/03 21:54:49.000
|<PROCESS> AUTO
|<EONSET> event onset(sec)=  36.9250
|<ABLC>SF:   0.0000, EF:  36.9250, SA:   0.0000, EA: 210.0000, ORDER:  MEAN
|<ABLC>SF:   0.0000, EF: 210.0000, SA:   0.0000, EA: 210.0000, ORDER:ORDER1
   42000 acceleration pts, approx  210 secs, units=cm/sec2(04),Format=(1E15.6)
[...]
  -1.239707e+01
  -1.546953e+01
  -1.842702e+01
  -2.075372e+01
  -2.190489e+01
  -2.156058e+01
  -1.976715e+01
  -1.684434e+01
  -1.314140e+01
  -8.868216e+00
  -4.136246e+00
   8.835194e-01
   5.893023e+00
   1.057597e+01
   1.475406e+01
   1.840350e+01
   2.150464e+01
   2.388268e+01
   2.520839e+01
   2.517518e+01
   2.370804e+01
   2.103152e+01
   1.755274e+01
   1.368317e+01
   9.756351e+00
   6.060228e+00
   2.875100e+00
   4.388720e-01
  -1.130662e+00
  -1.890373e+00
  -2.069996e+00
  -2.014516e+00
  -2.092468e+00
  -2.603440e+00
  -3.711680e+00
  -5.420154e+00
  -7.586923e+00
  -9.964986e+00
  -1.224022e+01
  -1.407200e+01
  -1.516330e+01
  -1.535240e+01
  -1.466785e+01
  -1.330050e+01
  -1.151611e+01
  -9.575434e+00
  -7.700827e+00
  -6.074247e+00
  -4.831869e+00
  -4.040994e+00
  -3.677808e+00
  -3.644844e+00
  -3.844357e+00
  -4.257740e+00
  -4.953054e+00
  -6.015957e+00
  -7.485671e+00
  -9.348125e+00
  -1.153747e+01
  -1.389015e+01
  -1.610638e+01
  -1.782238e+01
  -1.877042e+01
  -1.887116e+01
  -1.817596e+01
  -1.676393e+01
  -1.472474e+01
  -1.219963e+01
  -9.367396e+00
  -6.376162e+00
  -3.340374e+00
  -4.382968e-01
   2.036178e+00
   3.819630e+00
   4.948791e+00
   5.878525e+00
   7.266782e+00
   9.571552e+00
   1.280244e+01
   1.660588e+01
   2.053897e+01
   2.427219e+01
   2.761745e+01
   3.045372e+01
   3.265572e+01
   3.408112e+01
   3.462184e+01
   3.428482e+01
   3.324897e+01
   3.185649e+01
   3.051910e+01
   2.955892e+01
   2.906698e+01
   2.888910e+01
   2.877389e+01
   2.858416e+01
   2.840125e+01
   2.842304e+01
   2.873390e+01
   2.915098e+01
   2.928408e+01
   2.875191e+01
   2.738610e+01
   2.529763e+01
   2.277222e+01
   2.004869e+01
   1.713719e+01
   1.385288e+01
   1.006969e+01
   5.973977e+00
   2.073945e+00
  -1.067448e+00
  -3.174689e+00
  -4.418940e+00
  -5.270861e+00
  -6.142370e+00
  -7.078215e+00
  -7.735125e+00
  -7.660256e+00
  -6.648539e+00
  -4.933782e+00
  -3.128949e+00
  -1.993113e+00
  -2.162281e+00
  -3.961882e+00
  -7.363095e+00
  -1.207178e+01
  -1.767431e+01
  -2.375238e+01
  -2.993143e+01
  -3.589250e+01
  -4.138896e+01
  -4.626839e+01
  -5.047290e+01
  -5.400525e+01
  -5.687343e+01
  -5.904637e+01
  -6.047773e+01
  -6.122710e+01
  -6.158896e+01
  -6.205588e+01
  -6.305786e+01
  -6.465398e+01
  -6.643401e+01
  -6.770651e+01
  -6.780816e+01
  -6.631881e+01
  -6.311220e+01
  -5.831132e+01
  -5.222301e+01
  -4.526046e+01
  -3.784701e+01
  -3.033589e+01
  -2.299695e+01
  -1.607725e+01
  -9.871862e+00
  -4.718241e+00
  -8.946287e-01
   1.491879e+00
   2.526697e+00
   2.422353e+00
   1.461008e+00
  -1.250158e-02
  -1.619445e+00
  -3.059897e+00
  -4.238368e+00
  -5.271263e+00
  -6.343523e+00
  -7.520687e+00
  -8.670603e+00
  -9.570316e+00
  -1.011796e+01
  -1.046581e+01
  -1.095424e+01
  -1.190946e+01
  -1.348048e+01
  -1.562069e+01
  -1.816554e+01
  -2.090064e+01
  -2.358617e+01
  -2.598259e+01
  -2.790642e+01
  -2.926994e+01
  -3.004074e+01
  -3.014413e+01
  -2.942077e+01
  -2.770514e+01
  -2.494688e+01
  -2.124515e+01
  -1.677919e+01
  -1.173956e+01
  -6.328207e+00
  -7.685968e-01
   4.750791e+00
   1.014843e+01
   1.541423e+01
   2.046210e+01
   2.502938e+01
   2.875954e+01
   3.140487e+01
   3.294180e+01
   3.347241e+01
   3.301385e+01
   3.142002e+01
   2.856632e+01
   2.463971e+01
   2.021948e+01
   1.602086e+01
   1.252185e+01
   9.806958e+00
   7.719431e+00
   6.111673e+00
   4.943440e+00
   4.185667e+00
   3.681426e+00
   3.113792e+00
   2.094537e+00
   2.987987e-01
  -2.406649e+00
  -5.864877e+00
  -9.610544e+00
  -1.298175e+01
  -1.533401e+01
  -1.625609e+01
  -1.568912e+01
  -1.390978e+01
  -1.141268e+01
  -8.766127e+00
  -6.485846e+00
  -4.933619e+00
  -4.263816e+00
  -4.448284e+00
  -5.346264e+00
  -6.742154e+00
  -8.341884e+00
  -9.810053e+00
  -1.090496e+01
  -1.164191e+01
  -1.233190e+01
  -1.341760e+01
  -1.521310e+01
  -1.775481e+01
  -2.086885e+01
  -2.436915e+01
  -2.820539e+01
  -3.243029e+01
  -3.699954e+01
  -4.156617e+01
  -4.545734e+01
  -4.788650e+01
  -4.828304e+01
  -4.653683e+01
  -4.298172e+01
  -3.810293e+01
  -3.219705e+01
  -2.529878e+01
  -1.745322e+01
  -9.064960e+00
  -9.693277e-01
   5.869454e+00
   1.079792e+01
   1.372418e+01
   1.504187e+01
   1.534531e+01
   1.516021e+01
   1.483508e+01
   1.459108e+01
   1.462935e+01
   1.517561e+01
   1.639679e+01
   1.824179e+01
   2.036681e+01
   2.227475e+01
   2.360618e+01
   2.434510e+01
   2.475594e+01
   2.511758e+01
   2.549948e+01
   2.575468e+01
   2.569941e+01
   2.532111e+01
   2.486414e+01
   2.473285e+01
   2.527238e+01
   2.657216e+01
   2.841707e+01
   3.040542e+01
   3.214367e+01
   3.338142e+01
   3.400812e+01
   3.396560e+01
   3.319936e+01
   3.169077e+01
   2.950116e+01
   2.676770e+01
   2.367876e+01
   2.047553e+01
   1.746260e+01
   1.497557e+01
   1.331011e+01
   1.268464e+01
   1.327886e+01
   1.527907e+01
   1.882393e+01
   2.385645e+01
   3.001576e+01
   3.668366e+01
   4.316661e+01
   4.889174e+01
   5.350254e+01
   5.682222e+01
   5.874220e+01
   5.913575e+01
   5.785981e+01
   5.481374e+01
   4.997524e+01
   4.339893e+01
   3.525291e+01
   2.593314e+01
   1.615540e+01
   6.884961e+00
  -8.906385e-01
  -6.405101e+00
  -9.273680e+00
  -9.564608e+00
  -7.774696e+00
  -4.686227e+00
  -1.147941e+00
   2.118955e+00
   4.629461e+00
   6.170226e+00
   6.786650e+00
   6.720909e+00
   6.303074e+00
   5.832175e+00
   5.493111e+00
   5.319744e+00
   5.192138e+00
   4.878359e+00
   4.140572e+00
   2.878434e+00
   1.224137e+00
  -4.973105e-01
  -1.937922e+00
  -2.892995e+00
  -3.308987e+00
  -3.130789e+00
  -2.163794e+00
  -1.271372e-01
   3.114114e+00
   7.337454e+00
   1.196314e+01
   1.627111e+01
   1.967749e+01
   2.190290e+01
   2.296186e+01
   2.302432e+01
   2.227937e+01
   2.089437e+01
   1.903622e+01
   1.686485e+01
   1.448590e+01
   1.192638e+01
   9.167272e+00
   6.199988e+00
   3.051367e+00
  -2.472145e-01
  -3.706873e+00
  -7.366903e+00
  -1.120105e+01
  -1.502337e+01
  -1.847435e+01
  -2.109583e+01
  -2.248051e+01
  -2.247913e+01
  -2.136994e+01
  -1.983869e+01
  -1.873683e+01
  -1.877137e+01
  -2.030208e+01
  -2.329195e+01
  -2.736999e+01
  -3.196807e+01
  -3.648180e+01
  -4.037863e+01
  -4.323212e+01
  -4.475398e+01
  -4.487161e+01
  -4.377035e+01
  -4.178467e+01
  -3.915882e+01
  -3.586417e+01
  -3.166710e+01
  -2.644153e+01
  -2.047102e+01
  -1.445594e+01
  -9.202543e+00
  -5.254648e+00
  -2.743357e+00
  -1.505477e+00
  -1.304765e+00
  -1.958126e+00
  -3.311714e+00
  -5.168500e+00
  -7.274097e+00
  -9.349297e+00
  -1.110912e+01
  -1.229569e+01
  -1.279453e+01
  -1.277172e+01
  -1.264473e+01
  -1.282256e+01
  -1.341527e+01
  -1.418230e+01
  -1.475775e+01
  -1.491521e+01
  -1.462029e+01
  -1.387625e+01
  -1.259748e+01
  -1.068566e+01
  -8.225833e+00
  -5.581475e+00
  -3.281258e+00
  -1.784496e+00
  -1.289680e+00
  -1.693047e+00
  -2.698274e+00
  -3.988736e+00
  -5.348554e+00
  -6.680092e+00
  -7.948868e+00
  -9.105314e+00
  -1.000695e+01
  -1.037110e+01
  -9.807958e+00
  -7.937473e+00
  -4.512500e+00
   5.300821e-01
   7.084870e+00
   1.489379e+01
   2.350813e+01
   3.220716e+01
   3.997685e+01
   4.568512e+01
   4.845346e+01
   4.800507e+01
   4.472870e+01
   3.941994e+01
   3.291008e+01
   2.583274e+01
   1.863547e+01
   1.176048e+01
   5.790050e+00
   1.376057e+00
  -1.016584e+00
  -1.324308e+00
   1.198015e-01
   2.763921e+00
   6.031139e+00
   9.441486e+00
   1.265851e+01
   1.546899e+01
   1.772850e+01
   1.935701e+01
   2.042329e+01
   2.119523e+01
   2.198169e+01
   2.281696e+01
   2.330711e+01
   2.287135e+01
   2.120601e+01
   1.856524e+01
   1.564903e+01
   1.321511e+01
   1.166735e+01
   1.086501e+01
   1.031061e+01
   9.613484e+00
   8.832306e+00
   8.373682e+00
   8.583046e+00
   9.467758e+00
   1.077491e+01
   1.222921e+01
   1.364156e+01
   1.485632e+01
   1.570895e+01
   1.608389e+01
   1.598634e+01
   1.552537e+01
   1.482069e+01
   1.391838e+01
   1.277251e+01
   1.127639e+01
   9.283600e+00
   6.595006e+00
   2.966390e+00
  -1.800635e+00
  -7.721966e+00
  -1.456665e+01
  -2.190959e+01
  -2.920118e+01
  -3.575332e+01
  -4.070594e+01
  -4.313484e+01
  -4.234629e+01
  -3.820233e+01
  -3.124315e+01
  -2.250934e+01
  -1.319823e+01
  -4.374611e+00
   3.170921e+00
   8.959679e+00
   1.279756e+01
   1.467719e+01
   1.464816e+01
   1.275837e+01
   9.122793e+00
   4.040943e+00
  -1.974819e+00
  -8.297540e+00
  -1.430948e+01
  -1.944663e+01
  -2.318993e+01
  -2.511923e+01
  -2.506978e+01
  -2.327613e+01
  -2.034698e+01
  -1.704419e+01
  -1.400326e+01
  -1.157661e+01
  -9.873181e+00
  -8.913141e+00
  -8.747773e+00
  -9.452325e+00
  -1.101007e+01
  -1.319404e+01
  -1.556781e+01
  -1.763213e+01
  -1.900207e+01
  -1.947296e+01
  -1.896614e+01
  -1.746835e+01
  -1.504534e+01
  -1.189100e+01
  -8.320920e+00
  -4.668236e+00
  -1.129541e+00
   2.324019e+00
   5.875377e+00
   9.662076e+00
   1.360092e+01
   1.736390e+01
   2.050222e+01
   2.262532e+01
   2.353176e+01
   2.322411e+01
   2.181455e+01
   1.940880e+01
   1.605918e+01
   1.180356e+01
   6.739728e+00
   1.067218e+00
  -4.943187e+00
  -1.103020e+01
  -1.700236e+01
  -2.272942e+01
  -2.808821e+01
  -3.292675e+01
  -3.708499e+01
  -4.046167e+01
  -4.307891e+01
  -4.508425e+01
  -4.666387e+01
  -4.791213e+01
  -4.874271e+01
  -4.889652e+01
  -4.803674e+01
  -4.587802e+01
  -4.229754e+01
  -3.740059e+01
  -3.152108e+01
  -2.512928e+01
  -1.865825e+01
  -1.234297e+01
  -6.192286e+00
  -1.154463e-01
   5.913283e+00
   1.179077e+01
   1.732846e+01
   2.229674e+01
   2.642783e+01
   2.944942e+01
   3.118233e+01
   3.161540e+01
   3.086948e+01
   2.909052e+01
   2.638963e+01
   2.287341e+01
   1.869374e+01
   1.404761e+01
   9.140957e+00
   4.161507e+00
  -7.276417e-01
  -5.389252e+00
  -9.719903e+00
  -1.365172e+01
  -1.712151e+01
  -2.002631e+01
  -2.222921e+01
  -2.360767e+01
  -2.404451e+01
  -2.335211e+01
  -2.128247e+01
  -1.771704e+01
  -1.288546e+01
  -7.363192e+00
  -1.796913e+00
   3.401049e+00
   8.093882e+00
   1.218811e+01
   1.543830e+01
   1.755777e+01
   1.853558e+01
   1.880847e+01
   1.909300e+01
   2.002889e+01
   2.191382e+01
   2.465070e+01
   2.784997e+01
   3.100728e+01
   3.370458e+01
   3.575207e+01
   3.717613e+01
   3.805024e+01
   3.829730e+01
   3.762765e+01
   3.565706e+01
   3.207381e+01
   2.670799e+01
   1.953562e+01
   1.075078e+01
   8.748116e-01
  -9.288645e+00
  -1.888329e+01
  -2.719342e+01
  -3.365614e+01
  -3.782123e+01
  -3.940783e+01
  -3.837639e+01
  -3.486541e+01
  -2.905634e+01
  -2.116815e+01
  -1.160258e+01
  -1.033629e+00
   9.694769e+00
   1.975860e+01
   2.846346e+01
   3.524961e+01
   3.968376e+01
   4.150167e+01
   4.067391e+01
   3.741618e+01
   3.210235e+01
   2.513798e+01
   1.690780e+01
   7.841373e+00
  -1.497070e+00
  -1.044744e+01
  -1.846817e+01
  -2.537570e+01
  -3.139490e+01
  -3.698033e+01
  -4.256568e+01
  -4.839764e+01
  -5.449694e+01
  -6.071789e+01
  -6.684247e+01
  -7.263600e+01
  -7.785026e+01
  -8.222969e+01
  -8.555157e+01
  -8.765096e+01
  -8.839097e+01
  -8.763440e+01
  -8.528791e+01
  -8.138270e+01
  -7.609489e+01
  -6.969283e+01
  -6.248596e+01
  -5.481171e+01
  -4.700763e+01
  -3.932119e+01
  -3.180649e+01
  -2.430518e+01
  -1.653209e+01
  -8.193297e+00
   9.281898e-01
   1.091800e+01
   2.168585e+01
   3.295070e+01
   4.429550e+01
   5.526894e+01
   6.544694e+01
   7.442198e+01
   8.179869e+01
   8.725987e+01
   9.064236e+01
   9.191490e+01
   9.105816e+01
   8.797784e+01
   8.257431e+01
   7.493910e+01
   6.551684e+01
   5.510494e+01
   4.470737e+01
   3.534494e+01
   2.790314e+01
   2.303465e+01
   2.107310e+01
   2.190442e+01
   2.484580e+01
   2.872003e+01
   3.224721e+01
   3.457543e+01
   3.556882e+01
   3.564838e+01
   3.535418e+01
   3.497917e+01
   3.450180e+01
   3.378451e+01
   3.280810e+01
   3.171545e+01
   3.064163e+01
   2.952863e+01
   2.814180e+01
   2.629353e+01
   2.406749e+01
   2.185499e+01
   2.019666e+01
   1.954609e+01
   2.008608e+01
   2.169579e+01
   2.407713e+01
   2.692277e+01
   2.997341e+01
   3.291822e+01
   3.523935e+01
   3.619230e+01
   3.505564e+01
   3.151381e+01
   2.580667e+01
   1.847789e+01
   9.999097e+00
   6.383942e-01
  -9.387011e+00
  -1.969589e+01
  -2.966924e+01
  -3.857879e+01
  -4.581521e+01
  -5.102969e+01
  -5.411769e+01
  -5.514599e+01
  -5.431348e+01
  -5.192035e+01
  -4.830811e+01
  -4.380026e+01
  -3.869257e+01
  -3.329869e+01
  -2.802334e+01
  -2.342013e+01
  -2.013057e+01
  -1.861311e+01
  -1.883908e+01
  -2.032921e+01
  -2.254762e+01
  -2.518451e+01
  -2.804023e+01
  -3.080156e+01
  -3.308133e+01
  -3.466146e+01
  -3.564107e+01
  -3.636411e+01
  -3.721974e+01
  -3.845620e+01
  -4.010075e+01
  -4.200204e+01
  -4.393816e+01
  -4.571662e+01
  -4.722798e+01
  -4.844090e+01
  -4.934050e+01
  -4.984794e+01
  -4.979836e+01
  -4.903524e+01
  -4.758096e+01
  -4.573991e+01
  -4.400320e+01
  -4.277902e+01
  -4.213040e+01
  -4.170132e+01
  -4.086083e+01
  -3.896278e+01
  -3.560848e+01
  -3.082536e+01
  -2.506118e+01
  -1.894321e+01
  -1.293305e+01
  -7.132215e+00
  -1.357932e+00
   4.653685e+00
   1.113010e+01
   1.825712e+01
   2.615417e+01
   3.477756e+01
   4.385787e+01
   5.296287e+01
   6.163071e+01
   6.945896e+01
   7.611978e+01
   8.135456e+01
   8.498213e+01
   8.690690e+01
   8.712440e+01
   8.574056e+01
   8.295983e+01
   7.894982e+01
   7.361807e+01
   6.653366e+01
   5.716940e+01
   4.531671e+01
   3.133766e+01
   1.609776e+01
   7.066477e-01
  -1.373213e+01
  -2.627681e+01
  -3.624280e+01
  -4.329492e+01
  -4.752266e+01
  -4.939843e+01
  -4.955424e+01
  -4.849409e+01
  -4.647326e+01
  -4.362124e+01
  -4.011908e+01
  -3.621994e+01
  -3.213039e+01
  -2.792140e+01
  -2.355410e+01
  -1.895867e+01
  -1.407694e+01
  -8.865394e+00
  -3.328977e+00
   2.390173e+00
   7.972336e+00
   1.304838e+01
   1.744219e+01
   2.131889e+01
   2.510985e+01
   2.929232e+01
   3.418826e+01
   3.986991e+01
   4.616311e+01
   5.271431e+01
   5.909104e+01
   6.487387e+01
   6.970104e+01
   7.326811e+01
   7.531556e+01
   7.562366e+01
   7.401858e+01
   7.040162e+01
   6.479713e+01
   5.736530e+01
   4.834469e+01
   3.800255e+01
   2.670442e+01
   1.505222e+01
   3.893423e+00
  -5.879349e+00
  -1.357517e+01
  -1.879761e+01
  -2.138773e+01
  -2.137365e+01
  -1.900086e+01
  -1.476631e+01
  -9.378386e+00
  -3.662179e+00
   1.550226e+00
   5.550610e+00
   7.893150e+00
   8.464928e+00
   7.435172e+00
   5.136648e+00
   1.990818e+00
  -1.480894e+00
  -4.636266e+00
  -6.779025e+00
  -7.309172e+00
  -5.872512e+00
  -2.452327e+00
   2.610554e+00
   8.684999e+00
   1.498751e+01
   2.070661e+01
   2.505774e+01
   2.733479e+01
   2.706061e+01
   2.421319e+01
   1.936094e+01
   1.354768e+01
   7.940229e+00
   3.441392e+00
   4.932682e-01
  -8.866518e-01
  -9.864069e-01
  -3.333618e-01
   3.522746e-01
   2.956690e-01
  -1.100412e+00
  -4.061114e+00
  -8.401143e+00
  -1.363411e+01
  -1.913345e+01
  -2.426716e+01
  -2.849059e+01
  -3.140848e+01
  -3.279715e+01
  -3.257104e+01
  -3.073325e+01
  -2.740228e+01
  -2.293107e+01
  -1.797069e+01
  -1.330739e+01
  -9.522393e+00
  -6.759307e+00
  -4.816624e+00
  -3.447490e+00
  -2.550300e+00
  -2.109120e+00
  -2.037182e+00
  -2.133308e+00
  -2.186579e+00
  -2.098275e+00
  -1.876412e+00
  -1.495130e+00
  -7.799209e-01
   5.184049e-01
   2.506781e+00
   5.006646e+00
   7.610072e+00
   9.845528e+00
   1.130979e+01
   1.173643e+01
   1.102903e+01
   9.235439e+00
   6.446533e+00
   2.714366e+00
  -1.885891e+00
  -7.096276e+00
  -1.243384e+01
  -1.736575e+01
  -2.150956e+01
  -2.464238e+01
  -2.660959e+01
  -2.736320e+01
  -2.711433e+01
  -2.637420e+01
  -2.578018e+01
  -2.582594e+01
  -2.666178e+01
  -2.803245e+01
  -2.934356e+01
  -2.984800e+01
  -2.893174e+01
  -2.639572e+01
  -2.256682e+01
  -1.814886e+01
  -1.390701e+01
  -1.038708e+01
  -7.808328e+00
  -6.126005e+00
  -5.173114e+00
  -4.792795e+00
  -4.908968e+00
  -5.509811e+00
  -6.557274e+00
  -7.899083e+00
  -9.278966e+00
  -1.045753e+01
  -1.134483e+01
  -1.203975e+01
  -1.277468e+01
  -1.383484e+01
  -1.548775e+01
  -1.791198e+01
  -2.113185e+01
  -2.498489e+01
  -2.912285e+01
  -3.303155e+01
  -3.608523e+01
  -3.766198e+01
  -3.729522e+01
  -3.477743e+01
  -3.015337e+01
  -2.364017e+01
  -1.557748e+01
  -6.451846e+00
   3.065130e+00
   1.213761e+01
   1.985136e+01
   2.534253e+01
   2.797696e+01
