Corrected acceleration    (Format v01.20 with 13 text lines)
Record of Point MacKenzie Earthquake of Fri Nov 30, 2018 17:29 UTC
Hypocenter: 61.34000 -149.93660 H= 40km Mw=7.0
Origin: 2018/11/30 17:29:28    UTC
Statn No: 02-002738 Code:NP-2738   USGS  AK:Cantwell;ADOT Maint Sta
Coords: 63.3888 -148.8849  Site geology:
Recorder: K2              ( 3 Chns of   3 at Sta) Sensor: (see comment)    
Rcrd start time: 2018/11/30 17:29:30.938 UTC (Q=5) RcrdId: (see comment)
Sta Chan   3: 90 Deg (Rcrdr Chan  ?) Location:Ground
Raw record length = 210.000 sec, Uncor max =     83372, at  66.540 sec.
Processed:2018-12-03 21:55:13 GMT, UNKN, Max = -122.670 cm/sec2 at   66.540 sec
Record filtered below  0.10 Hz (periods over 10.00 secs), and above 40.0 Hz
Values used when parameter or data value is unknown/unspecified:   -999, -999.00
 100 Integer-header values follow on  10 lines, Format= (10I8)
       2       1       4     120       1    -999    -999    2738    -999    -999
       2       2    -999       8    -999       1    -999    -999       4    -999
    -999       2       3    -999    -999    -999    -999    -999    -999     108
       3     536       3    -999      24      24    -999    -999    -999    2018
     334      11      30      17      29       5       5    -999    -999       3
    -999       7    -999      90    -999    -999    -999    -999    -999    -999
       5       5    -999       1    -999    -999    -999    -999    -999    -999
    -999    -999    -999    -999       1       0    -999    -999    -999    -999
    -999    -999    -999    -999    -999    -999    -999    -999    -999    -999
    -999    -999    -999    -999    -999    -999    -999    -999    -999    -999
 100 Real-header values follow on  20 lines, Format= (5F15.6)
      63.388820    -148.884900     661.000000    -999.000000    -999.000000
    -999.000000    -999.000000    -999.000000    -999.000000      61.340000
    -149.936600      40.900000       7.000000    -999.000000    -999.000000
    -999.000000     234.187120      13.392848    -999.000000    -999.000000
    -999.000000       2.384188       5.000000      30.000000     180.000000
      80.000000    -999.000000    -999.000000    -999.000000      30.937860
    -999.000000       0.000000    -999.000000       0.005000     210.000000
     -33.785955    -999.000000    -999.000000    -999.000000     223.976073
       0.697089       1.245400       2.490800       2.000000      80.000000
    -999.000000       1.000000    -999.000000    -999.000000    -999.000000
    -999.000000    -999.000000    -999.000000       0.100000    -999.000000
    -999.000000      40.000000    -999.000000    -999.000000    -999.000000
    -999.000000       5.000000     210.000000    -122.670212      66.540000
       0.000046    -999.000000      -0.000022       0.000024    -999.000000
    -999.000000    -999.000000    -999.000000    -999.000000    -999.000000
    -999.000000    -999.000000    -999.000000    -999.000000      19.235000
      38.335000       0.315886       5.731845    -999.000000       0.343812
    -999.000000    -999.000000     980.665000    -999.000000    -999.000000
    -999.000000    -999.000000    -999.000000    -999.000000    -999.000000
    -999.000000    -999.000000    -999.000000    -999.000000    -999.000000
   7 Comment line(s) follow, each starting with a "|":
| Sensor: Kinemetrics FBA-23 Accel. (2 g max 1.25 v/g)
| RcrdId: US.1000hyfh.NP.2738.HNE.--
|<SCNL>2738.HNE.NP.--    <AUTH> 2018/11/03 21:54:49.000
|<PROCESS> AUTO
|<EONSET> event onset(sec)=  37.5500
|<ABLC>SF:   0.0000, EF:  37.5500, SA:   0.0000, EA: 210.0000, ORDER:  MEAN
|<ABLC>SF:   0.0000, EF: 210.0000, SA:   0.0000, EA: 210.0000, ORDER:ORDER1
   42000 acceleration pts, approx  210 secs, units=cm/sec2(04),Format=(1E15.6)
[...]
   2.085627e+01
   1.666718e+01
   1.222769e+01
   7.418792e+00
   2.175816e+00
  -3.235953e+00
  -8.214990e+00
  -1.214030e+01
  -1.474657e+01
  -1.623542e+01
  -1.706704e+01
  -1.766233e+01
  -1.825759e+01
  -1.893516e+01
  -1.968351e+01
  -2.038421e+01
  -2.077917e+01
  -2.053750e+01
  -1.943499e+01
  -1.750003e+01
  -1.496475e+01
  -1.203661e+01
  -8.695340e+00
  -4.714085e+00
   8.835583e-02
   5.548184e+00
   1.104360e+01
   1.569356e+01
   1.878323e+01
   2.014979e+01
   2.026398e+01
   1.994963e+01
   1.993780e+01
   2.055508e+01
   2.170883e+01
   2.307028e+01
   2.423338e+01
   2.477861e+01
   2.437531e+01
   2.299278e+01
   2.103707e+01
   1.918499e+01
   1.797651e+01
   1.750641e+01
   1.747680e+01
   1.752491e+01
   1.751301e+01
   1.756627e+01
   1.790652e+01
   1.867474e+01
   1.987093e+01
   2.139089e+01
   2.306901e+01
   2.467618e+01
   2.588718e+01
   2.626106e+01
   2.528690e+01
   2.253493e+01
   1.787378e+01
   1.161172e+01
   4.430395e+00
  -2.867163e+00
  -9.627838e+00
  -1.546530e+01
  -2.016255e+01
  -2.345542e+01
  -2.490015e+01
  -2.398767e+01
  -2.046332e+01
  -1.460659e+01
  -7.232091e+00
   5.987306e-01
   7.941427e+00
   1.417368e+01
   1.897178e+01
   2.217076e+01
   2.368078e+01
   2.353013e+01
   2.194123e+01
   1.930035e+01
   1.600962e+01
   1.235247e+01
   8.491834e+00
   4.576124e+00
   8.168696e-01
  -2.559237e+00
  -5.436739e+00
  -7.864141e+00
  -9.928434e+00
  -1.153434e+01
  -1.232566e+01
  -1.189830e+01
  -1.015834e+01
  -7.498157e+00
  -4.625239e+00
  -2.202310e+00
  -5.912687e-01
   1.566555e-01
   1.509124e-01
  -4.660790e-01
  -1.511099e+00
  -2.660079e+00
  -3.429340e+00
  -3.370066e+00
  -2.368492e+00
  -7.546188e-01
   9.395337e-01
   2.373820e+00
   3.585199e+00
   4.823921e+00
   6.244828e+00
   7.759178e+00
   9.138140e+00
   1.019484e+01
   1.084424e+01
   1.102573e+01
   1.061611e+01
   9.440322e+00
   7.397828e+00
   4.636258e+00
   1.622592e+00
  -1.021260e+00
  -2.856960e+00
  -3.881850e+00
  -4.482871e+00
  -5.128901e+00
  -6.021123e+00
  -6.924653e+00
  -7.294948e+00
  -6.639563e+00
  -4.879597e+00
  -2.451206e+00
  -9.272261e-02
   1.485588e+00
   1.812877e+00
   6.929712e-01
  -1.835756e+00
  -5.533278e+00
  -9.999147e+00
  -1.476267e+01
  -1.940065e+01
  -2.360525e+01
  -2.715842e+01
  -2.986814e+01
  -3.155357e+01
  -3.207805e+01
  -3.136632e+01
  -2.940308e+01
  -2.626178e+01
  -2.214731e+01
  -1.738099e+01
  -1.232514e+01
  -7.326732e+00
  -2.730499e+00
   1.080331e+00
   3.704806e+00
   4.856381e+00
   4.553900e+00
   3.237711e+00
   1.707455e+00
   9.007335e-01
   1.625790e+00
   4.352140e+00
   9.098200e+00
   1.542029e+01
   2.251629e+01
   2.944660e+01
   3.540747e+01
   3.993145e+01
   4.292482e+01
   4.455593e+01
   4.507379e+01
   4.463598e+01
   4.321473e+01
   4.063853e+01
   3.675538e+01
   3.159418e+01
   2.538582e+01
   1.845299e+01
   1.112931e+01
   3.803815e+00
  -3.031779e+00
  -8.908155e+00
  -1.362065e+01
  -1.732775e+01
  -2.036371e+01
  -2.292455e+01
  -2.491022e+01
  -2.605307e+01
  -2.622423e+01
  -2.566741e+01
  -2.494003e+01
  -2.455916e+01
  -2.463591e+01
  -2.485311e+01
  -2.483868e+01
  -2.457817e+01
  -2.445455e+01
  -2.488630e+01
  -2.593046e+01
  -2.721155e+01
  -2.819156e+01
  -2.850868e+01
  -2.813000e+01
  -2.727834e+01
  -2.626170e+01
  -2.534420e+01
  -2.469906e+01
  -2.439487e+01
  -2.437422e+01
  -2.445554e+01
  -2.441500e+01
  -2.412684e+01
  -2.363704e+01
  -2.307012e+01
  -2.243901e+01
  -2.154603e+01
  -2.007737e+01
  -1.781176e+01
  -1.478346e+01
  -1.129567e+01
  -7.788677e+00
  -4.648243e+00
  -2.056260e+00
   5.485651e-02
   1.937579e+00
   3.891137e+00
   6.119302e+00
   8.653939e+00
   1.136082e+01
   1.398702e+01
   1.621559e+01
   1.773805e+01
   1.835164e+01
   1.802654e+01
   1.686487e+01
   1.495951e+01
   1.228022e+01
   8.722460e+00
   4.315076e+00
  -5.845891e-01
  -5.305279e+00
  -9.117752e+00
  -1.155327e+01
  -1.255955e+01
  -1.242352e+01
  -1.156572e+01
  -1.033496e+01
  -8.856400e+00
  -6.967818e+00
  -4.308739e+00
  -5.637898e-01
   4.276589e+00
   9.815545e+00
   1.536892e+01
   2.020068e+01
   2.370460e+01
   2.545499e+01
   2.521276e+01
   2.300733e+01
   1.924820e+01
   1.467254e+01
   1.006161e+01
   5.940388e+00
   2.525113e+00
  -9.433822e-02
  -1.787539e+00
  -2.398353e+00
  -1.885161e+00
  -4.554153e-01
   1.385636e+00
   2.920095e+00
   3.438638e+00
   2.484414e+00
  -4.188208e-02
  -3.943369e+00
  -8.831412e+00
  -1.419042e+01
  -1.946168e+01
  -2.420341e+01
  -2.823139e+01
  -3.158194e+01
  -3.429684e+01
  -3.622370e+01
  -3.701149e+01
  -3.628488e+01
  -3.383842e+01
  -2.972562e+01
  -2.424261e+01
  -1.787912e+01
  -1.127374e+01
  -5.126027e+00
  -1.599251e-02
   3.796339e+00
   6.421638e+00
   8.173201e+00
   9.327131e+00
   1.002005e+01
   1.031557e+01
   1.027769e+01
   9.917120e+00
   9.076771e+00
   7.441886e+00
   4.748902e+00
   1.046745e+00
  -3.224167e+00
  -7.436059e+00
  -1.113310e+01
  -1.428247e+01
  -1.721528e+01
  -2.029078e+01
  -2.356473e+01
  -2.676485e+01
  -2.959658e+01
  -3.207272e+01
  -3.453184e+01
  -3.732185e+01
  -4.044636e+01
  -4.348392e+01
  -4.581458e+01
  -4.692254e+01
  -4.653098e+01
  -4.452252e+01
  -4.078323e+01
  -3.514082e+01
  -2.747819e+01
  -1.795633e+01
  -7.147459e+00
   4.102411e+00
   1.503342e+01
   2.526869e+01
   3.479441e+01
   4.366609e+01
   5.173556e+01
   5.864461e+01
   6.405041e+01
   6.783037e+01
   7.006264e+01
   7.082021e+01
   6.998711e+01
   6.724480e+01
   6.220602e+01
   5.461404e+01
   4.456941e+01
   3.271486e+01
   2.021221e+01
   8.404383e+00
  -1.686682e+00
  -9.691618e+00
  -1.582423e+01
  -2.047072e+01
  -2.374212e+01
  -2.533471e+01
  -2.481487e+01
  -2.208162e+01
  -1.759884e+01
  -1.221936e+01
  -6.799772e+00
  -1.927366e+00
   2.114001e+00
   5.245468e+00
   7.515478e+00
   9.097350e+00
   1.031188e+01
   1.158954e+01
   1.333225e+01
   1.572453e+01
   1.860345e+01
   2.148301e+01
   2.375943e+01
   2.501627e+01
   2.524474e+01
   2.480815e+01
   2.416623e+01
   2.357516e+01
   2.296153e+01
   2.196995e+01
   2.007176e+01
   1.669576e+01
   1.141760e+01
   4.187377e+00
  -4.526494e+00
  -1.379382e+01
  -2.247499e+01
  -2.954434e+01
  -3.433706e+01
  -3.663045e+01
  -3.654713e+01
  -3.433964e+01
  -3.018526e+01
  -2.413381e+01
  -1.624140e+01
  -6.761323e+00
   3.772238e+00
   1.461122e+01
   2.493595e+01
   3.399755e+01
   4.125065e+01
   4.648152e+01
   4.986472e+01
   5.182349e+01
   5.267095e+01
   5.225138e+01
   4.991724e+01
   4.495058e+01
   3.713826e+01
   2.705345e+01
   1.584330e+01
   4.716491e+00
  -5.497993e+00
  -1.447280e+01
  -2.218940e+01
  -2.864052e+01
  -3.368784e+01
  -3.717242e+01
  -3.911773e+01
  -3.978753e+01
  -3.955366e+01
  -3.874049e+01
  -3.758787e+01
  -3.629480e+01
  -3.503198e+01
  -3.390412e+01
  -3.292775e+01
  -3.205654e+01
  -3.121913e+01
  -3.034015e+01
  -2.935310e+01
  -2.820496e+01
  -2.683302e+01
  -2.513197e+01
  -2.297126e+01
  -2.027254e+01
  -1.706268e+01
  -1.342001e+01
  -9.353805e+00
  -4.753963e+00
   5.020793e-01
   6.347201e+00
   1.238658e+01
   1.793742e+01
   2.222378e+01
   2.461675e+01
   2.482770e+01
   2.300503e+01
   1.969531e+01
   1.565873e+01
   1.162143e+01
   8.124233e+00
   5.556187e+00
   4.269497e+00
   4.582810e+00
   6.624524e+00
   1.016685e+01
   1.461150e+01
   1.913394e+01
   2.287593e+01
   2.508876e+01
   2.522125e+01
   2.301586e+01
   1.863338e+01
   1.269859e+01
   6.129224e+00
  -2.203546e-01
  -5.867254e+00
  -1.073030e+01
  -1.487917e+01
  -1.822678e+01
  -2.040179e+01
  -2.085482e+01
  -1.909028e+01
  -1.490748e+01
  -8.590537e+00
  -9.819975e-01
   6.650230e+00
   1.296182e+01
   1.693508e+01
   1.810929e+01
   1.656314e+01
   1.278012e+01
   7.554041e+00
   1.941328e+00
  -2.863199e+00
  -5.821060e+00
  -6.435048e+00
  -4.968950e+00
  -2.274483e+00
   7.114572e-01
   3.443253e+00
   5.892154e+00
   8.303244e+00
   1.081209e+01
   1.318012e+01
   1.480050e+01
   1.494166e+01
   1.303377e+01
   8.832828e+00
   2.468013e+00
  -5.568868e+00
  -1.452691e+01
  -2.362853e+01
  -3.231228e+01
  -4.030327e+01
  -4.749052e+01
  -5.377852e+01
  -5.906470e+01
  -6.332716e+01
  -6.669354e+01
  -6.939571e+01
  -7.162793e+01
  -7.340733e+01
  -7.452608e+01
  -7.461502e+01
  -7.327694e+01
  -7.022561e+01
  -6.536813e+01
  -5.880018e+01
  -5.075433e+01
  -4.158571e+01
  -3.181041e+01
  -2.209085e+01
  -1.307336e+01
  -5.156244e+00
   1.616572e+00
   7.443382e+00
   1.254265e+01
   1.701023e+01
   2.084584e+01
   2.407549e+01
   2.682485e+01
   2.927914e+01
   3.158947e+01
   3.381019e+01
   3.588455e+01
   3.766169e+01
   3.895406e+01
   3.963989e+01
   3.974843e+01
   3.942940e+01
   3.879415e+01
   3.776580e+01
   3.610961e+01
   3.364863e+01
   3.046133e+01
   2.685696e+01
   2.316431e+01
   1.958191e+01
   1.624674e+01
   1.337932e+01
   1.124626e+01
   9.921824e+00
   9.126084e+00
   8.368835e+00
   7.274323e+00
   5.749347e+00
   3.858313e+00
   1.618382e+00
  -1.011092e+00
  -3.948714e+00
  -6.881657e+00
  -9.407683e+00
  -1.129895e+01
  -1.262169e+01
  -1.365177e+01
  -1.475789e+01
  -1.635621e+01
  -1.883398e+01
  -2.236699e+01
  -2.677290e+01
  -3.155434e+01
  -3.604763e+01
  -3.951941e+01
  -4.126133e+01
  -4.080566e+01
  -3.813475e+01
  -3.360149e+01
  -2.755324e+01
  -2.002959e+01
  -1.086146e+01
  -8.108406e-02
   1.173881e+01
   2.350274e+01
   3.395657e+01
   4.216126e+01
   4.780636e+01
   5.122210e+01
   5.312551e+01
   5.426224e+01
   5.513168e+01
   5.589787e+01
   5.646066e+01
   5.660216e+01
   5.614395e+01
   5.506233e+01
   5.350103e+01
   5.167832e+01
   4.978944e+01
   4.800527e+01
   4.653114e+01
   4.559843e+01
   4.535396e+01
   4.576624e+01
   4.667019e+01
   4.791603e+01
   4.947158e+01
   5.137975e+01
   5.361152e+01
   5.593478e+01
   5.790450e+01
   5.900258e+01
   5.885738e+01
   5.740897e+01
   5.490614e+01
   5.172124e+01
   4.810378e+01
   4.406707e+01
   3.950728e+01
   3.443988e+01
   2.912172e+01
   2.393739e+01
   1.914926e+01
   1.472480e+01
   1.037015e+01
   5.711213e+00
   4.519328e-01
  -5.592884e+00
  -1.253056e+01
  -2.037363e+01
  -2.896894e+01
  -3.797451e+01
  -4.693462e+01
  -5.539412e+01
  -6.298735e+01
  -6.949788e+01
  -7.487917e+01
  -7.919564e+01
  -8.250287e+01
  -8.476561e+01
  -8.586921e+01
  -8.568634e+01
  -8.415772e+01
  -8.136878e+01
  -7.755511e+01
  -7.296457e+01
  -6.765261e+01
  -6.142318e+01
  -5.402016e+01
  -4.540342e+01
  -3.583480e+01
  -2.570739e+01
  -1.533617e+01
  -4.942765e+00
   5.201228e+00
   1.470549e+01
   2.317664e+01
   3.036684e+01
   3.616165e+01
   4.043656e+01
   4.299868e+01
   4.374428e+01
   4.290514e+01
   4.110926e+01
   3.911694e+01
   3.740614e+01
   3.596651e+01
   3.449728e+01
   3.281792e+01
   3.109121e+01
   2.966536e+01
   2.874370e+01
   2.824786e+01
   2.800874e+01
   2.807777e+01
   2.884640e+01
   3.085274e+01
   3.443773e+01
   3.953144e+01
   4.569115e+01
   5.225078e+01
   5.839997e+01
   6.323197e+01
   6.592732e+01
   6.604895e+01
   6.368975e+01
   5.930077e+01
   5.334374e+01
   4.607482e+01
   3.761727e+01
   2.819815e+01
   1.827809e+01
   8.427513e+00
  -9.228616e-01
  -9.605606e+00
  -1.763576e+01
  -2.508738e+01
  -3.208669e+01
  -3.887206e+01
  -4.576145e+01
  -5.299464e+01
  -6.059962e+01
  -6.843740e+01
  -7.639532e+01
  -8.452358e+01
  -9.293340e+01
  -1.015009e+02
  -1.096456e+02
  -1.164323e+02
  -1.209534e+02
  -1.226702e+02
  -1.214427e+02
  -1.172993e+02
  -1.102355e+02
  -1.002453e+02
  -8.751598e+01
  -7.256660e+01
  -5.620427e+01
  -3.937483e+01
  -2.306545e+01
  -8.293098e+00
   3.953279e+00
   1.294120e+01
   1.852483e+01
   2.131912e+01
   2.248401e+01
   2.317670e+01
   2.405471e+01
   2.518522e+01
   2.631587e+01
   2.715604e+01
   2.745064e+01
   2.694183e+01
   2.538437e+01
   2.261575e+01
   1.860282e+01
   1.348035e+01
   7.631729e+00
   1.719405e+00
  -3.499189e+00
  -7.523322e+00
  -1.032395e+01
  -1.219926e+01
  -1.341028e+01
  -1.393045e+01
  -1.346643e+01
  -1.164366e+01
  -8.195094e+00
  -3.074469e+00
   3.533840e+00
   1.129558e+01
   1.981296e+01
   2.863829e+01
   3.726503e+01
   4.520521e+01
   5.211389e+01
   5.777976e+01
   6.194367e+01
   6.418794e+01
   6.413871e+01
   6.187199e+01
   5.811657e+01
   5.397281e+01
   5.031290e+01
   4.734286e+01
   4.467017e+01
   4.178752e+01
   3.855733e+01
   3.530854e+01
   3.249899e+01
   3.027563e+01
   2.831871e+01
   2.602853e+01
   2.280861e+01
   1.824914e+01
   1.223121e+01
   5.014719e+00
  -2.752845e+00
  -1.022128e+01
  -1.668138e+01
  -2.183126e+01
  -2.574644e+01
  -2.860417e+01
  -3.043200e+01
  -3.108743e+01
  -3.043858e+01
  -2.855147e+01
  -2.572028e+01
  -2.234826e+01
  -1.882463e+01
  -1.551482e+01
  -1.283271e+01
  -1.125414e+01
  -1.117802e+01
  -1.270844e+01
  -1.555964e+01
  -1.921577e+01
  -2.323974e+01
  -2.746147e+01
  -3.189376e+01
  -3.650683e+01
  -4.111913e+01
  -4.551039e+01
  -4.962092e+01
  -5.361800e+01
  -5.774827e+01
  -6.211132e+01
  -6.657051e+01
  -7.087757e+01
  -7.488502e+01
  -7.866692e+01
  -8.248085e+01
  -8.662831e+01
  -9.130290e+01
  -9.647114e+01
  -1.017893e+02
  -1.065801e+02
  -1.099436e+02
  -1.110450e+02
  -1.094690e+02
  -1.054037e+02
  -9.949933e+01
  -9.250917e+01
  -8.498597e+01
  -7.721260e+01
  -6.933005e+01
  -6.149283e+01
  -5.389448e+01
  -4.663767e+01
  -3.960117e+01
  -3.248270e+01
  -2.498937e+01
  -1.697364e+01
  -8.419588e+00
   6.186947e-01
   1.002693e+01
   1.961008e+01
   2.908157e+01
   3.806497e+01
   4.613523e+01
   5.293619e+01
   5.832454e+01
   6.242131e+01
   6.551433e+01
   6.788741e+01
   6.971091e+01
   7.106219e+01
   7.202356e+01
   7.274260e+01
   7.338618e+01
   7.402569e+01
   7.456085e+01
   7.475972e+01
   7.438776e+01
   7.331645e+01
   7.151928e+01
   6.898035e+01
   6.565331e+01
   6.156640e+01
   5.697007e+01
   5.231369e+01
   4.801949e+01
   4.428693e+01
   4.111711e+01
   3.844983e+01
   3.621178e+01
   3.428788e+01
   3.255731e+01
   3.099070e+01
   2.967527e+01
   2.874592e+01
   2.835007e+01
   2.870609e+01
   3.013080e+01
   3.290270e+01
   3.704357e+01
   4.226578e+01
   4.817997e+01
   5.452579e+01
   6.113924e+01
   6.772665e+01
   7.377204e+01
   7.868689e+01
   8.197832e+01
   8.324893e+01
   8.213143e+01
   7.836528e+01
   7.202033e+01
   6.364120e+01
   5.412046e+01
   4.438784e+01
   3.519134e+01
   2.709522e+01
   2.054261e+01
   1.580926e+01
   1.288167e+01
   1.139257e+01
   1.066499e+01
   9.860892e+00
   8.237620e+00
   5.431842e+00
   1.573912e+00
  -2.874127e+00
  -7.413422e+00
  -1.170675e+01
  -1.561461e+01
  -1.916352e+01
  -2.253061e+01
  -2.603954e+01
  -3.011422e+01
  -3.514134e+01
  -4.125082e+01
  -4.812684e+01
  -5.502185e+01
  -6.104787e+01
  -6.559177e+01
  -6.854821e+01
  -7.018459e+01
  -7.078028e+01
  -7.038119e+01
  -6.885010e+01
  -6.607674e+01
  -6.212016e+01
  -5.722138e+01
  -5.175394e+01
  -4.614825e+01
  -4.080521e+01
  -3.607489e+01
  -3.234764e+01
  -3.015433e+01
  -3.011939e+01
  -3.273125e+01
  -3.803556e+01
  -4.543044e+01
  -5.372956e+01
  -6.149642e+01
  -6.744726e+01
  -7.071437e+01
  -7.094262e+01
  -6.827243e+01
  -6.318434e+01
  -5.620936e+01
  -4.769857e+01
  -3.786594e+01
  -2.703294e+01
  -1.578553e+01
  -4.896024e+00
   4.886862e+00
   1.304342e+01
   1.943099e+01
   2.431400e+01
   2.819618e+01
   3.149654e+01
   3.429013e+01
   3.635034e+01
   3.748917e+01
   3.788474e+01
   3.805734e+01
   3.850111e+01
   3.933901e+01
   4.033085e+01
   4.118453e+01
   4.182937e+01
   4.239982e+01
   4.300521e+01
   4.355143e+01
   4.377311e+01
   4.341977e+01
   4.244476e+01
   4.107569e+01
   3.972022e+01
   3.877150e+01
   3.846798e+01
   3.890643e+01
   4.013382e+01
   4.217608e+01
   4.498536e+01
   4.840963e+01
   5.223263e+01
   5.620528e+01
   6.000765e+01
   6.322953e+01
   6.549426e+01
   6.666923e+01
   6.694093e+01
   6.663617e+01
   6.593634e+01
   6.473402e+01
   6.272590e+01
   5.962432e+01
   5.530257e+01
   4.977970e+01
   4.310327e+01
   3.528019e+01
   2.635224e+01
   1.654917e+01
   6.338568e+00
  -3.721469e+00
  -1.318362e+01
  -2.172804e+01
  -2.899033e+01
  -3.447864e+01
  -3.777024e+01
  -3.881713e+01
  -3.804846e+01
  -3.618605e+01
  -3.395029e+01
  -3.184450e+01
  -3.006767e+01
  -2.853218e+01
  -2.697658e+01
  -2.514828e+01
  -2.295789e+01
  -2.049177e+01
  -1.788935e+01
