Corrected acceleration    (Format v01.20 with 13 text lines)
Record of Point MacKenzie Earthquake of Fri Nov 30, 2018 17:29 UTC
Hypocenter: 61.34000 -149.93660 H= 40km Mw=7.0
Origin: 2018/11/30 17:29:28    UTC
Statn No: 02-008030 Code:NP-8030   USGS  AK:Anchorage;Police HQ
Coords: 61.1795 -149.8058  Site geology:
Recorder: (see cmnt)      ( 3 Chns of   3 at Sta) Sensor: (see comment)    
Rcrd start time: 2018/11/30 17:29:04.874 UTC (Q=5) RcrdId: (see comment)
Sta Chan   2:360 Deg (Rcrdr Chan  ?) Location:Ground
Raw record length = 199.125 sec, Uncor max =    631985, at  43.700 sec.
Processed:2018-12-03 21:58:43 GMT, UNKN, Max = -284.832 cm/sec2 at   43.700 sec
Record filtered below  0.10 Hz (periods over 10.00 secs), and above 40.0 Hz
Values used when parameter or data value is unknown/unspecified:   -999, -999.00
 100 Integer-header values follow on  10 lines, Format= (10I8)
       2       1       4     120       1    -999    -999    8030    -999    -999
       2       2    -999       8    -999       1    -999    -999       4    -999
    -999       1       3    -999    -999    -999    -999    -999    -999    1000
       3     360       3    -999       0       0    -999    -999    -999    2018
     334      11      30      17      29       5       5    -999    -999       2
    -999      20    -999     360    -999    -999    -999    -999    -999    -999
       5       5    -999       1    -999    -999    -999    -999    -999    -999
    -999    -999    -999    -999       1       0    -999    -999    -999    -999
    -999    -999    -999    -999    -999    -999    -999    -999    -999    -999
    -999    -999    -999    -999    -999    -999    -999    -999    -999    -999
 100 Real-header values follow on  20 lines, Format= (5F15.6)
      61.179500    -149.805800      53.000000    -999.000000    -999.000000
    -999.000000    -999.000000    -999.000000    -999.000000      61.340000
    -149.936600      40.900000       7.000000    -999.000000    -999.000000
    -999.000000      19.168108     158.601703    -999.000000    -999.000000
    -999.000000       2.384188       0.000000      30.000000     169.126466
      80.000000    -999.000000    -999.000000    -999.000000       4.873530
    -999.000000       0.000000    -999.000000       0.005000     199.125000
      -8.254414    -999.000000    -999.000000    -999.000000     223.976073
       0.697089       5.001400      20.005600       4.000000      80.000000
    -999.000000       1.000000    -999.000000    -999.000000    -999.000000
    -999.000000    -999.000000    -999.000000       0.100000    -999.000000
    -999.000000      40.000000    -999.000000    -999.000000    -999.000000
    -999.000000       5.000000     199.126466    -284.832150      43.700000
      -0.000063    -999.000000       0.000060       0.000095    -999.000000
    -999.000000    -999.000000    -999.000000    -999.000000    -999.000000
    -999.000000    -999.000000    -999.000000    -999.000000      18.520000
      14.050000       1.030389      10.147503    -999.000000       1.339774
    -999.000000    -999.000000     980.665000    -999.000000    -999.000000
    -999.000000    -999.000000    -999.000000    -999.000000    -999.000000
    -999.000000    -999.000000    -999.000000    -999.000000    -999.000000
  11 Comment line(s) follow, each starting with a "|":
| Recorder: Basalt-4x 
| Sensor: Episensor (4 g max 5.0 v/g)
| RcrdId: US.1000hyfh.NP.8030.HNN.--
|<SCNL>8030.HNN.NP.--    <AUTH> 2018/11/03 21:54:50.000
|<PROCESS> AUTO
|<EONSET> event onset(sec)=  35.0900
|<ABLC>SF:   0.0000, EF:  35.0900, SA:   0.0000, EA: 199.1250, ORDER:  MEAN
|<ABLC>SF:   0.0000, EF: 199.1250, SA:   0.0000, EA: 199.1250, ORDER:ORDER1
|<ABLABC1>SF:   0.0000, EF:  35.0900, SA:   0.0000, EA:  35.0900, ORDER:ORDER1
|<ABLABC2>SF:  35.0900, EF: 159.0900, SA:  35.0900, EA: 159.0900, ORDER:ORDER2
|<ABLABC3>SF: 159.0900, EF: 199.1250, SA: 159.0900, EA: 199.1250, ORDER:  MEAN
   39825 acceleration pts, approx  199 secs, units=cm/sec2(04),Format=(1E15.6)
[...]
  -8.541061e+01
  -8.651489e+01
  -9.149460e+01
  -9.623934e+01
  -9.382060e+01
  -8.172680e+01
  -6.457750e+01
  -4.929560e+01
  -3.877499e+01
  -3.100385e+01
  -2.311267e+01
  -1.453210e+01
  -6.286138e+00
   1.222388e+00
   8.880771e+00
   1.793403e+01
   2.895407e+01
   4.135485e+01
   5.355178e+01
   6.401392e+01
   7.251270e+01
   7.990190e+01
   8.641771e+01
   9.097030e+01
   9.276326e+01
   9.287681e+01
   9.304417e+01
   9.282508e+01
   8.899839e+01
   7.837902e+01
   6.091890e+01
   3.968541e+01
   1.826792e+01
  -1.114929e+00
  -1.733426e+01
  -2.957931e+01
  -3.771981e+01
  -4.283151e+01
  -4.633393e+01
  -4.870344e+01
  -4.989257e+01
  -5.085768e+01
  -5.335841e+01
  -5.772901e+01
  -6.197703e+01
  -6.408465e+01
  -6.430431e+01
  -6.349848e+01
  -5.946381e+01
  -4.735678e+01
  -2.537676e+01
   1.167337e+00
   2.332306e+01
   3.597340e+01
   4.097031e+01
   4.344943e+01
   4.655585e+01
   4.981094e+01
   5.101944e+01
   4.871241e+01
   4.329892e+01
   3.667117e+01
   3.056795e+01
   2.501257e+01
   1.877494e+01
   1.162715e+01
   5.279037e+00
   1.316375e+00
  -1.155375e+00
  -4.903708e+00
  -1.179696e+01
  -2.118290e+01
  -3.076450e+01
  -3.837509e+01
  -4.285458e+01
  -4.398249e+01
  -4.220079e+01
  -3.825356e+01
  -3.266206e+01
  -2.546580e+01
  -1.654824e+01
  -6.002655e+00
   6.018921e+00
   1.940428e+01
   3.341366e+01
   4.607141e+01
   5.501692e+01
   5.940196e+01
   6.079346e+01
   6.186556e+01
   6.370371e+01
   6.385475e+01
   5.726379e+01
   4.033064e+01
   1.487771e+01
  -1.225373e+01
  -3.399884e+01
  -4.731656e+01
  -5.318183e+01
  -5.409226e+01
  -5.269456e+01
  -5.181019e+01
  -5.375635e+01
  -5.885258e+01
  -6.527355e+01
  -7.075152e+01
  -7.383646e+01
  -7.322333e+01
  -6.676040e+01
  -5.240213e+01
  -3.067902e+01
  -5.786132e+00
   1.662200e+01
   3.315797e+01
   4.400913e+01
   5.030279e+01
   5.081570e+01
   4.265098e+01
   2.574831e+01
   5.593776e+00
  -1.010510e+01
  -1.763078e+01
  -1.933352e+01
  -1.954498e+01
  -1.966545e+01
  -1.791084e+01
  -1.266481e+01
  -4.532304e+00
   4.677567e+00
   1.357349e+01
   2.128144e+01
   2.672862e+01
   2.863701e+01
   2.635082e+01
   2.061928e+01
   1.366991e+01
   8.321270e+00
   6.359545e+00
   7.275704e+00
   8.716296e+00
   8.564568e+00
   6.672085e+00
   4.478161e+00
   3.282713e+00
   3.465457e+00
   5.193674e+00
   8.857574e+00
   1.430572e+01
   2.040740e+01
   2.623968e+01
   3.245104e+01
   4.059530e+01
   5.099156e+01
   6.187437e+01
   7.075867e+01
   7.571314e+01
   7.472741e+01
   6.507784e+01
   4.541678e+01
   1.893064e+01
  -7.271039e+00
  -2.731658e+01
  -4.068055e+01
  -5.066590e+01
  -6.003544e+01
  -6.934225e+01
  -7.846992e+01
  -8.770099e+01
  -9.685448e+01
  -1.046651e+02
  -1.099395e+02
  -1.130500e+02
  -1.157950e+02
  -1.197725e+02
  -1.247515e+02
  -1.279544e+02
  -1.246828e+02
  -1.108692e+02
  -8.683711e+01
  -5.874673e+01
  -3.439706e+01
  -1.608247e+01
   1.370248e+00
   2.388949e+01
   5.036016e+01
   7.356780e+01
   8.868938e+01
   9.853113e+01
   1.093028e+02
   1.228058e+02
   1.348042e+02
   1.408403e+02
   1.411799e+02
   1.383316e+02
   1.313160e+02
   1.156808e+02
   9.000578e+01
   6.012173e+01
   3.506120e+01
   1.942328e+01
   1.076959e+01
   3.891766e+00
  -3.950726e+00
  -1.230228e+01
  -2.034793e+01
  -2.863780e+01
  -3.778248e+01
  -4.677759e+01
  -5.374615e+01
  -5.796034e+01
  -6.013446e+01
  -6.084569e+01
  -5.986515e+01
  -5.759659e+01
  -5.627521e+01
  -5.857336e+01
  -6.489622e+01
  -7.276230e+01
  -7.921878e+01
  -8.328410e+01
  -8.528367e+01
  -8.431014e+01
  -7.798246e+01
  -6.545320e+01
  -4.955699e+01
  -3.487550e+01
  -2.408569e+01
  -1.672785e+01
  -1.071570e+01
  -4.238118e+00
   3.180550e+00
   1.066807e+01
   1.722827e+01
   2.314515e+01
   2.964436e+01
   3.695772e+01
   4.331592e+01
   4.635630e+01
   4.537805e+01
   4.195769e+01
   3.857925e+01
   3.706329e+01
   3.813696e+01
   4.158792e+01
   4.591265e+01
   4.788822e+01
   4.364245e+01
   3.133053e+01
   1.304991e+01
  -6.218165e+00
  -2.181320e+01
  -3.179869e+01
  -3.693205e+01
  -3.927446e+01
  -4.115448e+01
  -4.463660e+01
  -5.076401e+01
  -5.884741e+01
  -6.683882e+01
  -7.277952e+01
  -7.585601e+01
  -7.586233e+01
  -7.192844e+01
  -6.272142e+01
  -4.850655e+01
  -3.235297e+01
  -1.816790e+01
  -7.383277e+00
   1.711333e+00
   1.116568e+01
   2.058332e+01
   2.752726e+01
   3.011132e+01
   2.841761e+01
   2.344391e+01
   1.567855e+01
   5.814048e+00
  -3.256027e+00
  -6.762924e+00
  -1.568779e+00
   1.119822e+01
   2.758391e+01
   4.415486e+01
   5.939872e+01
   7.260036e+01
   8.235234e+01
   8.645571e+01
   8.330373e+01
   7.361858e+01
   6.078242e+01
   4.877060e+01
   3.917295e+01
   3.022200e+01
   1.888749e+01
   4.002889e+00
  -1.263096e+01
  -2.823112e+01
  -4.189672e+01
  -5.499199e+01
  -6.844439e+01
  -8.009904e+01
  -8.549074e+01
  -8.170594e+01
  -7.041560e+01
  -5.656888e+01
  -4.368394e+01
  -3.070258e+01
  -1.399755e+01
   7.720383e+00
   3.113889e+01
   5.087545e+01
   6.348280e+01
   6.885314e+01
   6.877953e+01
   6.531383e+01
   6.063071e+01
   5.756174e+01
   5.893564e+01
   6.533769e+01
   7.335655e+01
   7.684839e+01
   7.102307e+01
   5.600127e+01
   3.670737e+01
   1.952857e+01
   8.837755e+00
   5.496629e+00
   7.281604e+00
   1.058413e+01
   1.260097e+01
   1.254317e+01
   1.095898e+01
   8.350804e+00
   4.871382e+00
   9.117260e-01
  -2.976537e+00
  -7.032319e+00
  -1.267781e+01
  -2.148130e+01
  -3.349178e+01
  -4.658392e+01
  -5.777797e+01
  -6.542232e+01
  -6.962444e+01
  -7.014379e+01
  -6.459681e+01
  -5.003326e+01
  -2.659903e+01
   1.237757e+00
   2.774390e+01
   4.988289e+01
   6.815534e+01
   8.452596e+01
   1.003072e+02
   1.153491e+02
   1.281989e+02
   1.371690e+02
   1.418528e+02
   1.433488e+02
   1.425998e+02
   1.387654e+02
   1.293271e+02
   1.116952e+02
   8.540578e+01
   5.351859e+01
   2.134283e+01
  -7.285894e+00
  -3.262850e+01
  -5.755618e+01
  -8.369892e+01
  -1.097589e+02
  -1.334168e+02
  -1.536852e+02
  -1.708408e+02
  -1.850173e+02
  -1.959262e+02
  -2.036659e+02
  -2.089185e+02
  -2.122989e+02
  -2.140491e+02
  -2.143666e+02
  -2.135240e+02
  -2.115616e+02
  -2.081328e+02
  -2.024182e+02
  -1.927258e+02
  -1.768404e+02
  -1.542299e+02
  -1.280944e+02
  -1.039596e+02
  -8.547498e+01
  -7.178183e+01
  -5.895246e+01
  -4.362315e+01
  -2.536463e+01
  -6.207909e+00
   1.145469e+01
   2.630922e+01
   3.805269e+01
   4.679490e+01
   5.295651e+01
   5.751583e+01
   6.184560e+01
   6.707192e+01
   7.377417e+01
   8.219913e+01
   9.183531e+01
   1.000513e+02
   1.020473e+02
   9.406203e+01
   7.735629e+01
   5.818265e+01
   4.350496e+01
   3.726219e+01
   3.989166e+01
   4.927491e+01
   6.145207e+01
   7.171387e+01
   7.635512e+01
   7.386304e+01
   6.461279e+01
   5.003600e+01
   3.270748e+01
   1.663169e+01
   5.848280e+00
   2.017684e+00
   3.926880e+00
   9.602773e+00
   1.814461e+01
   2.907940e+01
   4.089195e+01
   5.148419e+01
   6.016909e+01
   6.839404e+01
   7.818390e+01
   9.015250e+01
   1.029789e+02
   1.145006e+02
   1.233870e+02
   1.298052e+02
   1.339733e+02
   1.339406e+02
   1.258758e+02
   1.078032e+02
   8.299055e+01
   5.853158e+01
   3.979483e+01
   2.629709e+01
   1.323874e+01
  -3.249301e+00
  -2.302922e+01
  -4.379571e+01
  -6.452906e+01
  -8.629005e+01
  -1.103026e+02
  -1.359660e+02
  -1.603820e+02
  -1.794973e+02
  -1.902982e+02
  -1.925795e+02
  -1.886295e+02
  -1.810619e+02
  -1.709926e+02
  -1.582256e+02
  -1.428609e+02
  -1.263743e+02
  -1.108368e+02
  -9.682544e+01
  -8.223182e+01
  -6.387150e+01
  -4.092704e+01
  -1.650592e+01
   5.010594e+00
   2.229634e+01
   3.834224e+01
   5.742586e+01
   8.111097e+01
   1.068901e+02
   1.301128e+02
   1.472294e+02
   1.575506e+02
   1.621183e+02
   1.615495e+02
   1.560782e+02
   1.474339e+02
   1.387621e+02
   1.320172e+02
   1.267706e+02
   1.217940e+02
   1.161713e+02
   1.083908e+02
   9.592618e+01
   7.714934e+01
   5.369793e+01
   3.010619e+01
   1.041528e+01
  -4.539459e+00
  -1.570163e+01
  -2.203944e+01
  -2.008472e+01
  -8.638979e+00
   7.081281e+00
   1.847176e+01
   2.165374e+01
   2.137722e+01
   2.589896e+01
   3.868580e+01
   5.616044e+01
   7.298924e+01
   8.766195e+01
   1.021672e+02
   1.178612e+02
   1.334329e+02
   1.465101e+02
   1.557556e+02
   1.610524e+02
   1.624925e+02
   1.596526e+02
   1.514329e+02
   1.363620e+02
   1.136751e+02
   8.463565e+01
   5.249632e+01
   2.064808e+01
  -9.181604e+00
  -3.658127e+01
  -6.077449e+01
  -8.105341e+01
  -9.989808e+01
  -1.236773e+02
  -1.573135e+02
  -1.978072e+02
  -2.345107e+02
  -2.568503e+02
  -2.623853e+02
  -2.578658e+02
  -2.519999e+02
  -2.459729e+02
  -2.311647e+02
  -1.982086e+02
  -1.494720e+02
  -1.006501e+02
  -6.747362e+01
  -5.161523e+01
  -4.209935e+01
  -2.952208e+01
  -1.533734e+01
  -7.085515e+00
  -8.293676e+00
  -1.508454e+01
  -2.065590e+01
  -2.065672e+01
  -1.478390e+01
  -5.548413e+00
   3.764615e+00
   1.157250e+01
   1.979126e+01
   3.246906e+01
   5.154229e+01
   7.432097e+01
   9.596219e+01
   1.138689e+02
   1.287091e+02
   1.417296e+02
   1.527429e+02
   1.612627e+02
   1.680804e+02
   1.739315e+02
   1.770156e+02
   1.738365e+02
   1.631637e+02
   1.479756e+02
   1.328024e+02
   1.198571e+02
   1.082135e+02
   9.605583e+01
   8.306121e+01
   7.104658e+01
   6.291741e+01
   6.030688e+01
   6.106614e+01
   5.935753e+01
   4.978027e+01
   3.218528e+01
   1.161038e+01
  -7.189114e+00
  -2.412076e+01
  -4.183567e+01
  -6.105512e+01
  -7.999629e+01
  -9.780472e+01
  -1.160480e+02
  -1.363669e+02
  -1.586880e+02
  -1.823917e+02
  -2.068396e+02
  -2.291250e+02
  -2.436615e+02
  -2.472212e+02
  -2.437640e+02
  -2.408278e+02
  -2.396263e+02
  -2.306055e+02
  -2.013392e+02
  -1.496849e+02
  -8.851364e+01
  -3.665968e+01
  -5.025862e+00
   8.754222e+00
   1.374774e+01
   1.609666e+01
   1.587560e+01
   1.089405e+01
   1.245717e+00
  -9.742432e+00
  -1.740326e+01
  -1.808005e+01
  -1.100272e+01
   7.680557e-01
   1.176075e+01
   1.837566e+01
   2.269402e+01
   3.105916e+01
   4.799077e+01
   7.183174e+01
   9.641535e+01
   1.162556e+02
   1.299934e+02
   1.393550e+02
   1.450589e+02
   1.440718e+02
   1.316451e+02
   1.064729e+02
   7.342108e+01
   4.060905e+01
   1.384756e+01
  -5.868762e+00
  -2.021501e+01
  -3.052704e+01
  -3.735354e+01
  -4.136867e+01
  -4.295576e+01
  -4.113897e+01
  -3.456197e+01
  -2.412040e+01
  -1.361100e+01
  -7.011198e+00
  -5.592241e+00
  -8.003142e+00
  -1.224230e+01
  -1.652979e+01
  -1.851736e+01
  -1.509349e+01
  -4.489233e+00
   1.127472e+01
   2.733195e+01
   4.002250e+01
   4.925667e+01
   5.689916e+01
   6.442842e+01
   7.271751e+01
   8.239554e+01
   9.309528e+01
   1.032393e+02
   1.118201e+02
   1.198663e+02
   1.289068e+02
   1.383141e+02
   1.455884e+02
   1.493910e+02
   1.510051e+02
   1.521827e+02
   1.523274e+02
   1.486718e+02
   1.391466e+02
   1.245408e+02
   1.079357e+02
   9.259793e+01
   8.030632e+01
   7.075947e+01
   6.202824e+01
   5.194898e+01
   3.955300e+01
   2.518223e+01
   9.308296e+00
  -8.293286e+00
  -2.790719e+01
  -4.891283e+01
  -7.036512e+01
  -9.268453e+01
  -1.177680e+02
  -1.465387e+02
  -1.768879e+02
  -2.052124e+02
  -2.299082e+02
  -2.518213e+02
  -2.706487e+02
  -2.827799e+02
  -2.848322e+02
  -2.784517e+02
  -2.684817e+02
  -2.551069e+02
  -2.303446e+02
  -1.858434e+02
  -1.246904e+02
  -6.284996e+01
  -1.678247e+01
   9.802825e+00
   2.608730e+01
   4.272382e+01
   6.248617e+01
   8.149668e+01
   9.637116e+01
   1.082608e+02
   1.211690e+02
   1.379045e+02
   1.573782e+02
   1.754643e+02
   1.888303e+02
   1.970954e+02
   2.006631e+02
   1.987769e+02
   1.914482e+02
   1.810304e+02
   1.700847e+02
   1.593386e+02
   1.486347e+02
   1.386809e+02
   1.316046e+02
   1.296458e+02
   1.318865e+02
   1.326665e+02
   1.258476e+02
   1.108244e+02
   9.184355e+01
   7.144598e+01
   4.778575e+01
   1.962155e+01
  -8.701153e+00
  -2.994435e+01
  -4.140944e+01
  -4.775726e+01
  -5.565089e+01
  -6.698854e+01
  -7.892273e+01
  -8.941581e+01
  -1.000026e+02
  -1.126405e+02
  -1.263048e+02
  -1.379137e+02
  -1.448798e+02
  -1.458812e+02
  -1.411423e+02
  -1.332700e+02
  -1.263761e+02
  -1.231871e+02
  -1.235167e+02
  -1.255187e+02
  -1.273789e+02
  -1.277681e+02
  -1.258588e+02
  -1.215156e+02
  -1.148945e+02
  -1.056247e+02
  -9.330733e+01
  -7.901803e+01
  -6.488625e+01
  -5.199377e+01
  -4.051949e+01
  -3.212990e+01
  -3.008832e+01
  -3.581627e+01
  -4.570240e+01
  -5.237805e+01
  -5.111120e+01
  -4.569427e+01
  -4.570236e+01
  -5.570003e+01
  -6.816027e+01
  -6.954034e+01
  -5.430775e+01
  -3.177291e+01
  -1.758143e+01
  -1.893640e+01
  -2.958270e+01
  -3.828463e+01
  -3.953845e+01
  -3.594916e+01
  -3.284749e+01
  -3.193562e+01
  -2.937736e+01
  -1.979522e+01
  -2.442193e+00
   1.725611e+01
   3.284603e+01
   4.267375e+01
   5.018836e+01
   5.987582e+01
   7.403365e+01
   9.246142e+01
   1.133284e+02
   1.339444e+02
   1.522939e+02
   1.691690e+02
   1.877002e+02
   2.087902e+02
   2.275714e+02
   2.370626e+02
   2.360758e+02
   2.312557e+02
   2.295227e+02
   2.292201e+02
   2.199485e+02
   1.912812e+02
   1.419804e+02
   8.210796e+01
   2.700674e+01
  -1.220791e+01
  -3.468278e+01
  -4.740070e+01
  -5.685399e+01
  -6.409392e+01
  -6.782681e+01
  -6.909665e+01
  -7.040208e+01
  -7.234753e+01
  -7.420788e+01
  -7.646261e+01
  -7.959942e+01
  -8.103496e+01
  -7.658793e+01
  -6.577988e+01
  -5.321715e+01
  -4.335470e+01
  -3.563976e+01
  -2.661833e+01
  -1.560707e+01
  -5.750904e+00
   5.764665e-01
   5.014319e+00
   1.066370e+01
   1.770734e+01
   2.301383e+01
   2.352700e+01
   1.883545e+01
   1.063404e+01
   9.284747e-01
  -8.918059e+00
  -1.843020e+01
  -2.816324e+01
  -3.936202e+01
  -5.279658e+01
  -6.722252e+01
  -7.881460e+01
  -8.344517e+01
  -8.121598e+01
  -7.848351e+01
  -8.358311e+01
  -9.919092e+01
  -1.185414e+02
  -1.296027e+02
  -1.241938e+02
  -1.042508e+02
  -7.960615e+01
  -5.966903e+01
  -4.719731e+01
  -3.924828e+01
  -3.246204e+01
  -2.661177e+01
  -2.392038e+01
  -2.605063e+01
  -3.179513e+01
  -3.709567e+01
  -3.698024e+01
  -2.787536e+01
  -9.206962e+00
   1.620538e+01
   4.358201e+01
   6.904924e+01
   9.145775e+01
   1.112470e+02
   1.281051e+02
   1.407525e+02
   1.490770e+02
   1.554048e+02
   1.625238e+02
   1.701165e+02
   1.738543e+02
   1.690872e+02
   1.553532e+02
   1.362247e+02
   1.150529e+02
   9.246403e+01
   6.806791e+01
   4.307488e+01
   2.045670e+01
   2.626101e+00
  -1.102872e+01
  -2.400213e+01
  -3.957135e+01
  -5.794440e+01
  -7.687061e+01
  -9.479019e+01
  -1.122855e+02
  -1.295643e+02
  -1.432985e+02
  -1.478555e+02
  -1.404457e+02
  -1.243648e+02
  -1.067104e+02
  -9.338540e+01
  -8.650172e+01
  -8.536553e+01
  -8.813493e+01
  -9.210518e+01
  -9.357955e+01
  -8.872736e+01
  -7.515354e+01
  -5.296146e+01
  -2.477253e+01
   4.980125e+00
   3.142718e+01
   5.128954e+01
   6.432450e+01
   7.275321e+01
   7.921433e+01
   8.522904e+01
   9.113941e+01
   9.677829e+01
   1.019072e+02
   1.063274e+02
   1.098732e+02
   1.121673e+02
   1.123234e+02
   1.092388e+02
   1.023529e+02
   9.190552e+01
   7.847365e+01
   6.258844e+01
   4.487319e+01
   2.625101e+01
   7.676507e+00
  -1.052491e+01
  -2.894166e+01
  -4.827385e+01
  -6.796256e+01
  -8.593867e+01
  -1.002879e+02
  -1.110660e+02
  -1.196276e+02
  -1.257365e+02
  -1.262936e+02
  -1.184625e+02
  -1.042437e+02
  -9.035596e+01
  -8.231817e+01
  -7.946028e+01
  -7.711429e+01
  -7.307389e+01
  -7.003443e+01
  -7.150869e+01
  -7.714202e+01
  -8.309825e+01
  -8.611813e+01
  -8.614664e+01
  -8.535587e+01
  -8.539822e+01
  -8.551981e+01
  -8.287119e+01
  -7.476533e+01
  -6.102000e+01
  -4.416569e+01
  -2.749179e+01
  -1.323173e+01
  -2.323386e+00
   5.181856e+00
   1.002608e+01
   1.338427e+01
   1.572909e+01
   1.603266e+01
   1.268646e+01
   5.440352e+00
  -3.957708e+00
  -1.337577e+01
  -2.241626e+01
  -3.247943e+01
  -4.435410e+01
  -5.602963e+01
  -6.372023e+01
  -6.542459e+01
  -6.297029e+01
  -5.997430e+01
  -5.796245e+01
  -5.509804e+01
  -4.878586e+01
  -3.891006e+01
  -2.809649e+01
  -1.906785e+01
