Corrected acceleration    (Format v01.20 with 13 text lines)
Record of Point MacKenzie Earthquake of Fri Nov 30, 2018 17:29 UTC
Hypocenter: 61.34000 -149.93660 H= 40km Mw=7.0
Origin: 2018/11/30 17:29:28    UTC
Statn No: 02-008036 Code:NP-8036   USGS  AK:Anchorage;DOI OAS
Coords: 61.1780 -149.9657  Site geology:
Recorder: (see cmnt)      ( 3 Chns of   3 at Sta) Sensor: (see comment)    
Rcrd start time: 2018/11/30 17:29:04.807 UTC (Q=5) RcrdId: (see comment)
Sta Chan   3: 90 Deg (Rcrdr Chan  ?) Location:Ground
Raw record length = 210.000 sec, Uncor max =    593728, at  48.025 sec.
Processed:2018-12-03 22:00:26 GMT, UNKN, Max = -270.540 cm/sec2 at   48.025 sec
Record filtered below  0.10 Hz (periods over 10.00 secs), and above 40.0 Hz
Values used when parameter or data value is unknown/unspecified:   -999, -999.00
 100 Integer-header values follow on  10 lines, Format= (10I8)
       2       1       4     120       1    -999    -999    8036    -999    -999
       2       2    -999       8    -999       1    -999    -999       4    -999
    -999       1       3    -999    -999    -999    -999    -999    -999    1000
       3     216       3    -999       0       0    -999    -999    -999    2018
     334      11      30      17      29       5       5    -999    -999       3
    -999      20    -999      90    -999    -999    -999    -999    -999    -999
       5       5    -999       1    -999    -999    -999    -999    -999    -999
    -999    -999    -999    -999       1       0    -999    -999    -999    -999
    -999    -999    -999    -999    -999    -999    -999    -999    -999    -999
    -999    -999    -999    -999    -999    -999    -999    -999    -999    -999
 100 Real-header values follow on  20 lines, Format= (5F15.6)
      61.177950    -149.965730      24.000000    -999.000000    -999.000000
    -999.000000    -999.000000    -999.000000    -999.000000      61.340000
    -149.936600      40.900000       7.000000    -999.000000    -999.000000
    -999.000000      18.086325     184.940203    -999.000000    -999.000000
    -999.000000       2.384188       0.000000      30.000000     180.000000
      80.000000    -999.000000    -999.000000    -999.000000       4.806830
    -999.000000       0.000000    -999.000000       0.005000     210.000000
      -5.942074    -999.000000    -999.000000    -999.000000     223.976073
       0.697089       5.001400      20.005600       4.000000      80.000000
    -999.000000       1.000000    -999.000000    -999.000000    -999.000000
    -999.000000    -999.000000    -999.000000       0.100000    -999.000000
    -999.000000      40.000000    -999.000000    -999.000000    -999.000000
    -999.000000       5.000000     210.000000    -270.540282      48.025000
       0.000181    -999.000000      -0.000006      -0.000081    -999.000000
    -999.000000    -999.000000    -999.000000    -999.000000    -999.000000
    -999.000000    -999.000000    -999.000000    -999.000000      23.135000
      16.355000       1.089172      12.936657    -999.000000       1.743671
    -999.000000    -999.000000     980.665000    -999.000000    -999.000000
    -999.000000    -999.000000    -999.000000    -999.000000    -999.000000
    -999.000000    -999.000000    -999.000000    -999.000000    -999.000000
  11 Comment line(s) follow, each starting with a "|":
| Recorder: Obsidian-4x 
| Sensor: Episensor (4 g max 5.0 v/g)
| RcrdId: US.1000hyfh.NP.8036.HNE.--
|<SCNL>8036.HNE.NP.--    <AUTH> 2018/11/03 21:54:50.000
|<PROCESS> AUTO
|<EONSET> event onset(sec)=  33.6450
|<ABLC>SF:   0.0000, EF:  33.6450, SA:   0.0000, EA: 210.0000, ORDER:  MEAN
|<ABLC>SF:   0.0000, EF: 210.0000, SA:   0.0000, EA: 210.0000, ORDER:ORDER1
|<ABLABC1>SF:   0.0000, EF:  33.6450, SA:   0.0000, EA:  33.6450, ORDER:ORDER1
|<ABLABC2>SF:  33.6450, EF: 167.6450, SA:  33.6450, EA: 167.6450, ORDER:ORDER2
|<ABLABC3>SF: 167.6450, EF: 210.0000, SA: 167.6450, EA: 210.0000, ORDER:  MEAN
   42000 acceleration pts, approx  210 secs, units=cm/sec2(04),Format=(1E15.6)
[...]
  -4.052813e+01
  -2.886067e+01
  -1.404800e+01
   2.446973e+00
   1.928490e+01
   3.576670e+01
   5.184448e+01
   6.773550e+01
   8.352160e+01
   9.903005e+01
   1.139523e+02
   1.279796e+02
   1.408580e+02
   1.523685e+02
   1.622123e+02
   1.698502e+02
   1.744437e+02
   1.750467e+02
   1.711704e+02
   1.635878e+02
   1.545928e+02
   1.467856e+02
   1.408281e+02
   1.343118e+02
   1.233608e+02
   1.058119e+02
   8.305649e+01
   5.909472e+01
   3.806426e+01
   2.235583e+01
   1.221564e+01
   6.457695e+00
   3.630157e+00
   3.126627e+00
   5.692342e+00
   1.284543e+01
   2.537053e+01
   4.192929e+01
   5.903685e+01
   7.265103e+01
   8.018941e+01
   8.141278e+01
   7.768873e+01
   7.048731e+01
   6.033684e+01
   4.686389e+01
   2.969608e+01
   9.463893e+00
  -1.190009e+01
  -3.178103e+01
  -4.775342e+01
  -5.787027e+01
  -6.050698e+01
  -5.471631e+01
  -4.130136e+01
  -2.335510e+01
  -5.097315e+00
   1.030788e+01
   2.203734e+01
   3.106697e+01
   3.873845e+01
   4.589445e+01
   5.296042e+01
   6.030646e+01
   6.837919e+01
   7.771821e+01
   8.891396e+01
   1.022005e+02
   1.167412e+02
   1.303963e+02
   1.405965e+02
   1.458514e+02
   1.466235e+02
   1.445982e+02
   1.406313e+02
   1.330573e+02
   1.182407e+02
   9.341064e+01
   5.941974e+01
   2.085345e+01
  -1.660066e+01
  -4.919912e+01
  -7.638443e+01
  -9.987062e+01
  -1.216299e+02
  -1.420707e+02
  -1.594141e+02
  -1.707506e+02
  -1.742614e+02
  -1.710362e+02
  -1.649511e+02
  -1.605414e+02
  -1.605082e+02
  -1.647378e+02
  -1.710837e+02
  -1.764493e+02
  -1.770577e+02
  -1.687190e+02
  -1.484273e+02
  -1.166517e+02
  -7.801066e+01
  -3.927840e+01
  -6.338738e+00
   1.762500e+01
   3.205391e+01
   3.790636e+01
   3.656344e+01
   2.939988e+01
   1.806301e+01
   4.704519e+00
  -8.648943e+00
  -2.120691e+01
  -3.364112e+01
  -4.691183e+01
  -6.092774e+01
  -7.445856e+01
  -8.603303e+01
  -9.438641e+01
  -9.796085e+01
  -9.462685e+01
  -8.284705e+01
  -6.366942e+01
  -4.140404e+01
  -2.173431e+01
  -8.592727e+00
  -2.425115e+00
  -1.020882e+00
  -1.646972e+00
  -2.398154e+00
  -2.056264e+00
   4.731201e-01
   5.940111e+00
   1.389563e+01
   2.234789e+01
   2.866627e+01
   3.127752e+01
   3.086017e+01
   2.995848e+01
   3.119234e+01
   3.555414e+01
   4.221587e+01
   4.968407e+01
   5.686275e+01
   6.304302e+01
   6.718197e+01
   6.753099e+01
   6.232125e+01
   5.117300e+01
   3.593345e+01
   1.987589e+01
   5.711182e+00
  -5.890484e+00
  -1.600386e+01
  -2.578500e+01
  -3.507518e+01
  -4.250056e+01
  -4.675253e+01
  -4.775991e+01
  -4.683824e+01
  -4.578251e+01
  -4.550487e+01
  -4.518494e+01
  -4.273877e+01
  -3.642977e+01
  -2.629787e+01
  -1.402311e+01
  -1.288587e+00
   1.166898e+01
   2.580619e+01
   4.174975e+01
   5.878189e+01
   7.528953e+01
   8.993544e+01
   1.023136e+02
   1.126734e+02
   1.211409e+02
   1.271094e+02
   1.293256e+02
   1.267161e+02
   1.192647e+02
   1.080244e+02
   9.414863e+01
   7.791753e+01
   5.883514e+01
   3.672527e+01
   1.262226e+01
  -1.151771e+01
  -3.393559e+01
  -5.384955e+01
  -7.124560e+01
  -8.611363e+01
  -9.803623e+01
  -1.065069e+02
  -1.114501e+02
  -1.132125e+02
  -1.120185e+02
  -1.075281e+02
  -9.895696e+01
  -8.562656e+01
  -6.749665e+01
  -4.534521e+01
  -2.059255e+01
   5.005171e+00
   2.967141e+01
   5.197185e+01
   7.109600e+01
   8.674999e+01
   9.865877e+01
   1.061946e+02
   1.086879e+02
   1.063124e+02
   1.006636e+02
   9.423718e+01
   8.907371e+01
   8.566998e+01
   8.296508e+01
   7.926730e+01
   7.328808e+01
   6.447896e+01
   5.270290e+01
   3.813314e+01
   2.191421e+01
   6.779662e+00
  -3.669627e+00
  -7.051572e+00
  -3.948798e+00
   2.535425e+00
   9.301526e+00
   1.556099e+01
   2.270567e+01
   3.199145e+01
   4.248670e+01
   5.124503e+01
   5.526017e+01
   5.329288e+01
   4.630043e+01
   3.658241e+01
   2.656435e+01
   1.818689e+01
   1.308538e+01
   1.261872e+01
   1.689983e+01
   2.360618e+01
   2.827178e+01
   2.642993e+01
   1.607135e+01
  -1.299030e+00
  -2.137091e+01
  -3.870086e+01
  -4.842506e+01
  -4.759770e+01
  -3.608383e+01
  -1.676200e+01
   5.426988e+00
   2.558236e+01
   4.108938e+01
   5.250606e+01
   6.234988e+01
   7.264602e+01
   8.317845e+01
   9.182688e+01
   9.653159e+01
   9.697583e+01
   9.441129e+01
   8.990150e+01
   8.284971e+01
   7.139252e+01
   5.430691e+01
   3.252171e+01
   8.835180e+00
  -1.363769e+01
  -3.270875e+01
  -4.731089e+01
  -5.722016e+01
  -6.300602e+01
  -6.612128e+01
  -6.865648e+01
  -7.261909e+01
  -7.902714e+01
  -8.729428e+01
  -9.537319e+01
  -1.007544e+02
  -1.016718e+02
  -9.750258e+01
  -8.810551e+01
  -7.306300e+01
  -5.194669e+01
  -2.545471e+01
   3.920321e+00
   3.266100e+01
   5.787654e+01
   7.835215e+01
   9.421319e+01
   1.059027e+02
   1.136992e+02
   1.181133e+02
   1.204554e+02
   1.227602e+02
   1.269071e+02
   1.335496e+02
   1.417672e+02
   1.497844e+02
   1.560466e+02
   1.596855e+02
   1.603225e+02
   1.579840e+02
   1.534758e+02
   1.485778e+02
   1.453792e+02
   1.450973e+02
   1.474743e+02
   1.513389e+02
   1.557421e+02
   1.605741e+02
   1.662489e+02
   1.729845e+02
   1.803461e+02
   1.872377e+02
   1.921989e+02
   1.937135e+02
   1.901555e+02
   1.794723e+02
   1.595468e+02
   1.298608e+02
   9.325823e+01
   5.566460e+01
   2.334649e+01
  -1.923619e-01
  -1.528756e+01
  -2.476171e+01
  -3.168801e+01
  -3.802541e+01
  -4.458078e+01
  -5.149096e+01
  -5.842041e+01
  -6.448407e+01
  -6.833083e+01
  -6.862479e+01
  -6.479799e+01
  -5.763365e+01
  -4.914238e+01
  -4.161398e+01
  -3.646925e+01
  -3.379442e+01
  -3.283879e+01
  -3.293463e+01
  -3.400724e+01
  -3.622976e+01
  -3.925019e+01
  -4.202981e+01
  -4.374953e+01
  -4.492985e+01
  -4.744334e+01
  -5.306051e+01
  -6.168831e+01
  -7.106410e+01
  -7.836988e+01
  -8.208895e+01
  -8.214817e+01
  -7.864770e+01
  -7.126515e+01
  -6.017866e+01
  -4.692208e+01
  -3.361243e+01
  -2.159051e+01
  -1.172744e+01
  -6.028661e+00
  -7.406505e+00
  -1.663997e+01
  -3.014851e+01
  -4.199907e+01
  -4.823794e+01
  -4.880329e+01
  -4.571714e+01
  -4.068512e+01
  -3.473709e+01
  -2.897336e+01
  -2.454215e+01
  -2.214169e+01
  -2.229844e+01
  -2.611411e+01
  -3.506482e+01
  -4.952091e+01
  -6.744732e+01
  -8.503019e+01
  -9.904546e+01
  -1.085127e+02
  -1.137879e+02
  -1.147056e+02
  -1.108067e+02
  -1.034008e+02
  -9.608006e+01
  -9.236423e+01
  -9.314392e+01
  -9.663417e+01
  -1.003514e+02
  -1.028506e+02
  -1.039641e+02
  -1.039499e+02
  -1.026325e+02
  -9.927030e+01
  -9.306774e+01
  -8.373846e+01
  -7.172615e+01
  -5.811670e+01
  -4.430516e+01
  -3.143448e+01
  -1.993618e+01
  -9.678662e+00
  -6.888094e-01
   6.298766e+00
   1.008918e+01
   9.829427e+00
   5.612778e+00
  -1.538615e+00
  -1.017269e+01
  -1.895111e+01
  -2.682071e+01
  -3.281273e+01
  -3.596302e+01
  -3.568808e+01
  -3.229824e+01
  -2.708332e+01
  -2.177581e+01
  -1.774797e+01
  -1.562380e+01
  -1.559635e+01
  -1.780677e+01
  -2.199739e+01
  -2.683796e+01
  -3.019323e+01
  -3.060194e+01
  -2.854436e+01
  -2.611984e+01
  -2.558126e+01
  -2.825139e+01
  -3.443280e+01
  -4.372266e+01
  -5.523014e+01
  -6.780211e+01
  -8.035124e+01
  -9.202366e+01
  -1.020012e+02
  -1.092286e+02
  -1.126019e+02
  -1.116458e+02
  -1.069893e+02
  -1.000253e+02
  -9.199176e+01
  -8.333757e+01
  -7.396884e+01
  -6.399556e+01
  -5.388893e+01
  -4.361407e+01
  -3.187496e+01
  -1.685645e+01
   2.081579e+00
   2.383571e+01
   4.683961e+01
   7.038558e+01
   9.415803e+01
   1.168070e+02
   1.359447e+02
   1.500347e+02
   1.598356e+02
   1.673826e+02
   1.736516e+02
   1.777136e+02
   1.781079e+02
   1.742948e+02
   1.662381e+02
   1.529562e+02
   1.324797e+02
   1.040070e+02
   7.016564e+01
   3.664041e+01
   8.930809e+00
  -1.096949e+01
  -2.494129e+01
  -3.608359e+01
  -4.589770e+01
  -5.379954e+01
  -5.850194e+01
  -5.916140e+01
  -5.553906e+01
  -4.813318e+01
  -3.862821e+01
  -2.959918e+01
  -2.306993e+01
  -1.934472e+01
  -1.744403e+01
  -1.647803e+01
  -1.632211e+01
  -1.718762e+01
  -1.902276e+01
  -2.137786e+01
  -2.352985e+01
  -2.475144e+01
  -2.485467e+01
  -2.458827e+01
  -2.518885e+01
  -2.732347e+01
  -3.056357e+01
  -3.394859e+01
  -3.686489e+01
  -3.918006e+01
  -4.065597e+01
  -4.060571e+01
  -3.830586e+01
  -3.358695e+01
  -2.692640e+01
  -1.920900e+01
  -1.158302e+01
  -5.247657e+00
  -8.728104e-01
   1.949622e+00
   4.532672e+00
   8.247579e+00
   1.376921e+01
   2.091091e+01
   2.884701e+01
   3.640531e+01
   4.248113e+01
   4.664178e+01
   4.948056e+01
   5.195400e+01
   5.358040e+01
   5.090968e+01
   3.848870e+01
   1.274326e+01
  -2.423482e+01
  -6.493174e+01
  -1.009706e+02
  -1.278678e+02
  -1.459994e+02
  -1.580476e+02
  -1.661962e+02
  -1.711726e+02
  -1.726130e+02
  -1.695914e+02
  -1.610713e+02
  -1.464473e+02
  -1.260985e+02
  -1.017965e+02
  -7.672347e+01
  -5.463561e+01
  -3.811560e+01
  -2.713440e+01
  -1.967211e+01
  -1.428640e+01
  -1.184922e+01
  -1.412952e+01
  -2.080960e+01
  -2.877039e+01
  -3.469105e+01
  -3.797060e+01
  -4.094718e+01
  -4.649641e+01
  -5.506260e+01
  -6.315916e+01
  -6.479916e+01
  -5.557597e+01
  -3.620241e+01
  -1.199320e+01
   1.111796e+01
   2.986756e+01
   4.384006e+01
   5.405299e+01
   6.203393e+01
   6.932172e+01
   7.669383e+01
   8.368151e+01
   8.913652e+01
   9.222408e+01
   9.269354e+01
   9.049870e+01
   8.569211e+01
   7.873274e+01
   7.052884e+01
   6.202320e+01
   5.381956e+01
   4.611296e+01
   3.872382e+01
   3.116566e+01
   2.290301e+01
   1.370059e+01
   3.716017e+00
  -6.678912e+00
  -1.696030e+01
  -2.631074e+01
  -3.373070e+01
  -3.860075e+01
  -4.115381e+01
  -4.235095e+01
  -4.341364e+01
  -4.554222e+01
  -4.987570e+01
  -5.734196e+01
  -6.819254e+01
  -8.151365e+01
  -9.529913e+01
  -1.072445e+02
  -1.156866e+02
  -1.200928e+02
  -1.210948e+02
  -1.202361e+02
  -1.193949e+02
  -1.200333e+02
  -1.227355e+02
  -1.272113e+02
  -1.324829e+02
  -1.371319e+02
  -1.398252e+02
  -1.400641e+02
  -1.385721e+02
  -1.368807e+02
  -1.364450e+02
  -1.380504e+02
  -1.418243e+02
  -1.474255e+02
  -1.539198e+02
  -1.595714e+02
  -1.622569e+02
  -1.605869e+02
  -1.548353e+02
  -1.468087e+02
  -1.388353e+02
  -1.327613e+02
  -1.295166e+02
  -1.291087e+02
  -1.307292e+02
  -1.330115e+02
  -1.346236e+02
  -1.349211e+02
  -1.340205e+02
  -1.321973e+02
  -1.293613e+02
  -1.252164e+02
  -1.197203e+02
  -1.130568e+02
  -1.050222e+02
  -9.454281e+01
  -8.009199e+01
  -6.098208e+01
  -3.844651e+01
  -1.523357e+01
   6.247643e+00
   2.554967e+01
   4.398723e+01
   6.293581e+01
   8.242887e+01
   1.012601e+02
   1.181158e+02
   1.325028e+02
   1.448505e+02
   1.560157e+02
   1.666601e+02
   1.768492e+02
   1.860915e+02
   1.937660e+02
   1.995180e+02
   2.032764e+02
   2.051060e+02
   2.053177e+02
   2.046950e+02
   2.042105e+02
   2.041734e+02
   2.037682e+02
   2.017853e+02
   1.978976e+02
   1.930551e+02
   1.886841e+02
   1.858571e+02
   1.853330e+02
   1.877941e+02
   1.931506e+02
   1.992986e+02
   2.020679e+02
   1.971380e+02
   1.824644e+02
   1.590822e+02
   1.298292e+02
   9.739805e+01
   6.323974e+01
   2.763355e+01
  -9.629285e+00
  -4.843334e+01
  -8.766327e+01
  -1.251487e+02
  -1.586336e+02
  -1.870716e+02
  -2.106662e+02
  -2.293374e+02
  -2.418544e+02
  -2.478231e+02
  -2.504737e+02
  -2.552658e+02
  -2.638905e+02
  -2.705403e+02
  -2.662055e+02
  -2.472263e+02
  -2.188139e+02
  -1.899153e+02
  -1.653400e+02
  -1.432144e+02
  -1.192288e+02
  -9.228499e+01
  -6.590090e+01
  -4.473870e+01
  -3.020637e+01
  -1.932173e+01
  -7.466066e+00
   7.843460e+00
   2.536788e+01
   4.157771e+01
   5.344083e+01
   6.023518e+01
   6.322996e+01
   6.376953e+01
   6.139336e+01
   5.378470e+01
   3.912706e+01
   1.899642e+01
  -1.420478e+00
  -1.671373e+01
  -2.512594e+01
  -2.903536e+01
  -3.195252e+01
  -3.551572e+01
  -3.916093e+01
  -4.170076e+01
  -4.241500e+01
  -4.077663e+01
  -3.608879e+01
  -2.818979e+01
  -1.839850e+01
  -9.180023e+00
  -2.568386e+00
   1.252258e+00
   3.956040e+00
   7.544699e+00
   1.264244e+01
   1.816542e+01
   2.225663e+01
   2.334221e+01
   2.066491e+01
   1.440725e+01
   5.954817e+00
  -1.836877e+00
  -5.674503e+00
  -4.323390e+00
  -3.097458e-01
   1.265709e+00
  -3.508922e+00
  -1.345657e+01
  -2.170731e+01
  -2.005019e+01
  -5.132742e+00
   1.921320e+01
   4.560086e+01
   6.883075e+01
   8.845106e+01
   1.067597e+02
   1.253256e+02
   1.436853e+02
   1.606976e+02
   1.760406e+02
   1.898909e+02
   2.017009e+02
   2.101469e+02
   2.144550e+02
   2.152550e+02
   2.135315e+02
   2.086648e+02
   1.980467e+02
   1.793295e+02
   1.533962e+02
   1.250046e+02
   1.002015e+02
   8.269045e+01
   7.207520e+01
   6.498270e+01
   5.787778e+01
   4.948550e+01
   4.111521e+01
   3.474497e+01
   3.079196e+01
   2.782950e+01
   2.418451e+01
   1.925690e+01
   1.339653e+01
   7.354024e+00
   2.237128e+00
  -6.577573e-01
  -7.245810e-01
   1.190164e+00
   3.158934e+00
   3.422677e+00
   1.434902e+00
  -2.003981e+00
  -5.421602e+00
  -7.589776e+00
  -8.121717e+00
  -7.460086e+00
  -6.355657e+00
  -5.334717e+00
  -4.612281e+00
  -4.268412e+00
  -4.147007e+00
  -3.511074e+00
  -1.097043e+00
   4.141973e+00
   1.212624e+01
   2.138323e+01
   2.977514e+01
   3.574150e+01
   3.909849e+01
   4.083942e+01
   4.224029e+01
   4.400102e+01
   4.595292e+01
   4.743465e+01
   4.803325e+01
   4.811659e+01
   4.867931e+01
   5.055612e+01
   5.364952e+01
   5.691376e+01
   5.920528e+01
   6.024975e+01
   6.081840e+01
   6.203877e+01
   6.465173e+01
   6.888725e+01
   7.473629e+01
   8.199091e+01
   8.994878e+01
   9.729562e+01
   1.025748e+02
   1.049574e+02
   1.045737e+02
   1.020784e+02
   9.792865e+01
   9.202320e+01
   8.383499e+01
   7.280046e+01
   5.877744e+01
   4.241750e+01
   2.523438e+01
   9.235102e+00
  -3.802386e+00
  -1.308897e+01
  -1.909123e+01
  -2.294940e+01
  -2.552574e+01
  -2.715995e+01
  -2.844498e+01
  -3.095254e+01
  -3.676144e+01
  -4.712349e+01
  -6.167434e+01
  -7.885574e+01
  -9.679061e+01
  -1.136949e+02
  -1.279574e+02
  -1.385369e+02
  -1.456266e+02
  -1.507858e+02
  -1.560489e+02
  -1.625722e+02
  -1.699414e+02
  -1.766135e+02
  -1.807490e+02
  -1.803648e+02
  -1.728800e+02
  -1.553875e+02
  -1.264257e+02
  -8.788013e+01
  -4.480319e+01
  -2.994609e+00
   3.343716e+01
   6.274217e+01
   8.486500e+01
   1.007423e+02
   1.118462e+02
   1.195036e+02
   1.240655e+02
   1.246807e+02
   1.200842e+02
   1.098329e+02
   9.498387e+01
   7.771886e+01
   6.026584e+01
   4.393847e+01
   2.899001e+01
   1.532121e+01
   3.305677e+00
  -6.130679e+00
  -1.228379e+01
  -1.559922e+01
  -1.791965e+01
  -2.162454e+01
  -2.804291e+01
  -3.645314e+01
  -4.478815e+01
  -5.141181e+01
  -5.611258e+01
  -5.952793e+01
  -6.203640e+01
  -6.332653e+01
  -6.265912e+01
  -5.921712e+01
  -5.236356e+01
  -4.197453e+01
  -2.867920e+01
  -1.357096e+01
   2.477268e+00
   1.903383e+01
   3.548079e+01
   5.047788e+01
   6.256418e+01
   7.133634e+01
   7.763937e+01
   8.241670e+01
   8.559393e+01
   8.626566e+01
   8.382403e+01
   7.866306e+01
   7.179579e+01
   6.405305e+01
   5.582209e+01
   4.738615e+01
   3.919632e+01
   3.170484e+01
   2.511284e+01
   1.952511e+01
   1.542253e+01
   1.384327e+01
   1.586594e+01
   2.169633e+01
   3.017424e+01
   3.927161e+01
   4.718685e+01
   5.298888e+01
   5.636214e+01
   5.707651e+01
   5.489402e+01
   4.981627e+01
   4.215901e+01
   3.238351e+01
   2.108583e+01
   9.260640e+00
  -1.630131e+00
  -1.014795e+01
  -1.556393e+01
  -1.809490e+01
  -1.860669e+01
  -1.825308e+01
  -1.829548e+01
  -1.989129e+01
  -2.378149e+01
  -3.010474e+01
  -3.832801e+01
  -4.717403e+01
  -5.489991e+01
  -6.020210e+01
  -6.303643e+01
  -6.443524e+01
  -6.561631e+01
  -6.743527e+01
  -7.045304e+01
  -7.504282e+01
  -8.120728e+01
  -8.831592e+01
  -9.513704e+01
  -1.004913e+02
  -1.042934e+02
  -1.078695e+02
  -1.128089e+02
  -1.193748e+02
  -1.262273e+02
  -1.316890e+02
  -1.350536e+02
  -1.366360e+02
  -1.367909e+02
  -1.350451e+02
  -1.300108e+02
  -1.198877e+02
  -1.031853e+02
  -7.954677e+01
  -5.036453e+01
  -1.855323e+01
   1.264742e+01
   4.095264e+01
   6.540452e+01
   8.585513e+01
   1.023609e+02
   1.149791e+02
