Corrected acceleration    (Format v01.20 with 13 text lines)
Record of Point MacKenzie Earthquake of Fri Nov 30, 2018 17:29 UTC
Hypocenter: 61.34000 -149.93660 H= 40km Mw=7.0
Origin: 2018/11/30 17:29:28    UTC
Statn No: 02-008027 Code:NP-8027   USGS  AK:Anchorage;St Fish&Game
Coords: 61.1609 -149.8892  Site geology:
Recorder: (see cmnt)      ( 3 Chns of   3 at Sta) Sensor: (see comment)    
Rcrd start time: 2018/11/30 17:29:04.932 UTC (Q=5) RcrdId: (see comment)
Sta Chan   2:360 Deg (Rcrdr Chan  ?) Location:Ground
Raw record length = 210.000 sec, Uncor max =    437132, at  43.660 sec.
Processed:2018-12-03 21:59:14 GMT, UNKN, Max = -189.074 cm/sec2 at   43.660 sec
Record filtered below  0.10 Hz (periods over 10.00 secs), and above 40.0 Hz
Values used when parameter or data value is unknown/unspecified:   -999, -999.00
 100 Integer-header values follow on  10 lines, Format= (10I8)
       2       1       4     120       1    -999    -999    8027    -999    -999
       2       2    -999       8    -999       1    -999    -999       4    -999
    -999       1       3    -999    -999    -999    -999    -999    -999    1000
       3     403       3    -999       0       0    -999    -999    -999    2018
     334      11      30      17      29       5       5    -999    -999       2
    -999      20    -999     360    -999    -999    -999    -999    -999    -999
       5       5    -999       1    -999    -999    -999    -999    -999    -999
    -999    -999    -999    -999       1       0    -999    -999    -999    -999
    -999    -999    -999    -999    -999    -999    -999    -999    -999    -999
    -999    -999    -999    -999    -999    -999    -999    -999    -999    -999
 100 Real-header values follow on  20 lines, Format= (5F15.6)
      61.160900    -149.889200      33.000000    -999.000000    -999.000000
    -999.000000    -999.000000    -999.000000    -999.000000      61.340000
    -149.936600      40.900000       7.000000    -999.000000    -999.000000
    -999.000000      20.075712     172.745570    -999.000000    -999.000000
    -999.000000       2.384188       0.000000      30.000000     180.000000
      80.000000    -999.000000    -999.000000    -999.000000       4.931930
    -999.000000       0.000000    -999.000000       0.005000     210.000000
     -15.448601    -999.000000    -999.000000    -999.000000     223.976073
       0.697089       4.991600      19.966400       4.000000      80.000000
    -999.000000       1.000000    -999.000000    -999.000000    -999.000000
    -999.000000    -999.000000    -999.000000       0.100000    -999.000000
    -999.000000      40.000000    -999.000000    -999.000000    -999.000000
    -999.000000       5.000000     210.000000    -189.074162      43.660000
      -0.000088    -999.000000      -0.000028       0.000061    -999.000000
    -999.000000    -999.000000    -999.000000    -999.000000    -999.000000
    -999.000000    -999.000000    -999.000000    -999.000000      21.655000
      31.235000       0.495669       8.472445    -999.000000       0.689819
    -999.000000    -999.000000     980.665000    -999.000000    -999.000000
    -999.000000    -999.000000    -999.000000    -999.000000    -999.000000
    -999.000000    -999.000000    -999.000000    -999.000000    -999.000000
  11 Comment line(s) follow, each starting with a "|":
| Recorder: Basalt-4x 
| Sensor: Episensor (4 g max 5.0 v/g)
| RcrdId: US.1000hyfh.NP.8027.HNN.--
|<SCNL>8027.HNN.NP.--    <AUTH> 2018/11/03 21:54:50.000
|<PROCESS> AUTO
|<EONSET> event onset(sec)=  33.2300
|<ABLC>SF:   0.0000, EF:  33.2300, SA:   0.0000, EA: 210.0000, ORDER:  MEAN
|<ABLC>SF:   0.0000, EF: 210.0000, SA:   0.0000, EA: 210.0000, ORDER:ORDER1
|<ABLABC1>SF:   0.0000, EF:  33.2300, SA:   0.0000, EA:  33.2300, ORDER:ORDER1
|<ABLABC2>SF:  33.2300, EF:  56.2300, SA:  33.2300, EA:  56.2300, ORDER:ORDER2
|<ABLABC3>SF:  56.2300, EF: 210.0000, SA:  56.2300, EA: 210.0000, ORDER:ORDER1
   42000 acceleration pts, approx  210 secs, units=cm/sec2(04),Format=(1E15.6)
[...]
   1.256953e+01
   1.176877e+01
   1.485456e+01
   2.101114e+01
   2.919652e+01
   3.887711e+01
   4.976449e+01
   6.084154e+01
   6.967842e+01
   7.329163e+01
   7.034432e+01
   6.228781e+01
   5.178502e+01
   4.034282e+01
   2.811012e+01
   1.548144e+01
   3.695685e+00
  -6.446215e+00
  -1.561165e+01
  -2.484461e+01
  -3.353494e+01
  -3.937061e+01
  -4.098824e+01
  -4.031383e+01
  -4.132844e+01
  -4.610582e+01
  -5.250817e+01
  -5.626622e+01
  -5.516171e+01
  -5.088164e+01
  -4.714794e+01
  -4.648976e+01
  -4.829697e+01
  -4.909593e+01
  -4.496422e+01
  -3.472808e+01
  -2.094741e+01
  -7.129219e+00
   5.866617e+00
   1.989343e+01
   3.610738e+01
   5.222879e+01
   6.345962e+01
   6.620732e+01
   6.136138e+01
   5.404779e+01
   4.951514e+01
   4.846172e+01
   4.607299e+01
   3.591061e+01
   1.556177e+01
  -1.066515e+01
  -3.450428e+01
  -4.988609e+01
  -5.715992e+01
  -6.164687e+01
  -6.813908e+01
  -7.658763e+01
  -8.261080e+01
  -8.194172e+01
  -7.489091e+01
  -6.699240e+01
  -6.463900e+01
  -6.872099e+01
  -7.241983e+01
  -6.690153e+01
  -5.035694e+01
  -3.028687e+01
  -1.533533e+01
  -5.789732e+00
   5.867165e+00
   2.533098e+01
   4.927380e+01
   6.792521e+01
   7.369910e+01
   6.754299e+01
   5.826872e+01
   5.576680e+01
   6.321896e+01
   7.468693e+01
   8.056351e+01
   7.628463e+01
   6.649566e+01
   6.092795e+01
   6.539613e+01
   7.579033e+01
   8.109737e+01
   7.318103e+01
   5.359125e+01
   3.088029e+01
   1.284992e+01
   2.396499e+00
  -1.202368e+00
  -8.551400e-02
   2.728558e+00
   3.862856e+00
   1.279536e+00
  -4.378760e+00
  -1.040779e+01
  -1.421244e+01
  -1.542097e+01
  -1.639807e+01
  -2.043326e+01
  -2.861877e+01
  -3.818303e+01
  -4.445697e+01
  -4.501961e+01
  -4.159518e+01
  -3.753630e+01
  -3.411239e+01
  -2.992976e+01
  -2.324262e+01
  -1.368814e+01
  -2.148570e+00
   9.652871e+00
   1.920790e+01
   2.426510e+01
   2.467438e+01
   2.245420e+01
   1.931020e+01
   1.474356e+01
   7.476898e+00
  -1.686653e+00
  -9.526549e+00
  -1.316858e+01
  -1.250638e+01
  -9.366305e+00
  -4.675109e+00
   2.495373e+00
   1.245762e+01
   2.213508e+01
   2.602605e+01
   2.048289e+01
   6.806377e+00
  -9.880081e+00
  -2.450244e+01
  -3.509408e+01
  -4.291040e+01
  -5.011509e+01
  -5.741737e+01
  -6.377166e+01
  -6.785730e+01
  -6.911686e+01
  -6.714808e+01
  -6.078386e+01
  -4.864482e+01
  -3.094211e+01
  -1.070384e+01
   7.143461e+00
   1.879121e+01
   2.436891e+01
   2.748831e+01
   3.141300e+01
   3.592398e+01
   3.835140e+01
   3.691561e+01
   3.188434e+01
   2.377228e+01
   1.209053e+01
  -3.150146e+00
  -1.941064e+01
  -3.230378e+01
  -3.874633e+01
  -3.927634e+01
  -3.716406e+01
  -3.536034e+01
  -3.432227e+01
  -3.250682e+01
  -2.858008e+01
  -2.301244e+01
  -1.761574e+01
  -1.361936e+01
  -1.034344e+01
  -5.880138e+00
   1.162847e+00
   1.093909e+01
   2.308530e+01
   3.740950e+01
   5.349786e+01
   6.977624e+01
   8.328872e+01
   9.119233e+01
   9.360465e+01
   9.504348e+01
   1.012037e+02
   1.122569e+02
   1.196565e+02
   1.119991e+02
   8.556767e+01
   4.846964e+01
   1.381576e+01
  -1.046341e+01
  -2.522259e+01
  -3.591753e+01
  -4.680966e+01
  -5.866907e+01
  -7.007855e+01
  -7.961583e+01
  -8.680697e+01
  -9.203240e+01
  -9.668516e+01
  -1.032711e+02
  -1.135447e+02
  -1.249739e+02
  -1.296959e+02
  -1.193024e+02
  -9.231126e+01
  -5.670902e+01
  -2.427359e+01
  -2.185745e+00
   1.022675e+01
   1.827034e+01
   2.700359e+01
   3.867219e+01
   5.255725e+01
   6.603064e+01
   7.632629e+01
   8.248074e+01
   8.614534e+01
   9.013141e+01
   9.521311e+01
   9.791105e+01
   9.218448e+01
   7.446501e+01
   4.736251e+01
   1.815898e+01
  -6.462538e+00
  -2.462982e+01
  -3.937331e+01
  -5.507031e+01
  -7.294855e+01
  -8.927920e+01
  -9.852806e+01
  -9.901052e+01
  -9.483993e+01
  -9.160318e+01
  -9.112712e+01
  -9.146175e+01
  -9.043196e+01
  -8.725151e+01
  -8.158569e+01
  -7.317828e+01
  -6.261664e+01
  -5.145142e+01
  -4.119305e+01
  -3.219061e+01
  -2.341935e+01
  -1.368506e+01
  -3.372314e+00
   5.352208e+00
   1.036575e+01
   1.124279e+01
   9.190853e+00
   6.286912e+00
   4.934817e+00
   6.999900e+00
   1.269001e+01
   2.025508e+01
   2.689261e+01
   3.050899e+01
   3.154584e+01
   3.309498e+01
   3.834269e+01
   4.767904e+01
   5.864682e+01
   6.837793e+01
   7.557166e+01
   8.051078e+01
   8.395325e+01
   8.635003e+01
   8.812092e+01
   9.033133e+01
   9.420236e+01
   9.929545e+01
   1.027762e+02
   1.015837e+02
   9.540186e+01
   8.681593e+01
   7.847657e+01
   7.054884e+01
   6.087038e+01
   4.698857e+01
   2.779877e+01
   3.993505e+00
  -2.200947e+01
  -4.675928e+01
  -6.756761e+01
  -8.410707e+01
  -9.799483e+01
  -1.108636e+02
  -1.229272e+02
  -1.329904e+02
  -1.395324e+02
  -1.420572e+02
  -1.415690e+02
  -1.393715e+02
  -1.352703e+02
  -1.275913e+02
  -1.154518e+02
  -1.005442e+02
  -8.602027e+01
  -7.367979e+01
  -6.275645e+01
  -5.168529e+01
  -4.065135e+01
  -3.166125e+01
  -2.584284e+01
  -2.114568e+01
  -1.328049e+01
   7.389363e-01
   1.969014e+01
   3.861240e+01
   5.239574e+01
   5.922994e+01
   6.082940e+01
   5.988933e+01
   5.792553e+01
   5.530828e+01
   5.230247e+01
   4.936455e+01
   4.666106e+01
   4.374237e+01
   3.984944e+01
   3.480005e+01
   2.978164e+01
   2.672650e+01
   2.619838e+01
   2.628001e+01
   2.438000e+01
   1.996584e+01
   1.498764e+01
   1.196796e+01
   1.207818e+01
   1.461712e+01
   1.794937e+01
   2.100817e+01
   2.358934e+01
   2.490975e+01
   2.273927e+01
   1.520387e+01
   3.575695e+00
  -7.554271e+00
  -1.350103e+01
  -1.293187e+01
  -8.069581e+00
  -1.858335e+00
   4.491054e+00
   1.124077e+01
   1.832700e+01
   2.451347e+01
   2.832249e+01
   2.953831e+01
   2.952586e+01
   2.987445e+01
   3.075182e+01
   3.066116e+01
   2.776756e+01
   2.149395e+01
   1.302207e+01
   4.466029e+00
  -2.400584e+00
  -6.986095e+00
  -1.004053e+01
  -1.304809e+01
  -1.694981e+01
  -2.108229e+01
  -2.332701e+01
  -2.140147e+01
  -1.461163e+01
  -5.256824e+00
   1.841442e+00
   2.515554e+00
  -3.297833e+00
  -1.144669e+01
  -1.679453e+01
  -1.658241e+01
  -1.176183e+01
  -6.128333e+00
  -3.714563e+00
  -5.968238e+00
  -1.105180e+01
  -1.581304e+01
  -1.837907e+01
  -1.918390e+01
  -2.009729e+01
  -2.267667e+01
  -2.675294e+01
  -3.045721e+01
  -3.211007e+01
  -3.240929e+01
  -3.421132e+01
  -3.965959e+01
  -4.790179e+01
  -5.601388e+01
  -6.171332e+01
  -6.453180e+01
  -6.447467e+01
  -6.049152e+01
  -5.118075e+01
  -3.689355e+01
  -2.019216e+01
  -3.777677e+00
   1.151243e+01
   2.635066e+01
   4.125682e+01
   5.591895e+01
   6.969915e+01
   8.185972e+01
   9.110516e+01
   9.563325e+01
   9.434184e+01
   8.799061e+01
   7.886083e+01
   6.930614e+01
   6.084555e+01
   5.431348e+01
   4.995736e+01
   4.686859e+01
   4.282473e+01
   3.555052e+01
   2.452230e+01
   1.154877e+01
  -4.158857e-01
  -8.966444e+00
  -1.272764e+01
  -1.073288e+01
  -2.889731e+00
   8.124596e+00
   1.730249e+01
   2.201989e+01
   2.546945e+01
   3.286163e+01
   4.452229e+01
   5.511488e+01
   5.960518e+01
   5.772045e+01
   5.229279e+01
   4.561216e+01
   3.877704e+01
   3.308058e+01
   2.982523e+01
   2.847643e+01
   2.614915e+01
   1.954409e+01
   7.214780e+00
  -9.872488e+00
  -2.944406e+01
  -4.961755e+01
  -6.980461e+01
  -8.983037e+01
  -1.083093e+02
  -1.223823e+02
  -1.291586e+02
  -1.276693e+02
  -1.203582e+02
  -1.129437e+02
  -1.112713e+02
  -1.164735e+02
  -1.234698e+02
  -1.258939e+02
  -1.228283e+02
  -1.194417e+02
  -1.205560e+02
  -1.246292e+02
  -1.248156e+02
  -1.154953e+02
  -9.723509e+01
  -7.576952e+01
  -5.701985e+01
  -4.332034e+01
  -3.355119e+01
  -2.549725e+01
  -1.739690e+01
  -7.995702e+00
   3.422748e+00
   1.649777e+01
   2.990898e+01
   4.243861e+01
   5.354610e+01
   6.279496e+01
   6.936904e+01
   7.268039e+01
   7.331243e+01
   7.303110e+01
   7.370157e+01
   7.603305e+01
   7.925523e+01
   8.209496e+01
   8.408048e+01
   8.559962e+01
   8.651700e+01
   8.508650e+01
   7.872361e+01
   6.620897e+01
   4.963708e+01
   3.436856e+01
   2.581590e+01
   2.460398e+01
   2.515591e+01
   2.054145e+01
   8.700628e+00
  -7.004240e+00
  -2.239927e+01
  -3.571884e+01
  -4.656842e+01
  -5.405135e+01
  -5.742518e+01
  -5.830754e+01
  -6.117217e+01
  -7.022766e+01
  -8.427211e+01
  -9.479045e+01
  -9.187281e+01
  -7.431369e+01
  -5.260029e+01
  -3.956806e+01
  -3.859054e+01
  -4.237150e+01
  -4.209339e+01
  -3.579351e+01
  -2.853051e+01
  -2.644435e+01
  -3.085472e+01
  -3.689978e+01
  -3.792170e+01
  -3.217682e+01
  -2.479083e+01
  -2.206685e+01
  -2.492226e+01
  -2.933107e+01
  -3.163096e+01
  -3.105478e+01
  -2.809227e+01
  -2.313293e+01
  -1.688676e+01
  -1.020277e+01
  -3.116508e+00
   4.557317e+00
   1.162320e+01
   1.598931e+01
   1.715964e+01
   1.713445e+01
   1.831567e+01
   2.126364e+01
   2.510342e+01
   2.957370e+01
   3.559575e+01
   4.351837e+01
   5.157424e+01
   5.686350e+01
   5.784267e+01
   5.552343e+01
   5.233976e+01
   5.014997e+01
   4.928398e+01
   4.910822e+01
   4.907556e+01
   4.915258e+01
   4.962339e+01
   5.076743e+01
   5.243100e+01
   5.363889e+01
   5.297261e+01
   4.970552e+01
   4.443314e+01
   3.849763e+01
   3.309385e+01
   2.896347e+01
   2.637704e+01
   2.500041e+01
   2.410766e+01
   2.336644e+01
   2.315508e+01
   2.352415e+01
   2.306165e+01
   1.981350e+01
   1.378576e+01
   7.869536e+00
   5.686076e+00
   8.717738e+00
   1.567915e+01
   2.415101e+01
   3.247571e+01
   4.053406e+01
   4.918712e+01
   5.880334e+01
   6.807593e+01
   7.454374e+01
   7.657258e+01
   7.461979e+01
   7.035301e+01
   6.497376e+01
   5.885138e+01
   5.223979e+01
   4.535438e+01
   3.767504e+01
   2.797886e+01
   1.564586e+01
   1.927485e+00
  -1.039115e+01
  -1.905895e+01
  -2.445003e+01
  -2.946606e+01
  -3.696984e+01
  -4.718361e+01
  -5.756761e+01
  -6.497682e+01
  -6.796741e+01
  -6.763348e+01
  -6.651182e+01
  -6.615093e+01
  -6.541563e+01
  -6.160290e+01
  -5.336342e+01
  -4.190235e+01
  -2.918956e+01
  -1.591386e+01
  -1.686848e+00
   1.357136e+01
   2.926199e+01
   4.465614e+01
   5.895913e+01
   7.094753e+01
   7.934868e+01
   8.393863e+01
   8.597872e+01
   8.723771e+01
   8.852733e+01
   8.928473e+01
   8.864689e+01
   8.689319e+01
   8.557129e+01
   8.575559e+01
   8.612572e+01
   8.332474e+01
   7.452250e+01
   5.941838e+01
   4.010946e+01
   1.997849e+01
   2.625074e+00
  -9.608580e+00
  -1.722554e+01
  -2.333832e+01
  -3.071058e+01
  -3.863199e+01
  -4.347376e+01
  -4.298605e+01
  -3.943778e+01
  -3.735078e+01
  -3.813384e+01
  -3.828879e+01
  -3.362385e+01
  -2.409365e+01
  -1.326625e+01
  -3.900754e+00
   4.252034e+00
   1.268254e+01
   2.223029e+01
   3.346466e+01
   4.720236e+01
   6.313960e+01
   7.839127e+01
   8.866634e+01
   9.125068e+01
   8.632113e+01
   7.557956e+01
   6.102940e+01
   4.565733e+01
   3.357810e+01
   2.741469e+01
   2.559353e+01
   2.353197e+01
   1.776483e+01
   8.500693e+00
  -1.351810e+00
  -8.790527e+00
  -1.271171e+01
  -1.450570e+01
  -1.710949e+01
  -2.294297e+01
  -3.224733e+01
  -4.319245e+01
  -5.341898e+01
  -6.165841e+01
  -6.844342e+01
  -7.546555e+01
  -8.391796e+01
  -9.337894e+01
  -1.025875e+02
  -1.111321e+02
  -1.197299e+02
  -1.288895e+02
  -1.382494e+02
  -1.475570e+02
  -1.573973e+02
  -1.682858e+02
  -1.792428e+02
  -1.874160e+02
  -1.890742e+02
  -1.811068e+02
  -1.617449e+02
  -1.307497e+02
  -9.082375e+01
  -4.944095e+01
  -1.696316e+01
  -1.307981e-01
   3.031848e+00
   8.092444e-01
   1.994321e-01
   2.375348e+00
   5.247225e+00
   8.678527e+00
   1.542453e+01
   2.681140e+01
   3.941944e+01
   4.809047e+01
   5.175435e+01
   5.436945e+01
   6.028594e+01
   7.060837e+01
   8.409127e+01
   9.930146e+01
   1.146861e+02
   1.276777e+02
   1.352788e+02
   1.358324e+02
   1.297567e+02
   1.185461e+02
   1.037437e+02
   8.721234e+01
   7.155844e+01
   5.913213e+01
   5.071658e+01
   4.614281e+01
   4.578369e+01
   4.984054e+01
   5.623393e+01
   6.130452e+01
   6.360001e+01
   6.559226e+01
   7.038898e+01
   7.763175e+01
   8.412499e+01
   8.792332e+01
   8.964332e+01
   8.938869e+01
   8.487804e+01
   7.457097e+01
   6.135238e+01
   5.077483e+01
   4.549102e+01
   4.277108e+01
   3.788984e+01
   2.912349e+01
   1.887653e+01
   1.045134e+01
   4.628899e+00
  -5.891958e-01
  -7.916452e+00
  -1.906881e+01
  -3.426792e+01
  -5.206123e+01
  -6.926785e+01
  -8.212444e+01
  -8.857341e+01
  -8.928313e+01
  -8.589395e+01
  -7.895035e+01
  -6.867444e+01
  -5.730987e+01
  -4.910189e+01
  -4.726730e+01
  -5.129947e+01
  -5.739742e+01
  -6.157630e+01
  -6.270877e+01
  -6.277076e+01
  -6.434837e+01
  -6.846030e+01
  -7.465096e+01
  -8.180532e+01
  -8.811378e+01
  -9.131487e+01
  -9.021742e+01
  -8.599604e+01
  -8.143576e+01
  -7.848438e+01
  -7.635575e+01
  -7.227331e+01
  -6.440788e+01
  -5.390994e+01
  -4.381818e+01
  -3.628216e+01
  -3.112792e+01
  -2.673584e+01
  -2.177250e+01
  -1.611754e+01
  -1.050299e+01
  -5.376834e+00
  -5.687738e-02
   6.873359e+00
   1.620990e+01
   2.735457e+01
   3.908810e+01
   5.085670e+01
   6.273066e+01
   7.395579e+01
   8.225122e+01
   8.544623e+01
   8.396396e+01
   8.116297e+01
   8.087192e+01
   8.459767e+01
   9.094162e+01
   9.717621e+01
   1.011847e+02
   1.025081e+02
   1.023851e+02
   1.030057e+02
   1.063033e+02
   1.128687e+02
   1.214219e+02
   1.290475e+02
   1.325858e+02
   1.310201e+02
   1.268747e+02
   1.242399e+02
   1.243717e+02
   1.236204e+02
   1.167514e+02
   1.022119e+02
   8.317955e+01
   6.378996e+01
   4.599567e+01
   3.037755e+01
   1.795198e+01
   9.460641e+00
   3.676848e+00
  -1.689461e+00
  -6.779668e+00
  -8.066173e+00
  -1.090426e+00
   1.444304e+01
   3.197886e+01
   4.131796e+01
   3.604196e+01
   1.862643e+01
  -1.758850e+00
  -1.645636e+01
  -2.278317e+01
  -2.412153e+01
  -2.629038e+01
  -3.351441e+01
  -4.625201e+01
  -6.167696e+01
  -7.604956e+01
  -8.718892e+01
  -9.532494e+01
  -1.017012e+02
  -1.065001e+02
  -1.088141e+02
  -1.086488e+02
  -1.076852e+02
  -1.074317e+02
  -1.076500e+02
  -1.073808e+02
  -1.067571e+02
  -1.068831e+02
  -1.082086e+02
  -1.099376e+02
  -1.114013e+02
  -1.132293e+02
  -1.156271e+02
  -1.151567e+02
  -1.056280e+02
  -8.460023e+01
  -5.751240e+01
  -3.266809e+01
  -1.345330e+01
   1.979524e+00
   1.515383e+01
   2.446766e+01
   2.721881e+01
   2.254393e+01
   1.267180e+01
   1.921070e+00
  -5.933483e+00
  -9.559791e+00
  -1.006219e+01
  -1.091624e+01
  -1.802015e+01
  -3.658377e+01
  -6.513718e+01
  -9.349315e+01
  -1.089740e+02
  -1.053991e+02
  -8.622356e+01
  -6.053248e+01
  -3.732964e+01
  -2.232101e+01
  -1.699561e+01
  -1.865891e+01
  -2.162111e+01
  -2.013001e+01
  -1.176185e+01
   1.360888e+00
   1.450298e+01
   2.368547e+01
   2.813635e+01
   3.036120e+01
   3.349607e+01
   3.771409e+01
   3.937746e+01
   3.476027e+01
   2.509604e+01
   1.726925e+01
   1.833347e+01
   2.883491e+01
   4.217703e+01
   5.112569e+01
   5.426173e+01
   5.543210e+01
   5.796927e+01
   6.100415e+01
   6.146039e+01
   5.840976e+01
   5.437280e+01
   5.237944e+01
   5.279981e+01
   5.362355e+01
   5.292784e+01
   4.993138e+01
   4.414597e+01
   3.534872e+01
   2.519303e+01
   1.753941e+01
   1.562785e+01
   1.893503e+01
   2.394428e+01
   2.856873e+01
   3.485244e+01
   4.608630e+01
   6.181686e+01
   7.714398e+01
   8.680728e+01
   8.900050e+01
   8.569646e+01
   8.059709e+01
   7.689986e+01
   7.595701e+01
   7.707521e+01
   7.842481e+01
   7.866961e+01
   7.819569e+01
   7.873902e+01
   8.179616e+01
   8.759498e+01
   9.530699e+01
   1.034127e+02
   1.097166e+02
   1.120861e+02
   1.102077e+02
   1.063483e+02
   1.033554e+02
   1.014712e+02
   9.752990e+01
   8.776678e+01
   7.155598e+01
   5.238131e+01
   3.520678e+01
   2.294777e+01
   1.513578e+01
   9.276240e+00
   3.229417e+00
  -3.223015e+00
  -8.581405e+00
  -1.134056e+01
  -1.181633e+01
  -1.242713e+01
  -1.593205e+01
  -2.321600e+01
  -3.296768e+01
  -4.338734e+01
  -5.356765e+01
  -6.316790e+01
  -7.181983e+01
  -7.967034e+01
  -8.780195e+01
  -9.690951e+01
  -1.056033e+02
  -1.109846e+02
  -1.112057e+02
  -1.070996e+02
  -1.014298e+02
  -9.709617e+01
  -9.588623e+01
  -9.785509e+01
  -1.010862e+02
