Corrected acceleration    (Format v01.20 with 13 text lines)
Record of Point MacKenzie Earthquake of Fri Nov 30, 2018 17:29 UTC
Hypocenter: 61.34000 -149.93660 H= 40km Mw=7.0
Origin: 2018/11/30 17:29:28    UTC
Statn No: 02-008037 Code:NP-8037   USGS  AK:Anchorage;NOAA Weather Fac
Coords: 61.1562 -149.9849  Site geology:
Recorder: (see cmnt)      ( 3 Chns of   3 at Sta) Sensor: (see comment)    
Rcrd start time: 2018/11/30 17:29:04.966 UTC (Q=5) RcrdId: (see comment)
Sta Chan   2:360 Deg (Rcrdr Chan  ?) Location:Ground
Raw record length = 210.000 sec, Uncor max =    817030, at  47.125 sec.
Processed:2018-12-03 21:55:12 GMT, UNKN, Max = -354.410 cm/sec2 at   47.125 sec
Record filtered below  0.10 Hz (periods over 10.00 secs), and above 40.0 Hz
Values used when parameter or data value is unknown/unspecified:   -999, -999.00
 100 Integer-header values follow on  10 lines, Format= (10I8)
       2       1       4     120       1    -999    -999    8037    -999    -999
       2       2    -999       8    -999       1    -999    -999       4    -999
    -999       1       3    -999    -999    -999    -999    -999    -999    1000
       3     391       3    -999       0       0    -999    -999    -999    2018
     334      11      30      17      29       5       5    -999    -999       2
    -999      20    -999     360    -999    -999    -999    -999    -999    -999
       5       5    -999       1    -999    -999    -999    -999    -999    -999
    -999    -999    -999    -999       1       0    -999    -999    -999    -999
    -999    -999    -999    -999    -999    -999    -999    -999    -999    -999
    -999    -999    -999    -999    -999    -999    -999    -999    -999    -999
 100 Real-header values follow on  20 lines, Format= (5F15.6)
      61.156240    -149.984950      40.000000    -999.000000    -999.000000
    -999.000000    -999.000000    -999.000000    -999.000000      61.340000
    -149.936600      40.900000       7.000000    -999.000000    -999.000000
    -999.000000      20.596178     187.213146    -999.000000    -999.000000
    -999.000000       2.384188       0.000000      30.000000     180.000000
      80.000000    -999.000000    -999.000000    -999.000000       4.966400
    -999.000000       0.000000    -999.000000       0.005000     210.000000
     -28.788884    -999.000000    -999.000000    -999.000000     223.976073
       0.697089       4.991600      19.966400       4.000000      80.000000
    -999.000000       1.000000    -999.000000    -999.000000    -999.000000
    -999.000000    -999.000000    -999.000000       0.100000    -999.000000
    -999.000000      40.000000    -999.000000    -999.000000    -999.000000
    -999.000000       5.000000     210.000000    -354.409511      47.125000
      -0.000287    -999.000000       0.000024       0.000129    -999.000000
    -999.000000    -999.000000    -999.000000    -999.000000    -999.000000
    -999.000000    -999.000000    -999.000000    -999.000000      21.430000
      19.165000       0.900444      11.358686    -999.000000       1.396748
    -999.000000    -999.000000     980.665000    -999.000000    -999.000000
    -999.000000    -999.000000    -999.000000    -999.000000    -999.000000
    -999.000000    -999.000000    -999.000000    -999.000000    -999.000000
  11 Comment line(s) follow, each starting with a "|":
| Recorder: Basalt-4x 
| Sensor: Episensor (4 g max 5.0 v/g)
| RcrdId: US.1000hyfh.NP.8037.HNN.--
|<SCNL>8037.HNN.NP.--    <AUTH> 2018/11/03 21:54:50.000
|<PROCESS> AUTO
|<EONSET> event onset(sec)=  34.7650
|<ABLC>SF:   0.0000, EF:  34.7650, SA:   0.0000, EA: 210.0000, ORDER:  MEAN
|<ABLC>SF:   0.0000, EF: 210.0000, SA:   0.0000, EA: 210.0000, ORDER:ORDER1
|<ABLABC1>SF:   0.0000, EF:  34.7650, SA:   0.0000, EA:  34.7650, ORDER:ORDER1
|<ABLABC2>SF:  34.7650, EF: 167.7650, SA:  34.7650, EA: 167.7650, ORDER:ORDER2
|<ABLABC3>SF: 167.7650, EF: 210.0000, SA: 167.7650, EA: 210.0000, ORDER:ORDER1
   42000 acceleration pts, approx  210 secs, units=cm/sec2(04),Format=(1E15.6)
[...]
   2.221893e+01
   1.237539e+01
   5.861838e+00
   2.996440e+00
   2.701431e+00
   3.343689e+00
   3.434235e+00
   1.824358e+00
  -2.086160e+00
  -7.876392e+00
  -1.414000e+01
  -1.958602e+01
  -2.414826e+01
  -2.858375e+01
  -3.290681e+01
  -3.571647e+01
  -3.544319e+01
  -3.202417e+01
  -2.695732e+01
  -2.178950e+01
  -1.690408e+01
  -1.173547e+01
  -5.662996e+00
   1.634578e+00
   1.045320e+01
   2.115094e+01
   3.362983e+01
   4.670983e+01
   5.823947e+01
   6.624224e+01
   7.012440e+01
   7.035989e+01
   6.683836e+01
   5.834711e+01
   4.446633e+01
   2.756007e+01
   1.203629e+01
   1.577903e+00
  -2.573503e+00
  -9.997844e-01
   5.229115e+00
   1.478507e+01
   2.541992e+01
   3.393829e+01
   3.747931e+01
   3.507523e+01
   2.802191e+01
   1.883437e+01
   9.867080e+00
   2.680187e+00
  -1.732973e+00
  -2.555503e+00
   7.241136e-01
   7.732782e+00
   1.689915e+01
   2.588178e+01
   3.241265e+01
   3.490040e+01
   3.260171e+01
   2.561882e+01
   1.480791e+01
   1.469225e+00
  -1.301472e+01
  -2.726523e+01
  -3.983657e+01
  -4.936384e+01
  -5.482816e+01
  -5.549174e+01
  -5.061576e+01
  -3.966192e+01
  -2.308894e+01
  -2.800805e+00
   1.849371e+01
   3.842366e+01
   5.549193e+01
   6.884900e+01
   7.802249e+01
   8.298763e+01
   8.429394e+01
   8.295223e+01
   8.016015e+01
   7.710850e+01
   7.493617e+01
   7.463517e+01
   7.673587e+01
   8.093617e+01
   8.605299e+01
   9.051924e+01
   9.318731e+01
   9.379803e+01
   9.274765e+01
   9.051474e+01
   8.719054e+01
   8.211380e+01
   7.390732e+01
   6.163219e+01
   4.644203e+01
   3.151806e+01
   1.974611e+01
   1.188879e+01
   7.358159e+00
   5.767870e+00
   6.729696e+00
   8.722479e+00
   9.298202e+00
   6.445158e+00
  -6.885942e-01
  -1.202026e+01
  -2.668947e+01
  -4.298644e+01
  -5.883521e+01
  -7.290606e+01
  -8.524862e+01
  -9.661573e+01
  -1.072848e+02
  -1.168887e+02
  -1.252736e+02
  -1.328572e+02
  -1.398072e+02
  -1.452479e+02
  -1.476891e+02
  -1.461594e+02
  -1.407248e+02
  -1.320495e+02
  -1.208573e+02
  -1.080192e+02
  -9.485893e+01
  -8.287890e+01
  -7.302318e+01
  -6.529676e+01
  -5.903732e+01
  -5.343795e+01
  -4.790901e+01
  -4.213225e+01
  -3.588064e+01
  -2.884208e+01
  -2.060582e+01
  -1.077253e+01
   8.779521e-01
   1.419165e+01
   2.848297e+01
   4.253341e+01
   5.488988e+01
   6.447043e+01
   7.114213e+01
   7.575148e+01
   7.948465e+01
   8.310825e+01
   8.668247e+01
   8.963824e+01
   9.078720e+01
   8.839773e+01
   8.082434e+01
   6.752578e+01
   4.959930e+01
   2.930973e+01
   9.032494e+00
  -9.582996e+00
  -2.577572e+01
  -3.924767e+01
  -4.963699e+01
  -5.644248e+01
  -5.947585e+01
  -5.930384e+01
  -5.719056e+01
  -5.467191e+01
  -5.317659e+01
  -5.379860e+01
  -5.706889e+01
  -6.273109e+01
  -6.971987e+01
  -7.641977e+01
  -8.112101e+01
  -8.266705e+01
  -8.118744e+01
  -7.832775e+01
  -7.637103e+01
  -7.663267e+01
  -7.849413e+01
  -8.006272e+01
  -7.986982e+01
  -7.795221e+01
  -7.536250e+01
  -7.282641e+01
  -6.999284e+01
  -6.584497e+01
  -5.958145e+01
  -5.103889e+01
  -4.047749e+01
  -2.819135e+01
  -1.431345e+01
   1.188163e+00
   1.840161e+01
   3.722715e+01
   5.705734e+01
   7.661256e+01
   9.409915e+01
   1.076056e+02
   1.155957e+02
   1.174899e+02
   1.141384e+02
   1.075977e+02
   9.997496e+01
   9.218325e+01
   8.371989e+01
   7.346073e+01
   6.051495e+01
   4.461689e+01
   2.633054e+01
   7.165581e+00
  -1.087787e+01
  -2.640460e+01
  -3.927790e+01
  -4.971992e+01
  -5.657095e+01
  -5.701831e+01
  -4.889239e+01
  -3.342452e+01
  -1.515625e+01
   1.425940e+00
   1.504177e+01
   2.706396e+01
   3.810304e+01
   4.595662e+01
   4.735797e+01
   4.138494e+01
   3.058242e+01
   1.864842e+01
   7.423084e+00
  -3.619073e+00
  -1.534768e+01
  -2.708788e+01
  -3.677328e+01
  -4.248573e+01
  -4.361291e+01
  -4.081717e+01
  -3.523901e+01
  -2.767188e+01
  -1.822555e+01
  -6.703995e+00
   6.549319e+00
   2.014350e+01
   3.225550e+01
   4.205798e+01
   5.032023e+01
   5.802636e+01
   6.446811e+01
   6.761869e+01
   6.685706e+01
   6.458619e+01
   6.444882e+01
   6.832102e+01
   7.553295e+01
   8.449228e+01
   9.423552e+01
   1.044686e+02
   1.149010e+02
   1.250630e+02
   1.345847e+02
   1.432404e+02
   1.506660e+02
   1.563083e+02
   1.598106e+02
   1.612823e+02
   1.608915e+02
   1.580929e+02
   1.514519e+02
   1.395139e+02
   1.220164e+02
   1.003504e+02
   7.689344e+01
   5.378336e+01
   3.203991e+01
   1.156991e+01
  -8.141672e+00
  -2.737278e+01
  -4.605842e+01
  -6.405407e+01
  -8.123144e+01
  -9.727149e+01
  -1.115512e+02
  -1.234422e+02
  -1.327931e+02
  -1.400748e+02
  -1.459727e+02
  -1.507392e+02
  -1.538048e+02
  -1.539014e+02
  -1.496618e+02
  -1.404573e+02
  -1.269794e+02
  -1.110599e+02
  -9.483684e+01
  -8.003853e+01
  -6.788635e+01
  -5.915250e+01
  -5.376304e+01
  -5.040216e+01
  -4.713696e+01
  -4.289703e+01
  -3.826934e+01
  -3.468462e+01
  -3.297360e+01
  -3.283907e+01
  -3.340966e+01
  -3.379593e+01
  -3.301599e+01
  -2.982879e+01
  -2.315198e+01
  -1.280022e+01
   2.926334e-01
   1.468506e+01
   2.936993e+01
   4.429647e+01
   6.005623e+01
   7.695796e+01
   9.428986e+01
   1.104429e+02
   1.237352e+02
   1.331899e+02
   1.387347e+02
   1.408719e+02
   1.402465e+02
   1.374559e+02
   1.329563e+02
   1.266945e+02
   1.176901e+02
   1.044235e+02
   8.625461e+01
   6.468804e+01
   4.304700e+01
   2.462889e+01
   1.095824e+01
   1.506083e+00
  -5.311794e+00
  -1.095412e+01
  -1.609077e+01
  -2.056327e+01
  -2.389796e+01
  -2.600530e+01
  -2.736470e+01
  -2.843999e+01
  -2.899684e+01
  -2.809007e+01
  -2.467683e+01
  -1.833118e+01
  -9.722072e+00
  -5.967101e-01
   6.993568e+00
   1.186418e+01
   1.422506e+01
   1.510616e+01
   1.548162e+01
   1.596089e+01
   1.687725e+01
   1.826194e+01
   1.984384e+01
   2.141409e+01
   2.319819e+01
   2.558856e+01
   2.844705e+01
   3.096342e+01
   3.242831e+01
   3.301693e+01
   3.357930e+01
   3.464807e+01
   3.577974e+01
   3.587443e+01
   3.401031e+01
   2.992246e+01
   2.385310e+01
   1.620941e+01
   7.442509e+00
  -1.957196e+00
  -1.159010e+01
  -2.122007e+01
  -3.044510e+01
  -3.821970e+01
  -4.300618e+01
  -4.374431e+01
  -4.069913e+01
  -3.522537e+01
  -2.877219e+01
  -2.226563e+01
  -1.628770e+01
  -1.143018e+01
  -8.267573e+00
  -7.162114e+00
  -8.315741e+00
  -1.196544e+01
  -1.830871e+01
  -2.711209e+01
  -3.742933e+01
  -4.778424e+01
  -5.670141e+01
  -6.320768e+01
  -6.705475e+01
  -6.857955e+01
  -6.819086e+01
  -6.571209e+01
  -6.022198e+01
  -5.095371e+01
  -3.872308e+01
  -2.627577e+01
  -1.673312e+01
  -1.149908e+01
  -9.630165e+00
  -8.930750e+00
  -7.509091e+00
  -4.786109e+00
  -1.686835e+00
   4.804898e-02
  -8.681418e-01
  -4.396032e+00
  -9.522308e+00
  -1.537648e+01
  -2.177930e+01
  -2.869411e+01
  -3.550335e+01
  -4.114217e+01
  -4.485946e+01
  -4.661079e+01
  -4.671844e+01
  -4.538867e+01
  -4.274664e+01
  -3.931849e+01
  -3.629151e+01
  -3.508102e+01
  -3.649952e+01
  -4.031819e+01
  -4.567253e+01
  -5.193422e+01
  -5.922795e+01
  -6.815377e+01
  -7.905099e+01
  -9.153204e+01
  -1.046700e+02
  -1.175310e+02
  -1.294757e+02
  -1.400751e+02
  -1.489696e+02
  -1.559437e+02
  -1.610747e+02
  -1.646670e+02
  -1.669720e+02
  -1.679790e+02
  -1.674696e+02
  -1.652227e+02
  -1.611676e+02
  -1.554550e+02
  -1.485029e+02
  -1.409137e+02
  -1.331449e+02
  -1.251682e+02
  -1.165684e+02
  -1.071389e+02
  -9.741164e+01
  -8.858005e+01
  -8.198262e+01
  -7.869609e+01
  -7.925921e+01
  -8.314626e+01
  -8.833788e+01
  -9.198136e+01
  -9.206647e+01
  -8.850385e+01
  -8.247386e+01
  -7.490213e+01
  -6.566912e+01
  -5.402097e+01
  -3.946858e+01
  -2.239887e+01
  -4.103956e+00
   1.372148e+01
   2.972427e+01
   4.339690e+01
   5.501839e+01
   6.522186e+01
   7.464854e+01
   8.385588e+01
   9.328057e+01
   1.030959e+02
   1.130842e+02
   1.227478e+02
   1.316444e+02
   1.396410e+02
   1.468483e+02
   1.533641e+02
   1.590843e+02
   1.635920e+02
   1.660429e+02
   1.652354e+02
   1.601521e+02
   1.508012e+02
   1.386749e+02
   1.262413e+02
   1.156280e+02
   1.074068e+02
   1.004843e+02
   9.329277e+01
   8.528710e+01
   7.720768e+01
   6.964514e+01
   6.154865e+01
   5.079945e+01
   3.646886e+01
   2.007382e+01
   4.408925e+00
  -8.577959e+00
  -1.870141e+01
  -2.667127e+01
  -3.256445e+01
  -3.521057e+01
  -3.305029e+01
  -2.551283e+01
  -1.355288e+01
   1.016911e+00
   1.661517e+01
   3.238002e+01
   4.768136e+01
   6.120532e+01
   7.063839e+01
   7.346268e+01
   6.814972e+01
   5.454756e+01
   3.339708e+01
   6.151222e+00
  -2.442845e+01
  -5.403655e+01
  -7.799797e+01
  -9.326353e+01
  -9.980199e+01
  -1.005673e+02
  -1.001184e+02
  -1.026034e+02
  -1.101641e+02
  -1.224813e+02
  -1.373361e+02
  -1.516424e+02
  -1.626188e+02
  -1.687984e+02
  -1.703604e+02
  -1.685770e+02
  -1.649264e+02
  -1.605461e+02
  -1.560375e+02
  -1.512790e+02
  -1.453126e+02
  -1.366373e+02
  -1.238782e+02
  -1.064220e+02
  -8.471985e+01
  -6.024361e+01
  -3.513921e+01
  -1.156872e+01
   9.098473e+00
   2.666932e+01
   4.153535e+01
   5.360592e+01
   6.222106e+01
   6.744950e+01
   7.105346e+01
   7.555749e+01
   8.240050e+01
   9.122470e+01
   1.006350e+02
   1.092339e+02
   1.161743e+02
   1.212838e+02
   1.247990e+02
   1.268016e+02
   1.269734e+02
   1.250127e+02
   1.209600e+02
   1.146909e+02
   1.053332e+02
   9.187618e+01
   7.458152e+01
   5.539744e+01
   3.668980e+01
   1.968882e+01
   4.220625e+00
  -1.036175e+01
  -2.423876e+01
  -3.697756e+01
  -4.807343e+01
  -5.751606e+01
  -6.573278e+01
  -7.290549e+01
  -7.841265e+01
  -8.105189e+01
  -7.979807e+01
  -7.438295e+01
  -6.544068e+01
  -5.440402e+01
  -4.314834e+01
  -3.319693e+01
  -2.474841e+01
  -1.644416e+01
  -6.582456e+00
   4.962775e+00
   1.609876e+01
   2.422260e+01
   2.879533e+01
   3.207969e+01
   3.724341e+01
   4.585023e+01
   5.706294e+01
   6.871064e+01
   7.872460e+01
   8.576921e+01
   8.900121e+01
   8.756104e+01
   8.045974e+01
   6.705828e+01
   4.767176e+01
   2.369269e+01
  -2.812568e+00
  -2.963530e+01
  -5.486337e+01
  -7.721962e+01
  -9.608235e+01
  -1.109849e+02
  -1.211188e+02
  -1.257673e+02
  -1.255204e+02
  -1.227140e+02
  -1.200889e+02
  -1.188350e+02
  -1.180346e+02
  -1.159049e+02
  -1.113359e+02
  -1.042526e+02
  -9.488237e+01
  -8.315753e+01
  -6.912180e+01
  -5.387741e+01
  -3.974473e+01
  -2.897980e+01
  -2.207283e+01
  -1.734218e+01
  -1.219863e+01
  -4.722673e+00
   5.755068e+00
   1.898244e+01
   3.423678e+01
   5.059254e+01
   6.718498e+01
   8.353077e+01
   9.969929e+01
   1.161649e+02
   1.334249e+02
   1.515913e+02
   1.700646e+02
   1.873620e+02
   2.013506e+02
   2.101305e+02
   2.132132e+02
   2.119813e+02
   2.088206e+02
   2.056139e+02
   2.028902e+02
   2.000990e+02
   1.964500e+02
   1.916320e+02
   1.860992e+02
   1.808670e+02
   1.769624e+02
   1.748853e+02
   1.744541e+02
   1.751062e+02
   1.762720e+02
   1.773395e+02
   1.772814e+02
   1.745631e+02
   1.675836e+02
   1.551698e+02
   1.367176e+02
   1.121907e+02
   8.219772e+01
   4.785849e+01
   1.028233e+01
  -2.981548e+01
  -7.181826e+01
  -1.145587e+02
  -1.560740e+02
  -1.939920e+02
  -2.262297e+02
  -2.516909e+02
  -2.707164e+02
  -2.849797e+02
  -2.967873e+02
  -3.081561e+02
  -3.200331e+02
  -3.319098e+02
  -3.422408e+02
  -3.496425e+02
  -3.537153e+02
  -3.544095e+02
  -3.507434e+02
  -3.408604e+02
  -3.238666e+02
  -3.014316e+02
  -2.771847e+02
  -2.544964e+02
  -2.347845e+02
  -2.173769e+02
  -2.004409e+02
  -1.823106e+02
  -1.627060e+02
  -1.430209e+02
  -1.251374e+02
  -1.095412e+02
  -9.442056e+01
  -7.672817e+01
  -5.444216e+01
  -2.804053e+01
   1.649610e-01
   2.807347e+01
   5.516848e+01
   8.215121e+01
   1.095623e+02
   1.367217e+02
   1.617245e+02
   1.824387e+02
   1.978381e+02
   2.087031e+02
   2.171060e+02
   2.250375e+02
   2.331972e+02
   2.407356e+02
   2.458989e+02
   2.469802e+02
   2.430875e+02
   2.345243e+02
   2.227020e+02
   2.096517e+02
   1.973893e+02
   1.874013e+02
   1.803455e+02
   1.759653e+02
   1.732404e+02
   1.707468e+02
   1.670470e+02
   1.609333e+02
   1.516017e+02
   1.389487e+02
   1.238161e+02
   1.076826e+02
   9.176234e+01
   7.631277e+01
   6.094933e+01
   4.565530e+01
   3.129644e+01
   1.906575e+01
   9.665477e+00
   3.312898e+00
   4.368884e-01
   1.802191e+00
   7.359513e+00
   1.501035e+01
   2.123797e+01
   2.354474e+01
   2.218647e+01
   1.941794e+01
   1.741823e+01
   1.705659e+01
   1.794554e+01
   1.890670e+01
   1.841472e+01
   1.516045e+01
   8.609764e+00
  -8.649184e-01
  -1.243336e+01
  -2.544819e+01
  -3.963359e+01
  -5.466397e+01
  -6.979936e+01
  -8.416686e+01
  -9.726905e+01
  -1.089546e+02
  -1.189264e+02
  -1.265217e+02
  -1.311105e+02
  -1.326789e+02
  -1.319683e+02
  -1.300266e+02
  -1.275951e+02
  -1.248247e+02
  -1.215082e+02
  -1.176284e+02
  -1.137427e+02
  -1.107996e+02
  -1.094839e+02
  -1.096502e+02
  -1.103019e+02
  -1.100293e+02
  -1.074798e+02
  -1.015937e+02
  -9.166646e+01
  -7.745556e+01
  -5.944429e+01
  -3.907320e+01
  -1.851855e+01
   1.136791e-01
   1.561973e+01
   2.783750e+01
   3.715007e+01
   4.406021e+01
   4.912129e+01
   5.284448e+01
   5.545826e+01
   5.698447e+01
   5.780272e+01
   5.908446e+01
   6.248845e+01
   6.932558e+01
   7.987078e+01
   9.323024e+01
   1.077584e+02
   1.217725e+02
   1.341418e+02
   1.443998e+02
   1.524416e+02
   1.582134e+02
   1.616528e+02
   1.627431e+02
   1.614823e+02
   1.578442e+02
   1.518945e+02
   1.439687e+02
   1.347096e+02
   1.249459e+02
   1.155296e+02
   1.071029e+02
   9.979503e+01
   9.327705e+01
   8.750604e+01
   8.331320e+01
   8.152805e+01
   8.122829e+01
   7.954229e+01
   7.384286e+01
   6.396837e+01
   5.197238e+01
   3.998459e+01
   2.879337e+01
   1.846411e+01
   9.679254e+00
   3.664225e+00
   5.122416e-01
  -1.941989e+00
  -6.992088e+00
  -1.667105e+01
  -3.042713e+01
  -4.576391e+01
  -5.986959e+01
  -7.086724e+01
  -7.799072e+01
  -8.086739e+01
  -7.879286e+01
  -7.087418e+01
  -5.698612e+01
  -3.856044e+01
  -1.834904e+01
   7.780975e-01
   1.717295e+01
   3.082875e+01
   4.231719e+01
   5.113033e+01
   5.537803e+01
   5.345895e+01
   4.581823e+01
   3.478039e+01
   2.286731e+01
   1.154235e+01
   1.394090e+00
  -6.860011e+00
  -1.176936e+01
  -1.160727e+01
  -5.505740e+00
   5.715142e+00
   1.964660e+01
   3.318799e+01
   4.370549e+01
   4.988147e+01
   5.187659e+01
   5.085851e+01
   4.830366e+01
   4.541796e+01
   4.279802e+01
   4.042560e+01
   3.805824e+01
   3.574088e+01
   3.386853e+01
   3.262347e+01
   3.144116e+01
   2.928186e+01
   2.552699e+01
   2.048406e+01
   1.498218e+01
   9.723870e+00
   5.150239e+00
   1.506972e+00
  -1.432763e+00
  -4.493008e+00
  -8.425224e+00
  -1.308339e+01
  -1.750251e+01
  -2.073916e+01
  -2.246058e+01
  -2.276120e+01
  -2.156084e+01
  -1.825670e+01
  -1.200763e+01
  -2.443770e+00
   9.806167e+00
   2.320699e+01
   3.588367e+01
   4.618184e+01
   5.300477e+01
   5.605440e+01
   5.586513e+01
   5.317440e+01
   4.780504e+01
   3.835717e+01
   2.364520e+01
   4.691461e+00
  -1.508689e+01
  -3.197996e+01
  -4.403375e+01
  -5.086310e+01
  -5.215796e+01
  -4.753044e+01
  -3.822759e+01
  -2.825406e+01
  -2.282478e+01
  -2.532835e+01
  -3.562868e+01
  -5.071025e+01
  -6.656932e+01
  -8.016680e+01
  -9.058989e+01
  -9.860595e+01
  -1.049776e+02
  -1.094112e+02
  -1.112971e+02
  -1.110927e+02
  -1.104525e+02
  -1.108912e+02
  -1.125563e+02
  -1.144947e+02
  -1.160714e+02
  -1.179263e+02
  -1.214149e+02
  -1.271863e+02
  -1.344040e+02
  -1.412329e+02
  -1.458534e+02
  -1.469489e+02
  -1.434789e+02
  -1.344941e+02
  -1.196253e+02
  -9.980214e+01
  -7.715600e+01
  -5.393757e+01
  -3.154235e+01
  -1.059048e+01
   8.361013e+00
   2.455606e+01
   3.746766e+01
   4.718047e+01
   5.419451e+01
   5.895348e+01
   6.165270e+01
   6.242715e+01
   6.157984e+01
   5.953929e+01
   5.662887e+01
   5.302220e+01
   4.903401e+01
   4.539201e+01
   4.308180e+01
   4.291837e+01
   4.539018e+01
   5.092094e+01
   6.004203e+01
   7.304061e+01
   8.936854e+01
   1.074547e+02
   1.251490e+02
   1.404730e+02
   1.522012e+02
   1.600035e+02
   1.642319e+02
   1.656611e+02
   1.652489e+02
   1.636037e+02
