Corrected acceleration    (Format v01.20 with 13 text lines)
Record of Point MacKenzie Earthquake of Fri Nov 30, 2018 17:29 UTC
Hypocenter: 61.34000 -149.93660 H= 40km Mw=7.0
Origin: 2018/11/30 17:29:28    UTC
Statn No: 02-008027 Code:NP-8027   USGS  AK:Anchorage;St Fish&Game
Coords: 61.1609 -149.8892  Site geology:
Recorder: (see cmnt)      ( 3 Chns of   3 at Sta) Sensor: (see comment)    
Rcrd start time: 2018/11/30 17:29:04.932 UTC (Q=5) RcrdId: (see comment)
Sta Chan   3: 90 Deg (Rcrdr Chan  ?) Location:Ground
Raw record length = 210.000 sec, Uncor max =   1040898, at  46.640 sec.
Processed:2018-12-03 21:58:57 GMT, UNKN, Max = -463.154 cm/sec2 at   46.635 sec
Record filtered below  0.10 Hz (periods over 10.00 secs), and above 40.0 Hz
Values used when parameter or data value is unknown/unspecified:   -999, -999.00
 100 Integer-header values follow on  10 lines, Format= (10I8)
       2       1       4     120       1    -999    -999    8027    -999    -999
       2       2    -999       8    -999       1    -999    -999       4    -999
    -999       1       3    -999    -999    -999    -999    -999    -999    1000
       3     403       3    -999       0       0    -999    -999    -999    2018
     334      11      30      17      29       5       5    -999    -999       3
    -999      20    -999      90    -999    -999    -999    -999    -999    -999
       5       5    -999       1    -999    -999    -999    -999    -999    -999
    -999    -999    -999    -999       1       0    -999    -999    -999    -999
    -999    -999    -999    -999    -999    -999    -999    -999    -999    -999
    -999    -999    -999    -999    -999    -999    -999    -999    -999    -999
 100 Real-header values follow on  20 lines, Format= (5F15.6)
      61.160900    -149.889200      33.000000    -999.000000    -999.000000
    -999.000000    -999.000000    -999.000000    -999.000000      61.340000
    -149.936600      40.900000       7.000000    -999.000000    -999.000000
    -999.000000      20.075712     172.745570    -999.000000    -999.000000
    -999.000000       2.384188       0.000000      30.000000     180.000000
      80.000000    -999.000000    -999.000000    -999.000000       4.931930
    -999.000000       0.000000    -999.000000       0.005000     210.000000
     -22.928942    -999.000000    -999.000000    -999.000000     223.976073
       0.697089       4.991600      19.966400       4.000000      80.000000
    -999.000000       1.000000    -999.000000    -999.000000    -999.000000
    -999.000000    -999.000000    -999.000000       0.100000    -999.000000
    -999.000000      40.000000    -999.000000    -999.000000    -999.000000
    -999.000000       5.000000     210.000000    -463.154195      46.635000
       0.000104    -999.000000      -0.000065      -0.000139    -999.000000
    -999.000000    -999.000000    -999.000000    -999.000000    -999.000000
    -999.000000    -999.000000    -999.000000    -999.000000      27.510000
      15.840000       1.157422      11.850936    -999.000000       1.906195
    -999.000000    -999.000000     980.665000    -999.000000    -999.000000
    -999.000000    -999.000000    -999.000000    -999.000000    -999.000000
    -999.000000    -999.000000    -999.000000    -999.000000    -999.000000
  11 Comment line(s) follow, each starting with a "|":
| Recorder: Basalt-4x 
| Sensor: Episensor (4 g max 5.0 v/g)
| RcrdId: US.1000hyfh.NP.8027.HNE.--
|<SCNL>8027.HNE.NP.--    <AUTH> 2018/11/03 21:54:50.000
|<PROCESS> AUTO
|<EONSET> event onset(sec)=  35.8650
|<ABLC>SF:   0.0000, EF:  35.8650, SA:   0.0000, EA: 210.0000, ORDER:  MEAN
|<ABLC>SF:   0.0000, EF: 210.0000, SA:   0.0000, EA: 210.0000, ORDER:ORDER1
|<ABLABC1>SF:   0.0000, EF:  35.8650, SA:   0.0000, EA:  35.8650, ORDER:ORDER1
|<ABLABC2>SF:  35.8650, EF: 114.8650, SA:  35.8650, EA: 114.8650, ORDER:ORDER2
|<ABLABC3>SF: 114.8650, EF: 210.0000, SA: 114.8650, EA: 210.0000, ORDER:ORDER1
   42000 acceleration pts, approx  210 secs, units=cm/sec2(04),Format=(1E15.6)
[...]
   1.051715e+02
   9.881523e+01
   8.877563e+01
   7.934760e+01
   7.393841e+01
   7.369409e+01
   7.752256e+01
   8.293317e+01
   8.718076e+01
   8.837017e+01
   8.614546e+01
   8.167036e+01
   7.684779e+01
   7.311920e+01
   7.064801e+01
   6.856076e+01
   6.588019e+01
   6.211523e+01
   5.725062e+01
   5.170523e+01
   4.622049e+01
   4.104758e+01
   3.486939e+01
   2.499284e+01
   9.248948e+00
  -1.203877e+01
  -3.584717e+01
  -5.809357e+01
  -7.581978e+01
  -8.851108e+01
  -9.780698e+01
  -1.060184e+02
  -1.147033e+02
  -1.240798e+02
  -1.331312e+02
  -1.402400e+02
  -1.444402e+02
  -1.466888e+02
  -1.496858e+02
  -1.557495e+02
  -1.648650e+02
  -1.754350e+02
  -1.867022e+02
  -1.993468e+02
  -2.135776e+02
  -2.277232e+02
  -2.392851e+02
  -2.468491e+02
  -2.507093e+02
  -2.524481e+02
  -2.543092e+02
  -2.577235e+02
  -2.611556e+02
  -2.597611e+02
  -2.482041e+02
  -2.243286e+02
  -1.906110e+02
  -1.528459e+02
  -1.173872e+02
  -8.843002e+01
  -6.672756e+01
  -5.042204e+01
  -3.688980e+01
  -2.384642e+01
  -9.735208e+00
   5.275031e+00
   1.830039e+01
   2.546849e+01
   2.624126e+01
   2.519279e+01
   2.769184e+01
   3.419830e+01
   4.073388e+01
   4.486031e+01
   4.879660e+01
   5.558935e+01
   6.412606e+01
   7.006943e+01
   7.115772e+01
   6.933933e+01
   6.723931e+01
   6.469522e+01
   6.012500e+01
   5.365166e+01
   4.710998e+01
   4.180448e+01
   3.763665e+01
   3.389273e+01
   2.968800e+01
   2.386920e+01
   1.564809e+01
   5.584372e+00
  -4.953906e+00
  -1.561719e+01
  -2.732143e+01
  -4.025382e+01
  -5.306586e+01
  -6.478050e+01
  -7.590316e+01
  -8.686439e+01
  -9.716350e+01
  -1.068168e+02
  -1.163870e+02
  -1.240278e+02
  -1.245795e+02
  -1.142361e+02
  -9.517682e+01
  -7.316300e+01
  -5.186561e+01
  -3.258647e+01
  -1.762096e+01
  -8.912860e+00
  -3.364845e+00
   6.095890e+00
   2.292158e+01
   4.210183e+01
   5.404399e+01
   5.265150e+01
   3.912764e+01
   1.911288e+01
  -1.543168e+00
  -1.762314e+01
  -2.432776e+01
  -2.022251e+01
  -1.063403e+01
  -4.832292e+00
  -7.811724e+00
  -1.586143e+01
  -2.098564e+01
  -1.853813e+01
  -1.013128e+01
  -6.608295e-01
   6.332067e+00
   1.114797e+01
   1.715979e+01
   2.776815e+01
   4.342852e+01
   6.128859e+01
   7.772926e+01
   9.096038e+01
   1.010861e+02
   1.087155e+02
   1.145500e+02
   1.197284e+02
   1.252346e+02
   1.306887e+02
   1.344281e+02
   1.351674e+02
   1.330362e+02
   1.282191e+02
   1.188365e+02
   1.014517e+02
   7.461934e+01
   4.177225e+01
   9.847365e+00
  -1.554753e+01
  -3.376237e+01
  -4.799367e+01
  -6.102571e+01
  -7.259083e+01
  -8.069404e+01
  -8.458129e+01
  -8.567752e+01
  -8.568227e+01
  -8.434911e+01
  -7.971097e+01
  -7.052583e+01
  -5.794122e+01
  -4.438698e+01
  -3.121690e+01
  -1.788083e+01
  -3.320691e+00
   1.203251e+01
   2.586612e+01
   3.608306e+01
   4.346590e+01
   5.140414e+01
   6.204002e+01
   7.312824e+01
   7.976026e+01
   7.885579e+01
   7.102965e+01
   5.895259e+01
   4.560995e+01
   3.384076e+01
   2.592674e+01
   2.308098e+01
   2.544581e+01
   3.211428e+01
   4.095413e+01
   4.930068e+01
   5.588624e+01
   6.220503e+01
   7.119064e+01
   8.397148e+01
   9.832745e+01
   1.107788e+02
   1.196339e+02
   1.254933e+02
   1.296332e+02
   1.329651e+02
   1.361579e+02
   1.395763e+02
   1.428103e+02
   1.447220e+02
   1.439549e+02
   1.390559e+02
   1.283934e+02
   1.108718e+02
   8.726817e+01
   6.054893e+01
   3.433699e+01
   1.103175e+01
  -8.497404e+00
  -2.399833e+01
  -3.564573e+01
  -4.497453e+01
  -5.499799e+01
  -6.821572e+01
  -8.431874e+01
  -1.003549e+02
  -1.131720e+02
  -1.213103e+02
  -1.247639e+02
  -1.238101e+02
  -1.186966e+02
  -1.105253e+02
  -1.023398e+02
  -9.914044e+01
  -1.060567e+02
  -1.248743e+02
  -1.508554e+02
  -1.733581e+02
  -1.816043e+02
  -1.711319e+02
  -1.448055e+02
  -1.085888e+02
  -6.791095e+01
  -2.755894e+01
   7.735439e+00
   3.455553e+01
   5.229242e+01
   6.274378e+01
   6.847805e+01
   7.146409e+01
   7.247144e+01
   7.160862e+01
   6.986811e+01
   6.983139e+01
   7.395416e+01
   8.203563e+01
   9.096040e+01
   9.691205e+01
   9.728335e+01
   9.079874e+01
   7.731912e+01
   5.864737e+01
   3.910820e+01
   2.393342e+01
   1.577588e+01
   1.232925e+01
   7.931220e+00
  -1.496813e+00
  -1.485190e+01
  -2.777588e+01
  -3.808854e+01
  -4.804110e+01
  -6.078961e+01
  -7.616262e+01
  -9.113515e+01
  -1.036593e+02
  -1.146375e+02
  -1.262054e+02
  -1.394680e+02
  -1.548915e+02
  -1.742285e+02
  -2.001426e+02
  -2.323784e+02
  -2.646499e+02
  -2.877999e+02
  -2.979473e+02
  -2.995819e+02
  -2.977868e+02
  -2.894282e+02
  -2.658555e+02
  -2.232171e+02
  -1.675497e+02
  -1.114598e+02
  -6.740787e+01
  -4.113968e+01
  -2.857045e+01
  -1.956395e+01
  -5.766027e+00
   1.482338e+01
   3.889361e+01
   6.111006e+01
   7.709187e+01
   8.560381e+01
   8.899665e+01
   9.118671e+01
   9.461065e+01
   9.885736e+01
   1.022874e+02
   1.046759e+02
   1.074434e+02
   1.114342e+02
   1.161275e+02
   1.216696e+02
   1.297387e+02
   1.407393e+02
   1.514241e+02
   1.573675e+02
   1.576270e+02
   1.555769e+02
   1.549473e+02
   1.558558e+02
   1.550970e+02
   1.499148e+02
   1.409667e+02
   1.317344e+02
   1.257070e+02
   1.241525e+02
   1.258054e+02
   1.282667e+02
   1.298297e+02
   1.299723e+02
   1.284763e+02
   1.250084e+02
   1.196509e+02
   1.129284e+02
   1.050939e+02
   9.603281e+01
   8.595442e+01
   7.559811e+01
   6.548385e+01
   5.505521e+01
   4.256488e+01
   2.606791e+01
   5.466148e+00
  -1.599571e+01
  -3.345514e+01
  -4.462015e+01
  -5.122862e+01
  -5.568824e+01
  -5.789363e+01
  -5.650742e+01
  -5.204668e+01
  -4.737367e+01
  -4.559894e+01
  -4.808912e+01
  -5.398309e+01
  -6.088070e+01
  -6.602832e+01
  -6.762646e+01
  -6.582172e+01
  -6.257957e+01
  -6.015782e+01
  -5.937602e+01
  -5.926692e+01
  -5.821022e+01
  -5.529157e+01
  -5.087865e+01
  -4.635177e+01
  -4.336400e+01
  -4.294448e+01
  -4.470355e+01
  -4.656646e+01
  -4.553784e+01
  -3.934524e+01
  -2.773063e+01
  -1.227545e+01
   4.775353e+00
   2.141844e+01
   3.621805e+01
   4.847088e+01
   5.811343e+01
   6.520706e+01
   6.971509e+01
   7.213639e+01
   7.406881e+01
   7.752035e+01
   8.351487e+01
   9.150238e+01
   9.990279e+01
   1.069348e+02
   1.111999e+02
   1.120813e+02
   1.098863e+02
   1.055081e+02
   9.975892e+01
   9.291505e+01
   8.479427e+01
   7.508504e+01
   6.348193e+01
   4.978880e+01
   3.452102e+01
   1.949172e+01
   6.874777e+00
  -2.957608e+00
  -1.181053e+01
  -2.101738e+01
  -2.945326e+01
  -3.552770e+01
  -4.018472e+01
  -4.609005e+01
  -5.419125e+01
  -6.277769e+01
  -7.009950e+01
  -7.659559e+01
  -8.390246e+01
  -9.217308e+01
  -9.891728e+01
  -1.007376e+02
  -9.645256e+01
  -8.856559e+01
  -8.148286e+01
  -7.825690e+01
  -7.905367e+01
  -8.227079e+01
  -8.634950e+01
  -9.037069e+01
  -9.373685e+01
  -9.614343e+01
  -9.772991e+01
  -9.853497e+01
  -9.770628e+01
  -9.382271e+01
  -8.622092e+01
  -7.575255e+01
  -6.426452e+01
  -5.358043e+01
  -4.479156e+01
  -3.807002e+01
  -3.302022e+01
  -2.926556e+01
  -2.663154e+01
  -2.484186e+01
  -2.335628e+01
  -2.152079e+01
  -1.865917e+01
  -1.436518e+01
  -9.284280e+00
  -5.294442e+00
  -4.151951e+00
  -6.004176e+00
  -9.670698e+00
  -1.411004e+01
  -1.912627e+01
  -2.492804e+01
  -3.154421e+01
  -3.852558e+01
  -4.474888e+01
  -4.869773e+01
  -4.961066e+01
  -4.841191e+01
  -4.680052e+01
  -4.500687e+01
  -4.083472e+01
  -3.152547e+01
  -1.678941e+01
   2.608228e-01
   1.547734e+01
   2.689360e+01
   3.559306e+01
   4.406124e+01
   5.434230e+01
   6.741332e+01
   8.319757e+01
   1.004813e+02
   1.171820e+02
   1.315541e+02
   1.433946e+02
   1.536396e+02
   1.627306e+02
   1.699888e+02
   1.748060e+02
   1.778562e+02
   1.806628e+02
   1.841765e+02
   1.882570e+02
   1.928120e+02
   1.991967e+02
   2.096503e+02
   2.245280e+02
   2.401876e+02
   2.504612e+02
   2.507860e+02
   2.411255e+02
   2.255563e+02
   2.097020e+02
   1.980128e+02
   1.921535e+02
   1.911063e+02
   1.925981e+02
   1.944693e+02
   1.949069e+02
   1.920959e+02
   1.847475e+02
   1.731203e+02
   1.585000e+02
   1.415562e+02
   1.225048e+02
   1.030805e+02
   8.677999e+01
   7.628501e+01
   7.121531e+01
   6.859132e+01
   6.495547e+01
   5.821659e+01
   4.835554e+01
   3.687186e+01
   2.546257e+01
   1.500865e+01
   5.609118e+00
  -2.739422e+00
  -9.793425e+00
  -1.531552e+01
  -1.939105e+01
  -2.243552e+01
  -2.493448e+01
  -2.704755e+01
  -2.846513e+01
  -2.894732e+01
  -2.906766e+01
  -3.000005e+01
  -3.229922e+01
  -3.525859e+01
  -3.787738e+01
  -4.019573e+01
  -4.317438e+01
  -4.731359e+01
  -5.181871e+01
  -5.534992e+01
  -5.754769e+01
  -5.955144e+01
  -6.272130e+01
  -6.717265e+01
  -7.239831e+01
  -7.910916e+01
  -8.849766e+01
  -9.845030e+01
  -1.028392e+02
  -9.838122e+01
  -9.188038e+01
  -9.618885e+01
  -1.171315e+02
  -1.470720e+02
  -1.723980e+02
  -1.848413e+02
  -1.850381e+02
  -1.788893e+02
  -1.733737e+02
  -1.735139e+02
  -1.793326e+02
  -1.857229e+02
  -1.875733e+02
  -1.847565e+02
  -1.805044e+02
  -1.760314e+02
  -1.696617e+02
  -1.613110e+02
  -1.544832e+02
  -1.520913e+02
  -1.526383e+02
  -1.524791e+02
  -1.499541e+02
  -1.453562e+02
  -1.386161e+02
  -1.293392e+02
  -1.183419e+02
  -1.075071e+02
  -9.827775e+01
  -9.072633e+01
  -8.350571e+01
  -7.460973e+01
  -6.305820e+01
  -5.001268e+01
  -3.766092e+01
  -2.729011e+01
  -1.907203e+01
  -1.284103e+01
  -7.682928e+00
  -1.422389e+00
   7.504665e+00
   1.753110e+01
   2.517578e+01
   2.945172e+01
   3.337961e+01
   4.006485e+01
   4.876232e+01
   5.616096e+01
   6.038295e+01
   6.227428e+01
   6.359414e+01
   6.548849e+01
   6.850131e+01
   7.276338e+01
   7.786149e+01
   8.316603e+01
   8.851790e+01
   9.423353e+01
   1.001356e+02
   1.045958e+02
   1.049094e+02
   9.916410e+01
   8.794018e+01
   7.398041e+01
   6.006100e+01
   4.726974e+01
   3.545741e+01
   2.511919e+01
   1.811782e+01
   1.610285e+01
   1.868225e+01
   2.372268e+01
   2.903387e+01
   3.309930e+01
   3.471264e+01
   3.315996e+01
   2.899310e+01
   2.392267e+01
   1.988830e+01
   1.867648e+01
   2.180177e+01
   2.943054e+01
   3.949697e+01
   4.920176e+01
   5.762150e+01
   6.568890e+01
   7.340698e+01
   7.858422e+01
   7.918803e+01
   7.603703e+01
   7.232750e+01
   7.086775e+01
   7.230908e+01
   7.588066e+01
   8.110190e+01
   8.829735e+01
   9.772939e+01
   1.085946e+02
   1.187429e+02
   1.254917e+02
   1.273007e+02
   1.247732e+02
   1.197328e+02
   1.136641e+02
   1.076656e+02
   1.034586e+02
   1.032121e+02
   1.080294e+02
   1.171870e+02
   1.290223e+02
   1.421155e+02
   1.553850e+02
   1.673571e+02
   1.759339e+02
   1.792109e+02
   1.762610e+02
   1.667878e+02
   1.505084e+02
   1.279239e+02
   1.019227e+02
   7.763987e+01
   5.978413e+01
   4.997356e+01
   4.665957e+01
   4.703632e+01
   4.850588e+01
   4.876515e+01
   4.551630e+01
   3.680937e+01
   2.209930e+01
   3.265576e+00
  -1.573284e+01
  -3.102525e+01
  -4.112336e+01
  -4.723968e+01
  -5.175332e+01
  -5.660158e+01
  -6.273574e+01
  -7.053967e+01
  -8.040753e+01
  -9.255507e+01
  -1.062102e+02
  -1.197479e+02
  -1.324718e+02
  -1.458621e+02
  -1.616073e+02
  -1.779904e+02
  -1.904450e+02
  -1.986371e+02
  -2.122569e+02
  -2.448838e+02
  -2.993181e+02
  -3.622127e+02
  -4.158138e+02
  -4.506478e+02
  -4.631542e+02
  -4.481820e+02
  -4.039299e+02
  -3.426814e+02
  -2.872124e+02
  -2.531944e+02
  -2.384131e+02
  -2.302353e+02
  -2.201507e+02
  -2.085517e+02
  -1.980544e+02
  -1.880155e+02
  -1.778443e+02
  -1.711762e+02
  -1.714516e+02
  -1.743849e+02
  -1.697211e+02
  -1.517150e+02
  -1.251476e+02
  -1.002566e+02
  -8.409235e+01
  -7.733990e+01
  -7.640469e+01
  -7.603121e+01
  -7.134963e+01
  -6.033788e+01
  -4.490701e+01
  -2.859846e+01
  -1.336170e+01
   7.321716e-01
   1.364154e+01
   2.504546e+01
   3.554558e+01
   4.614339e+01
   5.601354e+01
   6.201171e+01
   6.102242e+01
   5.298945e+01
   4.222309e+01
   3.524140e+01
   3.577021e+01
   4.160611e+01
   4.714509e+01
   4.865225e+01
   4.649683e+01
   4.328495e+01
   4.129410e+01
   4.160128e+01
   4.437801e+01
   4.920839e+01
   5.524397e+01
   6.140166e+01
   6.667708e+01
   7.060894e+01
   7.364444e+01
   7.686090e+01
   8.110660e+01
   8.648268e+01
   9.263714e+01
   9.916113e+01
   1.054828e+02
   1.107832e+02
   1.144541e+02
   1.164644e+02
   1.169392e+02
   1.156358e+02
   1.123541e+02
   1.076798e+02
   1.026710e+02
   9.786197e+01
   9.312400e+01
   8.830257e+01
   8.338492e+01
   7.835617e+01
   7.343730e+01
   6.879933e+01
   6.333084e+01
   5.476867e+01
   4.247911e+01
   2.929708e+01
   1.869707e+01
   1.051001e+01
   1.711723e+00
  -8.347912e+00
  -1.612272e+01
  -1.866494e+01
  -1.837489e+01
  -2.087906e+01
  -2.872407e+01
  -3.896128e+01
  -4.711145e+01
  -5.183657e+01
  -5.474545e+01
  -5.687313e+01
  -5.714693e+01
  -5.433734e+01
  -4.915958e+01
  -4.373092e+01
  -3.947220e+01
  -3.618058e+01
  -3.307546e+01
  -3.027530e+01
  -2.899368e+01
  -3.033923e+01
  -3.411920e+01
  -3.898800e+01
  -4.362153e+01
  -4.735342e+01
  -4.971859e+01
  -5.018742e+01
  -4.904700e+01
  -4.815396e+01
  -4.980975e+01
  -5.460750e+01
  -6.094991e+01
  -6.685474e+01
  -7.163897e+01
  -7.562624e+01
  -7.888925e+01
  -8.085469e+01
  -8.097336e+01
  -7.938119e+01
  -7.670502e+01
  -7.319640e+01
  -6.825208e+01
  -6.105009e+01
  -5.157652e+01
  -4.075069e+01
  -2.966234e+01
  -1.907781e+01
  -9.620921e+00
  -1.798688e+00
   4.671442e+00
   1.139793e+01
   2.050795e+01
   3.283992e+01
   4.706663e+01
   6.087386e+01
   7.296886e+01
   8.392901e+01
   9.542574e+01
   1.088757e+02
   1.245912e+02
   1.417817e+02
   1.592032e+02
   1.759248e+02
   1.916106e+02
   2.061065e+02
   2.187369e+02
   2.280579e+02
   2.324642e+02
   2.311422e+02
   2.244072e+02
   2.131421e+02
   1.980288e+02
   1.793807e+02
   1.577656e+02
   1.348163e+02
   1.131805e+02
   9.522095e+01
   8.159342e+01
   7.115908e+01
   6.214678e+01
   5.325278e+01
   4.392532e+01
   3.415881e+01
   2.424980e+01
   1.450347e+01
   4.915338e+00
  -4.788011e+00
  -1.474052e+01
  -2.477150e+01
  -3.466748e+01
  -4.438268e+01
  -5.408203e+01
  -6.421061e+01
  -7.524321e+01
  -8.690532e+01
  -9.782437e+01
  -1.065369e+02
  -1.129966e+02
  -1.188112e+02
  -1.258511e+02
  -1.347068e+02
  -1.444491e+02
  -1.536245e+02
  -1.614084e+02
  -1.681923e+02
  -1.755183e+02
  -1.852219e+02
  -1.977442e+02
  -2.108684e+02
  -2.209933e+02
  -2.266447e+02
  -2.302964e+02
  -2.356806e+02
  -2.434114e+02
  -2.499922e+02
  -2.508718e+02
  -2.437301e+02
  -2.291665e+02
  -2.093878e+02
  -1.866852e+02
  -1.627321e+02
  -1.386748e+02
  -1.152498e+02
  -9.277584e+01
  -7.174134e+01
  -5.351522e+01
  -3.972903e+01
  -3.083923e+01
  -2.590921e+01
  -2.388018e+01
  -2.458442e+01
  -2.832243e+01
  -3.472445e+01
  -4.244751e+01
  -5.006306e+01
  -5.682847e+01
  -6.239187e+01
  -6.624139e+01
  -6.794142e+01
  -6.775052e+01
  -6.663712e+01
  -6.566811e+01
  -6.549361e+01
  -6.629949e+01
  -6.805035e+01
  -7.072747e+01
  -7.423509e+01
  -7.786338e+01
  -7.992374e+01
  -7.835967e+01
  -7.213983e+01
  -6.229348e+01
  -5.157973e+01
  -4.283409e+01
  -3.733631e+01
  -3.463956e+01
  -3.363759e+01
  -3.344411e+01
  -3.349128e+01
  -3.332237e+01
  -3.244132e+01
  -3.034659e+01
  -2.688335e+01
  -2.256374e+01
  -1.824517e+01
  -1.439751e+01
  -1.085127e+01
  -7.205946e+00
  -3.220593e+00
   1.184284e+00
   6.041509e+00
   1.134584e+01
   1.701276e+01
   2.284347e+01
   2.855153e+01
   3.393608e+01
   3.909396e+01
   4.438750e+01
   5.010200e+01
   5.614858e+01
   6.222368e+01
   6.832223e+01
   7.499221e+01
   8.295300e+01
   9.248830e+01
   1.033149e+02
   1.149835e+02
   1.272223e+02
   1.398981e+02
   1.528610e+02
   1.658532e+02
   1.783164e+02
   1.892054e+02
   1.972523e+02
   2.016986e+02
   2.029335e+02
   2.025007e+02
   2.023933e+02
   2.040716e+02
   2.078993e+02
   2.133196e+02
   2.193933e+02
   2.251085e+02
   2.293266e+02
   2.306944e+02
   2.278230e+02
   2.199387e+02
   2.081585e+02
   1.963402e+02
   1.890055e+02
   1.866419e+02
   1.845395e+02
   1.787997e+02
   1.716455e+02
   1.673397e+02
   1.647662e+02
   1.584913e+02
