Corrected acceleration    (Format v01.20 with 13 text lines)
Record of Point MacKenzie Earthquake of Fri Nov 30, 2018 17:29 UTC
Hypocenter: 61.34000 -149.93660 H= 40km Mw=7.0
Origin: 2018/11/30 17:29:28    UTC
Statn No: 02-008038 Code:NP-8038   USGS  AK:Anchorage;FS 01 (Central)
Coords: 61.2184 -149.8827  Site geology:
Recorder: (see cmnt)      ( 3 Chns of   3 at Sta) Sensor: (see comment)    
Rcrd start time: 2018/11/30 17:29:04.577 UTC (Q=5) RcrdId: (see comment)
Sta Chan   3: 90 Deg (Rcrdr Chan  ?) Location:Ground
Raw record length = 210.000 sec, Uncor max =    579056, at  47.255 sec.
Processed:2018-12-03 22:00:08 GMT, UNKN, Max =  287.472 cm/sec2 at   45.200 sec
Record filtered below  0.10 Hz (periods over 10.00 secs), and above 40.0 Hz
Values used when parameter or data value is unknown/unspecified:   -999, -999.00
 100 Integer-header values follow on  10 lines, Format= (10I8)
       2       1       4     120       1    -999    -999    8038    -999    -999
       2       2    -999       8    -999       1    -999    -999       4    -999
    -999       1       3    -999    -999    -999    -999    -999    -999    1000
       3     364       3    -999       0       0    -999    -999    -999    2018
     334      11      30      17      29       5       5    -999    -999       3
    -999      20    -999      90    -999    -999    -999    -999    -999    -999
       5       5    -999       1    -999    -999    -999    -999    -999    -999
    -999    -999    -999    -999       1       0    -999    -999    -999    -999
    -999    -999    -999    -999    -999    -999    -999    -999    -999    -999
    -999    -999    -999    -999    -999    -999    -999    -999    -999    -999
 100 Real-header values follow on  20 lines, Format= (5F15.6)
      61.218380    -149.882720      32.000000    -999.000000    -999.000000
    -999.000000    -999.000000    -999.000000    -999.000000      61.340000
    -149.936600      40.900000       7.000000    -999.000000    -999.000000
    -999.000000      13.826585     167.981778    -999.000000    -999.000000
    -999.000000       2.384188       0.000000      30.000000     180.000000
      80.000000    -999.000000    -999.000000    -999.000000       4.576680
    -999.000000       0.000000    -999.000000       0.005000     210.000000
     -19.206097    -999.000000    -999.000000    -999.000000     223.976073
       0.697089       4.991600      19.966400       4.000000      80.000000
    -999.000000       1.000000    -999.000000    -999.000000    -999.000000
    -999.000000    -999.000000    -999.000000       0.100000    -999.000000
    -999.000000      40.000000    -999.000000    -999.000000    -999.000000
    -999.000000       5.000000     210.000000     287.471715      45.200000
       0.000074    -999.000000      -0.000029      -0.000097    -999.000000
    -999.000000    -999.000000    -999.000000    -999.000000    -999.000000
    -999.000000    -999.000000    -999.000000    -999.000000      26.655000
      18.525000       0.919539      11.491698    -999.000000       1.407848
    -999.000000    -999.000000     980.665000    -999.000000    -999.000000
    -999.000000    -999.000000    -999.000000    -999.000000    -999.000000
    -999.000000    -999.000000    -999.000000    -999.000000    -999.000000
  11 Comment line(s) follow, each starting with a "|":
| Recorder: Basalt-4x 
| Sensor: Episensor (4 g max 5.0 v/g)
| RcrdId: US.1000hyfh.NP.8038.HNE.--
|<SCNL>8038.HNE.NP.--    <AUTH> 2018/11/03 21:54:50.000
|<PROCESS> AUTO
|<EONSET> event onset(sec)=  35.2550
|<ABLC>SF:   0.0000, EF:  35.2550, SA:   0.0000, EA: 210.0000, ORDER:  MEAN
|<ABLC>SF:   0.0000, EF: 210.0000, SA:   0.0000, EA: 210.0000, ORDER:ORDER1
|<ABLABC1>SF:   0.0000, EF:  35.2550, SA:   0.0000, EA:  35.2550, ORDER:ORDER1
|<ABLABC2>SF:  35.2550, EF: 167.2550, SA:  35.2550, EA: 167.2550, ORDER:ORDER2
|<ABLABC3>SF: 167.2550, EF: 210.0000, SA: 167.2550, EA: 210.0000, ORDER:ORDER1
   42000 acceleration pts, approx  210 secs, units=cm/sec2(04),Format=(1E15.6)
[...]
   5.155502e+01
   4.108899e+01
   2.734418e+01
   1.244516e+01
  -9.386061e-01
  -1.095023e+01
  -1.741809e+01
  -2.134424e+01
  -2.362161e+01
  -2.429527e+01
  -2.272458e+01
  -1.800499e+01
  -9.390640e+00
   2.952865e+00
   1.722619e+01
   3.042667e+01
   4.003851e+01
   4.544367e+01
   4.772255e+01
   4.826187e+01
   4.751191e+01
   4.473998e+01
   3.886791e+01
   2.983360e+01
   1.928797e+01
   9.714269e+00
   2.597215e+00
  -2.589137e+00
  -7.591546e+00
  -1.362381e+01
  -2.035500e+01
  -2.644643e+01
  -3.073244e+01
  -3.261677e+01
  -3.167153e+01
  -2.763472e+01
  -2.101259e+01
  -1.310564e+01
  -5.086662e+00
   2.636230e+00
   9.991875e+00
   1.661119e+01
   2.189093e+01
   2.535974e+01
   2.665633e+01
   2.541534e+01
   2.169924e+01
   1.663460e+01
   1.224500e+01
   1.032774e+01
   1.141026e+01
   1.470657e+01
   1.889088e+01
   2.285297e+01
   2.587499e+01
   2.727791e+01
   2.599953e+01
   2.061057e+01
   9.882177e+00
  -6.499516e+00
  -2.752392e+01
  -5.086679e+01
  -7.339158e+01
  -9.226913e+01
  -1.061900e+02
  -1.154548e+02
  -1.206661e+02
  -1.216202e+02
  -1.179358e+02
  -1.105513e+02
  -1.018493e+02
  -9.391261e+01
  -8.688900e+01
  -7.934792e+01
  -7.022330e+01
  -6.030454e+01
  -5.181410e+01
  -4.648483e+01
  -4.395375e+01
  -4.205160e+01
  -3.880141e+01
  -3.418498e+01
  -2.985283e+01
  -2.704774e+01
  -2.492164e+01
  -2.102268e+01
  -1.340742e+01
  -2.136301e+00
   1.130211e+01
   2.577107e+01
   4.141923e+01
   5.892793e+01
   7.820171e+01
   9.791062e+01
   1.158415e+02
   1.292183e+02
   1.351078e+02
   1.316972e+02
   1.199130e+02
   1.034509e+02
   8.652384e+01
   7.133667e+01
   5.773271e+01
   4.484917e+01
   3.248045e+01
   2.090880e+01
   1.027533e+01
   7.511810e-01
  -6.929422e+00
  -1.172115e+01
  -1.332278e+01
  -1.292769e+01
  -1.283306e+01
  -1.521969e+01
  -2.115237e+01
  -3.046188e+01
  -4.219379e+01
  -5.502945e+01
  -6.767694e+01
  -7.932406e+01
  -8.953139e+01
  -9.718460e+01
  -9.972247e+01
  -9.420768e+01
  -7.961276e+01
  -5.784012e+01
  -3.230324e+01
  -5.695860e+00
   2.076269e+01
   4.633129e+01
   6.964272e+01
   8.876221e+01
   1.018378e+02
   1.070289e+02
   1.018406e+02
   8.356325e+01
   5.159000e+01
   9.701083e+00
  -3.443054e+01
  -7.275624e+01
  -1.005741e+02
  -1.174829e+02
  -1.253921e+02
  -1.261192e+02
  -1.209252e+02
  -1.116984e+02
  -1.015952e+02
  -9.387291e+01
  -8.982005e+01
  -8.757350e+01
  -8.296783e+01
  -7.230452e+01
  -5.537443e+01
  -3.615303e+01
  -2.013440e+01
  -1.063374e+01
  -7.608898e+00
  -9.628073e+00
  -1.611725e+01
  -2.733562e+01
  -4.274965e+01
  -6.021436e+01
  -7.689003e+01
  -9.063460e+01
  -1.004626e+02
  -1.060863e+02
  -1.073416e+02
  -1.039229e+02
  -9.543476e+01
  -8.170543e+01
  -6.319026e+01
  -4.120053e+01
  -1.780218e+01
   4.664406e+00
   2.432506e+01
   4.033751e+01
   5.283312e+01
   6.235665e+01
   6.944124e+01
   7.464144e+01
   7.858754e+01
   8.166781e+01
   8.384633e+01
   8.523534e+01
   8.675604e+01
   8.961006e+01
   9.391138e+01
   9.845665e+01
   1.022117e+02
   1.053490e+02
   1.080838e+02
   1.089177e+02
   1.050602e+02
   9.482892e+01
   7.908089e+01
   6.013398e+01
   3.997970e+01
   2.006845e+01
   2.264378e+00
  -1.101253e+01
  -1.785800e+01
  -1.767032e+01
  -1.071944e+01
   2.644901e+00
   2.194914e+01
   4.582445e+01
   7.163769e+01
   9.617417e+01
   1.168016e+02
   1.321165e+02
   1.418162e+02
   1.463419e+02
   1.466946e+02
   1.442024e+02
   1.400652e+02
   1.351314e+02
   1.302314e+02
   1.264480e+02
   1.245879e+02
   1.242487e+02
   1.235689e+02
   1.200123e+02
   1.114958e+02
   9.712443e+01
   7.752498e+01
   5.504550e+01
   3.354519e+01
   1.725816e+01
   9.075822e+00
   9.459298e+00
   1.668676e+01
   2.790868e+01
   4.013318e+01
   5.087806e+01
   5.863170e+01
   6.304299e+01
   6.462455e+01
   6.415799e+01
   6.230775e+01
   5.954034e+01
   5.597757e+01
   5.120287e+01
   4.453872e+01
   3.573731e+01
   2.524871e+01
   1.378502e+01
   1.963276e+00
  -9.487020e+00
  -1.960385e+01
  -2.771744e+01
  -3.395629e+01
  -3.886651e+01
  -4.255791e+01
  -4.458919e+01
  -4.485215e+01
  -4.427402e+01
  -4.422889e+01
  -4.516488e+01
  -4.600248e+01
  -4.494204e+01
  -4.073044e+01
  -3.321372e+01
  -2.310647e+01
  -1.168015e+01
  -6.842918e-01
   7.857910e+00
   1.224499e+01
   1.176678e+01
   6.980481e+00
  -5.608728e-01
  -9.011424e+00
  -1.699712e+01
  -2.388034e+01
  -2.937779e+01
  -3.312095e+01
  -3.469187e+01
  -3.389381e+01
  -3.079429e+01
  -2.563216e+01
  -1.895384e+01
  -1.191829e+01
  -6.322960e+00
  -4.122963e+00
  -6.712325e+00
  -1.442294e+01
  -2.649773e+01
  -4.151547e+01
  -5.802785e+01
  -7.501589e+01
  -9.184300e+01
  -1.077769e+02
  -1.215730e+02
  -1.316504e+02
  -1.369639e+02
  -1.380275e+02
  -1.371511e+02
  -1.373365e+02
  -1.403923e+02
  -1.456968e+02
  -1.506061e+02
  -1.520521e+02
  -1.480192e+02
  -1.381687e+02
  -1.238192e+02
  -1.075625e+02
  -9.246830e+01
  -8.102616e+01
  -7.440641e+01
  -7.248104e+01
  -7.443688e+01
  -7.943737e+01
  -8.688936e+01
  -9.622421e+01
  -1.065065e+02
  -1.163979e+02
  -1.247077e+02
  -1.310600e+02
  -1.358672e+02
  -1.394166e+02
  -1.408996e+02
  -1.384435e+02
  -1.303194e+02
  -1.164421e+02
  -9.905652e+01
  -8.209647e+01
  -6.949040e+01
  -6.331978e+01
  -6.296667e+01
  -6.580917e+01
  -6.888202e+01
  -7.032343e+01
  -6.991848e+01
  -6.880859e+01
  -6.865478e+01
  -7.052864e+01
  -7.407695e+01
  -7.765929e+01
  -7.946124e+01
  -7.849432e+01
  -7.445774e+01
  -6.693675e+01
  -5.532078e+01
  -3.967789e+01
  -2.124668e+01
  -1.631650e+00
   1.829440e+01
   3.826055e+01
   5.751384e+01
   7.444467e+01
   8.745986e+01
   9.588007e+01
   9.980493e+01
   9.931270e+01
   9.398690e+01
   8.328476e+01
   6.751742e+01
   4.862277e+01
   2.983816e+01
   1.424359e+01
   3.306673e+00
  -3.355497e+00
  -6.885625e+00
  -7.705660e+00
  -4.825579e+00
   3.397441e+00
   1.752608e+01
   3.589358e+01
   5.530788e+01
   7.304306e+01
   8.809040e+01
   1.004406e+02
   1.094522e+02
   1.134227e+02
   1.110089e+02
   1.028902e+02
   9.178942e+01
   8.096563e+01
   7.290018e+01
   6.908854e+01
   7.019922e+01
   7.586454e+01
   8.445734e+01
   9.334417e+01
   9.953809e+01
   1.005863e+02
   9.545317e+01
   8.478818e+01
   7.032641e+01
   5.412189e+01
   3.826644e+01
   2.475526e+01
   1.500459e+01
   9.388819e+00
   7.411724e+00
   8.369864e+00
   1.184430e+01
   1.765907e+01
   2.552192e+01
   3.486894e+01
   4.518787e+01
   5.637103e+01
   6.840150e+01
   8.062139e+01
   9.169427e+01
   1.005422e+02
   1.071086e+02
   1.120165e+02
   1.156600e+02
   1.177592e+02
   1.175042e+02
   1.137575e+02
   1.052132e+02
   9.090047e+01
   7.096286e+01
   4.695286e+01
   2.120072e+01
  -4.117963e+00
  -2.729852e+01
  -4.687245e+01
  -6.168239e+01
  -7.144170e+01
  -7.687256e+01
  -7.894209e+01
  -7.811272e+01
  -7.459807e+01
  -6.914209e+01
  -6.312876e+01
  -5.796969e+01
  -5.476777e+01
  -5.447526e+01
  -5.763600e+01
  -6.347016e+01
  -6.947346e+01
  -7.246553e+01
  -7.040258e+01
  -6.340870e+01
  -5.325725e+01
  -4.201734e+01
  -3.125459e+01
  -2.229244e+01
  -1.665040e+01
  -1.567935e+01
  -1.965732e+01
  -2.739501e+01
  -3.679870e+01
  -4.586669e+01
  -5.334836e+01
  -5.869185e+01
  -6.150238e+01
  -6.122809e+01
  -5.760366e+01
  -5.129486e+01
  -4.351534e+01
  -3.458827e+01
  -2.322597e+01
  -7.882427e+00
   1.096075e+01
   3.003543e+01
   4.503347e+01
   5.341108e+01
   5.593386e+01
   5.588820e+01
   5.684071e+01
   6.073234e+01
   6.746216e+01
   7.584315e+01
   8.492341e+01
   9.457167e+01
   1.048882e+02
   1.150733e+02
   1.230523e+02
   1.265501e+02
   1.247134e+02
   1.185707e+02
   1.098400e+02
   9.951139e+01
   8.772736e+01
   7.467853e+01
   6.110003e+01
   4.781635e+01
   3.508444e+01
   2.255843e+01
   9.850129e+00
  -2.985912e+00
  -1.555800e+01
  -2.758266e+01
  -3.899820e+01
  -4.969422e+01
  -5.958617e+01
  -6.930520e+01
  -8.054927e+01
  -9.509971e+01
  -1.130450e+02
  -1.318932e+02
  -1.474948e+02
  -1.560974e+02
  -1.562201e+02
  -1.494280e+02
  -1.396179e+02
  -1.310474e+02
  -1.262231e+02
  -1.251365e+02
  -1.263300e+02
  -1.286806e+02
  -1.323159e+02
  -1.381414e+02
  -1.466982e+02
  -1.573198e+02
  -1.680151e+02
  -1.760151e+02
  -1.787336e+02
  -1.746745e+02
  -1.637174e+02
  -1.467858e+02
  -1.255238e+02
  -1.022054e+02
  -7.930287e+01
  -5.841793e+01
  -3.938645e+01
  -2.066499e+01
  -9.719101e-01
   1.926858e+01
   3.816720e+01
   5.408257e+01
   6.691816e+01
   7.751285e+01
   8.583494e+01
   9.017234e+01
   8.848885e+01
   8.078448e+01
   7.026571e+01
   6.215196e+01
   6.074017e+01
   6.675171e+01
   7.717079e+01
   8.795232e+01
   9.718320e+01
   1.057066e+02
   1.150381e+02
   1.252681e+02
   1.350690e+02
   1.431430e+02
   1.490807e+02
   1.526913e+02
   1.526636e+02
   1.461398e+02
   1.300071e+02
   1.031887e+02
   6.823238e+01
   3.079791e+01
  -2.902307e+00
  -2.904685e+01
  -4.749173e+01
  -6.075895e+01
  -7.192016e+01
  -8.301271e+01
  -9.458542e+01
  -1.059342e+02
  -1.155217e+02
  -1.214534e+02
  -1.220202e+02
  -1.163418e+02
  -1.050492e+02
  -9.038516e+01
  -7.496171e+01
  -5.976636e+01
  -4.341801e+01
  -2.369823e+01
   2.299305e-01
   2.728740e+01
   5.573002e+01
   8.400832e+01
   1.099911e+02
   1.301613e+02
   1.409484e+02
   1.415027e+02
   1.348478e+02
   1.259819e+02
   1.190050e+02
   1.159379e+02
   1.172271e+02
   1.222536e+02
   1.293829e+02
   1.363495e+02
   1.410051e+02
   1.415811e+02
   1.364808e+02
   1.246057e+02
   1.063320e+02
   8.389309e+01
   6.050030e+01
   3.911099e+01
   2.182211e+01
   9.695503e+00
   2.578442e+00
  -7.699189e-01
  -1.922377e+00
  -1.942526e+00
  -1.238596e+00
  -1.247115e-01
   5.529517e-01
  -6.662398e-01
  -5.204850e+00
  -1.347773e+01
  -2.451395e+01
  -3.668208e+01
  -4.875895e+01
  -6.001166e+01
  -6.923540e+01
  -7.422623e+01
  -7.260092e+01
  -6.304773e+01
  -4.586040e+01
  -2.286126e+01
   2.887185e+00
   2.782583e+01
   4.913247e+01
   6.569130e+01
   7.806816e+01
   8.755463e+01
   9.500728e+01
   1.002375e+02
   1.022106e+02
   9.985512e+01
   9.311442e+01
   8.366377e+01
   7.455257e+01
   6.862390e+01
   6.678254e+01
   6.767743e+01
   6.926640e+01
   7.089316e+01
   7.380965e+01
   7.956040e+01
   8.798209e+01
   9.701674e+01
   1.043079e+02
   1.084432e+02
   1.086294e+02
   1.040180e+02
   9.402441e+01
   7.901753e+01
   6.022070e+01
   3.906218e+01
   1.680921e+01
  -5.503681e+00
  -2.727760e+01
  -4.862098e+01
  -7.027889e+01
  -9.306985e+01
  -1.171324e+02
  -1.414765e+02
  -1.641545e+02
  -1.830455e+02
  -1.969254e+02
  -2.061267e+02
  -2.121520e+02
  -2.164667e+02
  -2.195434e+02
  -2.209542e+02
  -2.202417e+02
  -2.176432e+02
  -2.139751e+02
  -2.097098e+02
  -2.040098e+02
  -1.947554e+02
  -1.799266e+02
  -1.593178e+02
  -1.349711e+02
  -1.099292e+02
  -8.660361e+01
  -6.617269e+01
  -4.902877e+01
  -3.528913e+01
  -2.482119e+01
  -1.715482e+01
  -1.171971e+01
  -8.150181e+00
  -6.146088e+00
  -5.024735e+00
  -3.703379e+00
  -1.367955e+00
   2.036671e+00
   6.392657e+00
   1.245382e+01
   2.184619e+01
   3.589606e+01
   5.473494e+01
   7.744746e+01
   1.025549e+02
   1.283432e+02
   1.534300e+02
   1.775146e+02
   2.014025e+02
   2.258724e+02
   2.501805e+02
   2.713947e+02
   2.851398e+02
   2.874717e+02
   2.769610e+02
   2.557939e+02
   2.290415e+02
   2.023317e+02
   1.793605e+02
   1.609038e+02
   1.458180e+02
   1.328920e+02
   1.218719e+02
   1.131250e+02
   1.069012e+02
   1.030860e+02
   1.011455e+02
   9.985483e+01
   9.745016e+01
   9.271382e+01
   8.593458e+01
   7.830719e+01
   7.021502e+01
   6.049343e+01
   4.776494e+01
   3.240191e+01
   1.682634e+01
   3.751861e+00
  -5.701163e+00
  -1.202993e+01
  -1.574943e+01
  -1.629410e+01
  -1.280743e+01
  -5.754771e+00
   2.744499e+00
   1.031483e+01
   1.572820e+01
   1.865442e+01
   1.827052e+01
   1.268115e+01
   1.476417e-02
  -1.995167e+01
  -4.521593e+01
  -7.234106e+01
  -9.776744e+01
  -1.187984e+02
  -1.340324e+02
  -1.433742e+02
  -1.477201e+02
  -1.482294e+02
  -1.450942e+02
  -1.364443e+02
  -1.189477e+02
  -9.076830e+01
  -5.461836e+01
  -1.744674e+01
   1.357211e+01
   3.509940e+01
   4.826945e+01
   5.620984e+01
   6.141328e+01
   6.500623e+01
   6.738395e+01
   6.859690e+01
   6.805380e+01
   6.452101e+01
   5.701199e+01
   4.570901e+01
   3.189072e+01
   1.718396e+01
   3.082880e+00
  -9.176593e+00
  -1.870859e+01
  -2.468202e+01
  -2.555942e+01
  -1.919026e+01
  -4.643761e+00
   1.593210e+01
   3.787055e+01
   5.666806e+01
   7.017344e+01
   7.878343e+01
   8.441158e+01
   8.933405e+01
   9.512895e+01
   1.019225e+02
   1.086182e+02
   1.140500e+02
   1.177357e+02
   1.193115e+02
   1.175949e+02
   1.108766e+02
   9.845458e+01
   8.170832e+01
   6.341756e+01
   4.598252e+01
   3.027823e+01
   1.595990e+01
   2.510732e+00
  -1.007369e+01
  -2.133404e+01
  -3.073680e+01
  -3.785621e+01
  -4.214381e+01
  -4.257810e+01
  -3.770546e+01
  -2.627927e+01
  -8.184796e+00
   1.490173e+01
   3.954642e+01
   6.141414e+01
   7.670898e+01
   8.358471e+01
   8.276064e+01
   7.690577e+01
   6.911052e+01
   6.144685e+01
   5.456905e+01
   4.842264e+01
   4.315523e+01
   3.924713e+01
   3.685787e+01
   3.533921e+01
   3.362932e+01
   3.113310e+01
   2.812895e+01
   2.531510e+01
   2.301066e+01
   2.079953e+01
   1.788787e+01
   1.368232e+01
   7.901787e+00
   2.221834e-01
  -9.821823e+00
  -2.226853e+01
  -3.607148e+01
  -4.916792e+01
  -5.924187e+01
  -6.443951e+01
  -6.363382e+01
  -5.654874e+01
  -4.398488e+01
  -2.776977e+01
  -1.014340e+01
   6.920980e+00
   2.189965e+01
   3.367803e+01
   4.173718e+01
   4.622691e+01
   4.747685e+01
   4.551518e+01
   4.043970e+01
   3.316809e+01
   2.523630e+01
   1.757237e+01
   9.779871e+00
   8.956804e-01
  -9.357626e+00
  -2.029220e+01
  -3.098766e+01
  -4.098843e+01
  -5.038847e+01
  -5.955665e+01
  -6.883228e+01
  -7.828430e+01
  -8.766216e+01
  -9.667615e+01
  -1.054132e+02
  -1.144300e+02
  -1.243352e+02
  -1.352048e+02
  -1.463002e+02
  -1.561881e+02
  -1.630608e+02
  -1.651310e+02
  -1.610935e+02
  -1.505046e+02
  -1.338790e+02
  -1.125926e+02
  -8.885789e+01
  -6.567728e+01
  -4.630772e+01
  -3.312426e+01
  -2.654302e+01
  -2.490405e+01
  -2.554311e+01
  -2.628238e+01
  -2.622012e+01
  -2.540814e+01
  -2.401807e+01
  -2.186460e+01
  -1.858955e+01
  -1.412181e+01
  -8.812823e+00
  -3.053842e+00
   3.186310e+00
   1.032783e+01
   1.865609e+01
   2.791522e+01
   3.744025e+01
   4.650483e+01
   5.434955e+01
   5.997644e+01
   6.220731e+01
   6.007195e+01
   5.311942e+01
   4.146264e+01
   2.573871e+01
   7.061230e+00
  -1.318976e+01
  -3.373558e+01
  -5.361698e+01
  -7.203263e+01
  -8.802740e+01
  -1.005394e+02
  -1.089424e+02
  -1.135070e+02
  -1.150580e+02
  -1.139431e+02
  -1.093885e+02
  -1.000850e+02
  -8.548920e+01
  -6.654530e+01
  -4.530037e+01
  -2.401552e+01
  -4.450090e+00
   1.257416e+01
   2.719967e+01
   3.965957e+01
   4.868423e+01
   5.080561e+01
   4.205392e+01
   2.110605e+01
  -8.985758e+00
  -4.213339e+01
  -7.234262e+01
  -9.612437e+01
  -1.129177e+02
  -1.239720e+02
  -1.307893e+02
  -1.339862e+02
  -1.330121e+02
  -1.268278e+02
  -1.151975e+02
  -9.968619e+01
  -8.344072e+01
  -6.979366e+01
  -6.076564e+01
  -5.649192e+01
  -5.571367e+01
  -5.679580e+01
  -5.861820e+01
  -6.091357e+01
  -6.401023e+01
  -6.827253e+01
  -7.362835e+01
  -7.947207e+01
  -8.499680e+01
  -8.967414e+01
  -9.342294e+01
  -9.629020e+01
  -9.800486e+01
  -9.794368e+01
  -9.560606e+01
  -9.112704e+01
  -8.532232e+01
  -7.924129e+01
  -7.362270e+01
  -6.863366e+01
  -6.398318e+01
  -5.924122e+01
  -5.410352e+01
  -4.844033e+01
  -4.220359e+01
  -3.544100e+01
  -2.850429e+01
  -2.214337e+01
  -1.714546e+01
  -1.376362e+01
  -1.161564e+01
  -1.023387e+01
  -9.592779e+00
  -9.946557e+00
  -1.114861e+01
  -1.214434e+01
  -1.103792e+01
  -5.651680e+00
   5.704323e+00
   2.361368e+01
   4.735383e+01
   7.493868e+01
   1.031244e+02
   1.278802e+02
   1.460897e+02
   1.576972e+02
   1.659820e+02
   1.747149e+02
   1.839284e+02
   1.881055e+02
   1.793740e+02
   1.536400e+02
   1.139358e+02
   6.794399e+01
