Corrected acceleration    (Format v01.20 with 13 text lines)
Record of Point MacKenzie Earthquake of Fri Nov 30, 2018 17:29 UTC
Hypocenter: 61.34000 -149.93660 H= 40km Mw=7.0
Origin: 2018/11/30 17:29:28    UTC
Statn No: 02-008021 Code:NP-8021   USGS  AK:Anchorage;Klatt Elem Sch
Coords: 61.1129 -149.9095  Site geology:
Recorder: (see cmnt)      ( 3 Chns of   3 at Sta) Sensor: (see comment)    
Rcrd start time: 2018/11/30 17:29:05.306 UTC (Q=5) RcrdId: (see comment)
Sta Chan   2:360 Deg (Rcrdr Chan  ?) Location:Ground
Raw record length = 205.695 sec, Uncor max =    259058, at  46.915 sec.
Processed:2018-12-03 21:59:47 GMT, UNKN, Max = -111.293 cm/sec2 at   46.915 sec
Record filtered below  0.10 Hz (periods over 10.00 secs), and above 40.0 Hz
Values used when parameter or data value is unknown/unspecified:   -999, -999.00
 100 Integer-header values follow on  10 lines, Format= (10I8)
       2       1       4     120       1    -999    -999    8021    -999    -999
       2       2    -999       8    -999       1    -999    -999       4    -999
    -999       1       3    -999    -999    -999    -999    -999    -999    1000
       3     293       3    -999       0       0    -999    -999    -999    2018
     334      11      30      17      29       5       5    -999    -999       2
    -999      20    -999     360    -999    -999    -999    -999    -999    -999
       5       5    -999       1    -999    -999    -999    -999    -999    -999
    -999    -999    -999    -999       1       0    -999    -999    -999    -999
    -999    -999    -999    -999    -999    -999    -999    -999    -999    -999
    -999    -999    -999    -999    -999    -999    -999    -999    -999    -999
 100 Real-header values follow on  20 lines, Format= (5F15.6)
      61.112900    -149.909500      21.000000    -999.000000    -999.000000
    -999.000000    -999.000000    -999.000000    -999.000000      61.340000
    -149.936600      40.900000       7.000000    -999.000000    -999.000000
    -999.000000      25.293988     176.712583    -999.000000    -999.000000
    -999.000000       2.384188       0.000000      30.000000     175.693952
      80.000000    -999.000000    -999.000000    -999.000000       5.306050
    -999.000000       0.000000    -999.000000       0.005000     205.695000
     -10.012351    -999.000000    -999.000000    -999.000000     223.976073
       0.697089       4.991600      19.966400       4.000000      80.000000
    -999.000000       1.000000    -999.000000    -999.000000    -999.000000
    -999.000000    -999.000000    -999.000000       0.100000    -999.000000
    -999.000000      40.000000    -999.000000    -999.000000    -999.000000
    -999.000000       5.000000     205.693952    -111.293221      46.915000
      -0.000100    -999.000000      -0.000022       0.000091    -999.000000
    -999.000000    -999.000000    -999.000000    -999.000000    -999.000000
    -999.000000    -999.000000    -999.000000    -999.000000      12.045000
      22.280000       0.381559       4.370814    -999.000000       0.291335
    -999.000000    -999.000000     980.665000    -999.000000    -999.000000
    -999.000000    -999.000000    -999.000000    -999.000000    -999.000000
    -999.000000    -999.000000    -999.000000    -999.000000    -999.000000
   8 Comment line(s) follow, each starting with a "|":
| Recorder: Basalt-4x 
| Sensor: Episensor (4 g max 5.0 v/g)
| RcrdId: US.1000hyfh.NP.8021.HNN.--
|<SCNL>8021.HNN.NP.--    <AUTH> 2018/11/03 21:54:49.000
|<PROCESS> AUTO
|<EONSET> event onset(sec)=  35.2400
|<ABLC>SF:   0.0000, EF:  35.2400, SA:   0.0000, EA: 205.6950, ORDER:  MEAN
|<ABLC>SF:   0.0000, EF: 205.6950, SA:   0.0000, EA: 205.6950, ORDER:ORDER1
   41139 acceleration pts, approx  205 secs, units=cm/sec2(04),Format=(1E15.6)
[...]
   5.713269e+01
   6.382104e+01
   6.778700e+01
   6.711253e+01
   6.082823e+01
   5.009565e+01
   3.765804e+01
   2.596725e+01
   1.600914e+01
   7.793041e+00
   1.304141e+00
  -3.424496e+00
  -6.709010e+00
  -8.917825e+00
  -9.599218e+00
  -7.312358e+00
  -6.579388e-01
   1.053619e+01
   2.500815e+01
   4.067253e+01
   5.518460e+01
   6.625943e+01
   7.221325e+01
   7.272895e+01
   6.910557e+01
   6.354537e+01
   5.801164e+01
   5.351681e+01
   5.010465e+01
   4.720290e+01
   4.404367e+01
   4.010761e+01
   3.549003e+01
   3.084938e+01
   2.679568e+01
   2.323014e+01
   1.936016e+01
   1.440107e+01
   8.233745e+00
   1.494363e+00
  -4.730693e+00
  -9.264635e+00
  -1.122750e+01
  -1.049103e+01
  -7.968125e+00
  -5.410166e+00
  -4.689844e+00
  -6.919871e+00
  -1.187272e+01
  -1.801717e+01
  -2.316603e+01
  -2.536955e+01
  -2.360810e+01
  -1.815201e+01
  -1.068636e+01
  -4.049770e+00
  -1.236169e+00
  -3.882189e+00
  -1.133171e+01
  -2.117618e+01
  -3.075604e+01
  -3.822284e+01
  -4.260998e+01
  -4.358788e+01
  -4.141238e+01
  -3.669146e+01
  -2.976555e+01
  -2.045097e+01
  -8.788562e+00
   3.932197e+00
   1.523982e+01
   2.284690e+01
   2.609372e+01
   2.625929e+01
   2.565911e+01
   2.633052e+01
   2.913223e+01
   3.358687e+01
   3.832411e+01
   4.177388e+01
   4.276189e+01
   4.082457e+01
   3.628858e+01
   3.020115e+01
   2.406443e+01
   1.934684e+01
   1.692430e+01
   1.667752e+01
   1.745919e+01
   1.756298e+01
   1.545630e+01
   1.020929e+01
   1.444166e+00
  -1.068446e+01
  -2.515370e+01
  -3.992061e+01
  -5.259363e+01
  -6.161642e+01
  -6.698772e+01
  -6.994273e+01
  -7.182285e+01
  -7.286857e+01
  -7.181496e+01
  -6.672417e+01
  -5.643284e+01
  -4.137805e+01
  -2.327777e+01
  -4.283404e+00
   1.362596e+01
   2.890297e+01
   4.053913e+01
   4.796980e+01
   5.077918e+01
   4.866332e+01
   4.198872e+01
   3.234996e+01
   2.216319e+01
   1.343594e+01
   6.977529e+00
   2.715528e+00
   3.547782e-01
  -5.002213e-01
  -5.348453e-01
  -5.833564e-01
  -1.216210e+00
  -2.553307e+00
  -4.393520e+00
  -6.368041e+00
  -7.981582e+00
  -8.621605e+00
  -7.593525e+00
  -4.286337e+00
   1.363891e+00
   8.326421e+00
   1.447558e+01
   1.735830e+01
   1.522637e+01
   7.853489e+00
  -3.049835e+00
  -1.417792e+01
  -2.193115e+01
  -2.397390e+01
  -1.995722e+01
  -1.118781e+01
   5.555676e-02
   1.108452e+01
   1.947042e+01
   2.390853e+01
   2.464765e+01
   2.297348e+01
   2.023457e+01
   1.724452e+01
   1.416334e+01
   1.055425e+01
   5.743595e+00
  -4.252079e-01
  -7.168369e+00
  -1.332753e+01
  -1.822854e+01
  -2.160473e+01
  -2.272062e+01
  -2.012085e+01
  -1.270752e+01
  -1.099465e+00
   1.222061e+01
   2.413487e+01
   3.230429e+01
   3.572459e+01
   3.450599e+01
   2.950075e+01
   2.198581e+01
   1.327562e+01
   4.420730e+00
  -3.706000e+00
  -1.010664e+01
  -1.371541e+01
  -1.400945e+01
  -1.160470e+01
  -8.159257e+00
  -5.643299e+00
  -5.626798e+00
  -8.926723e+00
  -1.532060e+01
  -2.311189e+01
  -2.907273e+01
  -2.947916e+01
  -2.192717e+01
  -6.523654e+00
   1.450201e+01
   3.811534e+01
   6.136951e+01
   8.146264e+01
   9.570584e+01
   1.021378e+02
   1.005196e+02
   9.266779e+01
   8.157868e+01
   7.012526e+01
   6.049312e+01
   5.437535e+01
   5.295443e+01
   5.632383e+01
   6.314488e+01
   7.115899e+01
   7.807872e+01
   8.210925e+01
   8.201584e+01
   7.701936e+01
   6.667567e+01
   5.089120e+01
   3.021592e+01
   6.203315e+00
  -1.863939e+01
  -4.152615e+01
  -6.035174e+01
  -7.422377e+01
  -8.307599e+01
  -8.675905e+01
  -8.468470e+01
  -7.647018e+01
  -6.270098e+01
  -4.482819e+01
  -2.453928e+01
  -3.603638e+00
   1.582644e+01
   3.142386e+01
   4.161077e+01
   4.615660e+01
   4.574658e+01
   4.124656e+01
   3.365164e+01
   2.446667e+01
   1.553561e+01
   8.210638e+00
   2.867624e+00
  -5.419537e-01
  -1.585393e+00
   6.698171e-01
   6.588471e+00
   1.491902e+01
   2.289789e+01
   2.750594e+01
   2.679669e+01
   2.021508e+01
   7.985326e+00
  -9.252015e+00
  -2.983961e+01
  -5.050866e+01
  -6.732421e+01
  -7.792869e+01
  -8.286807e+01
  -8.451116e+01
  -8.477965e+01
  -8.401374e+01
  -8.157215e+01
  -7.690194e+01
  -7.006142e+01
  -6.181621e+01
  -5.348203e+01
  -4.620701e+01
  -3.992017e+01
  -3.314927e+01
  -2.439345e+01
  -1.383100e+01
  -3.401971e+00
   4.958810e+00
   1.107440e+01
   1.658924e+01
   2.363088e+01
   3.348548e+01
   4.602398e+01
   5.967218e+01
   7.181347e+01
   7.985233e+01
   8.258563e+01
   8.071813e+01
   7.589715e+01
   6.927306e+01
   6.113192e+01
   5.169106e+01
   4.169373e+01
   3.199971e+01
   2.295345e+01
   1.454999e+01
   7.157492e+00
   1.764329e+00
  -6.308336e-01
   1.276747e-01
   2.991712e+00
   5.977918e+00
   6.768430e+00
   3.410313e+00
  -4.986566e+00
  -1.779328e+01
  -3.304840e+01
  -4.841263e+01
  -6.231113e+01
  -7.431112e+01
  -8.444419e+01
  -9.227891e+01
  -9.672010e+01
  -9.658735e+01
  -9.128842e+01
  -8.117019e+01
  -6.766043e+01
  -5.317549e+01
  -4.041609e+01
  -3.112969e+01
  -2.531827e+01
  -2.171126e+01
  -1.895289e+01
  -1.620391e+01
  -1.279119e+01
  -7.733756e+00
   1.591934e-01
   1.180850e+01
   2.747494e+01
   4.658085e+01
   6.758842e+01
   8.781678e+01
   1.034701e+02
   1.105668e+02
   1.068955e+02
   9.363407e+01
   7.497575e+01
   5.603637e+01
   4.100233e+01
   3.254013e+01
   3.163111e+01
   3.710886e+01
   4.560105e+01
   5.268158e+01
   5.467694e+01
   4.985014e+01
   3.847878e+01
   2.239236e+01
   4.566329e+00
  -1.136117e+01
  -2.211744e+01
  -2.617306e+01
  -2.437938e+01
  -1.903095e+01
  -1.206230e+01
  -4.153600e+00
   4.467781e+00
   1.275581e+01
   1.882243e+01
   2.122748e+01
   2.002058e+01
   1.638543e+01
   1.147115e+01
   5.777386e+00
  -5.123107e-01
  -7.077322e+00
  -1.359957e+01
  -2.018475e+01
  -2.737663e+01
  -3.566332e+01
  -4.494781e+01
  -5.446065e+01
  -6.319269e+01
  -7.041779e+01
  -7.581963e+01
  -7.933570e+01
  -8.117018e+01
  -8.191552e+01
  -8.229806e+01
  -8.254043e+01
  -8.195048e+01
  -7.912001e+01
  -7.244730e+01
  -6.060080e+01
  -4.298063e+01
  -2.030050e+01
   5.086397e+00
   2.973217e+01
   5.052752e+01
   6.610217e+01
   7.708537e+01
   8.511324e+01
   9.159753e+01
   9.719106e+01
   1.019102e+02
   1.054284e+02
   1.073518e+02
   1.074269e+02
   1.055676e+02
   1.018361e+02
   9.659254e+01
   9.054042e+01
   8.421081e+01
   7.720058e+01
   6.812955e+01
   5.565387e+01
   3.963727e+01
   2.136859e+01
   2.791472e+00
  -1.436380e+01
  -2.894130e+01
  -4.039504e+01
  -4.881456e+01
  -5.483747e+01
  -5.927067e+01
  -6.264792e+01
  -6.509067e+01
  -6.642838e+01
  -6.627891e+01
  -6.410849e+01
  -5.951165e+01
  -5.259368e+01
  -4.403026e+01
  -3.468410e+01
  -2.511674e+01
  -1.534970e+01
  -4.979159e+00
   6.384695e+00
   1.852687e+01
   3.029253e+01
   3.981351e+01
   4.510193e+01
   4.456855e+01
   3.731520e+01
   2.337445e+01
   4.011414e+00
  -1.810890e+01
  -3.929606e+01
  -5.593715e+01
  -6.586460e+01
  -6.906281e+01
  -6.716670e+01
  -6.222198e+01
  -5.580632e+01
  -4.906843e+01
  -4.305069e+01
  -3.836147e+01
  -3.444077e+01
  -2.969484e+01
  -2.290666e+01
  -1.457008e+01
  -6.683370e+00
  -1.275041e+00
   8.471300e-01
   2.668490e-01
  -1.595698e+00
  -3.162164e+00
  -3.301617e+00
  -1.712644e+00
   1.191166e+00
   4.757534e+00
   8.325384e+00
   1.097275e+01
   1.136031e+01
   8.248358e+00
   1.347625e+00
  -8.378374e+00
  -1.927531e+01
  -2.989977e+01
  -3.955947e+01
  -4.813152e+01
  -5.530739e+01
  -5.999637e+01
  -6.067475e+01
  -5.654860e+01
  -4.849352e+01
  -3.900189e+01
  -3.124224e+01
  -2.768468e+01
  -2.877899e+01
  -3.247119e+01
  -3.525798e+01
  -3.430059e+01
  -2.893284e+01
  -2.038087e+01
  -1.033088e+01
  -3.907765e-03
   9.515354e+00
   1.654713e+01
   1.889919e+01
   1.491495e+01
   4.594375e+00
  -1.009901e+01
  -2.591079e+01
  -3.948281e+01
  -4.845711e+01
  -5.212616e+01
  -5.144082e+01
  -4.828139e+01
  -4.430641e+01
  -4.025752e+01
  -3.632812e+01
  -3.297061e+01
  -3.092681e+01
  -3.039451e+01
  -3.058559e+01
  -3.044807e+01
  -2.966779e+01
  -2.868963e+01
  -2.791294e+01
  -2.727242e+01
  -2.664699e+01
  -2.630509e+01
  -2.675774e+01
  -2.840378e+01
  -3.148707e+01
  -3.616645e+01
  -4.226223e+01
  -4.878778e+01
  -5.382591e+01
  -5.509831e+01
  -5.099046e+01
  -4.142111e+01
  -2.801988e+01
  -1.347376e+01
  -4.040079e-01
   9.590355e+00
   1.627691e+01
   2.050367e+01
   2.354572e+01
   2.644487e+01
   2.969496e+01
   3.338698e+01
   3.744989e+01
   4.143792e+01
   4.396121e+01
   4.269327e+01
   3.555092e+01
   2.227960e+01
   5.102111e+00
  -1.202882e+01
  -2.500933e+01
  -3.119759e+01
  -3.039734e+01
  -2.469424e+01
  -1.710084e+01
  -9.798491e+00
  -3.207295e+00
   3.507187e+00
   1.109201e+01
   1.924675e+01
   2.676636e+01
   3.244881e+01
   3.580043e+01
   3.697232e+01
   3.627668e+01
   3.392803e+01
   3.013844e+01
   2.526694e+01
   1.982933e+01
   1.435263e+01
   9.089732e+00
   3.817555e+00
  -1.854127e+00
  -7.681713e+00
  -1.230859e+01
  -1.385217e+01
  -1.116066e+01
  -4.521296e+00
   4.780302e+00
   1.533139e+01
   2.584999e+01
   3.483803e+01
   4.057326e+01
   4.188236e+01
   3.890342e+01
   3.282300e+01
   2.474947e+01
   1.494584e+01
   3.206706e+00
  -1.020913e+01
  -2.425111e+01
  -3.763549e+01
  -4.947519e+01
  -5.929819e+01
  -6.676456e+01
  -7.167283e+01
  -7.412433e+01
  -7.436904e+01
  -7.250902e+01
  -6.866496e+01
  -6.350469e+01
  -5.826638e+01
  -5.397046e+01
  -5.076057e+01
  -4.834252e+01
  -4.701324e+01
  -4.778842e+01
  -5.117713e+01
  -5.593417e+01
  -5.926824e+01
  -5.836457e+01
  -5.180890e+01
  -3.992589e+01
  -2.428297e+01
  -7.112072e+00
   9.104139e+00
   2.214463e+01
   3.068302e+01
   3.455629e+01
   3.434024e+01
   3.065542e+01
   2.393081e+01
   1.473674e+01
   4.126658e+00
  -6.445517e+00
  -1.553653e+01
  -2.218327e+01
  -2.622454e+01
  -2.823022e+01
  -2.898239e+01
  -2.897263e+01
  -2.842394e+01
  -2.763370e+01
  -2.702154e+01
  -2.683077e+01
  -2.702569e+01
  -2.755665e+01
  -2.849523e+01
  -2.973981e+01
  -3.072666e+01
  -3.065237e+01
  -2.902614e+01
  -2.593658e+01
  -2.176601e+01
  -1.672018e+01
  -1.073548e+01
  -3.864648e+00
   3.353489e+00
   9.994155e+00
   1.515759e+01
   1.829055e+01
   1.937993e+01
   1.909482e+01
   1.861198e+01
   1.893115e+01
   2.017794e+01
   2.164771e+01
   2.254605e+01
   2.254028e+01
   2.155882e+01
   1.927577e+01
   1.503089e+01
   8.344158e+00
  -4.641501e-01
  -1.015692e+01
  -1.912210e+01
  -2.605251e+01
  -3.010771e+01
  -3.061173e+01
  -2.697254e+01
  -1.911968e+01
  -7.924759e+00
   4.952839e+00
   1.760722e+01
   2.832988e+01
   3.594248e+01
   4.015895e+01
   4.162581e+01
   4.135707e+01
   4.016297e+01
   3.877963e+01
   3.825922e+01
   3.963890e+01
   4.301966e+01
   4.729148e+01
   5.109178e+01
   5.400088e+01
   5.659559e+01
   5.932990e+01
   6.159253e+01
   6.201734e+01
   5.963177e+01
   5.458695e+01
   4.786948e+01
   4.051106e+01
   3.307077e+01
   2.562078e+01
   1.806276e+01
   1.062013e+01
   4.289927e+00
   8.125637e-01
   1.919755e+00
   8.334615e+00
   1.932599e+01
   3.303272e+01
   4.706644e+01
   5.896679e+01
   6.661047e+01
   6.880208e+01
   6.579839e+01
   5.913956e+01
   5.068531e+01
   4.173809e+01
   3.304869e+01
   2.524306e+01
   1.872477e+01
   1.315034e+01
   7.384826e+00
   2.423977e-01
  -8.662805e+00
  -1.876969e+01
  -2.925763e+01
  -3.987593e+01
  -5.104514e+01
  -6.314814e+01
  -7.585218e+01
  -8.816231e+01
  -9.891727e+01
  -1.070191e+02
  -1.112932e+02
  -1.104773e+02
  -1.036449e+02
  -9.074760e+01
  -7.269852e+01
  -5.090834e+01
  -2.690436e+01
  -2.532146e+00
   1.978498e+01
   3.762131e+01
   4.976090e+01
   5.679009e+01
   6.036355e+01
   6.187264e+01
   6.174720e+01
   5.978002e+01
   5.585028e+01
   5.027508e+01
   4.363397e+01
   3.650085e+01
   2.945739e+01
   2.320301e+01
   1.834594e+01
   1.495380e+01
   1.242256e+01
   9.929886e+00
   7.069566e+00
   4.055674e+00
   1.320459e+00
  -1.032541e+00
  -3.303128e+00
  -5.787143e+00
  -8.484886e+00
  -1.123848e+01
  -1.392565e+01
  -1.636909e+01
  -1.819251e+01
  -1.892542e+01
  -1.822923e+01
  -1.602091e+01
  -1.254252e+01
  -8.435366e+00
  -4.652632e+00
  -2.147776e+00
  -1.639694e+00
  -3.680058e+00
  -8.707537e+00
  -1.670933e+01
  -2.681168e+01
  -3.744973e+01
  -4.702768e+01
  -5.432765e+01
  -5.846966e+01
  -5.899660e+01
  -5.627049e+01
  -5.149088e+01
  -4.587072e+01
  -3.966821e+01
  -3.217841e+01
  -2.275555e+01
  -1.177953e+01
  -5.896187e-01
   9.486184e+00
   1.799420e+01
   2.523070e+01
   3.131825e+01
   3.561654e+01
   3.721659e+01
   3.591195e+01
   3.250702e+01
   2.830210e+01
   2.456844e+01
   2.241751e+01
   2.260109e+01
   2.501054e+01
   2.846863e+01
   3.125953e+01
   3.191552e+01
   2.956685e+01
   2.386617e+01
   1.495049e+01
   3.603778e+00
  -8.620166e+00
  -1.956277e+01
  -2.695059e+01
  -2.905421e+01
  -2.520766e+01
  -1.588996e+01
  -2.390571e+00
   1.357146e+01
   3.003140e+01
   4.499093e+01
   5.691988e+01
   6.523610e+01
   7.019345e+01
   7.226470e+01
   7.177646e+01
   6.916596e+01
   6.533231e+01
   6.145124e+01
   5.835744e+01
   5.609716e+01
   5.399459e+01
   5.109415e+01
   4.669604e+01
   4.073941e+01
   3.376379e+01
   2.638960e+01
   1.877327e+01
   1.060146e+01
   1.573222e+00
  -8.217703e+00
  -1.836288e+01
  -2.847083e+01
  -3.834544e+01
  -4.787051e+01
  -5.677481e+01
  -6.450964e+01
  -7.030055e+01
  -7.327123e+01
  -7.256871e+01
  -6.758851e+01
  -5.837076e+01
  -4.585715e+01
  -3.153763e+01
  -1.664685e+01
  -1.750767e+00
   1.284442e+01
   2.643894e+01
   3.782179e+01
   4.573525e+01
   4.940191e+01
   4.878918e+01
   4.468092e+01
   3.857054e+01
   3.219799e+01
   2.684874e+01
   2.295382e+01
   2.028613e+01
   1.842807e+01
   1.708293e+01
   1.612280e+01
   1.537993e+01
   1.427652e+01
   1.174406e+01
   6.848753e+00
  -2.867709e-01
  -8.246405e+00
  -1.510092e+01
  -1.948882e+01
  -2.111431e+01
  -2.042228e+01
  -1.789025e+01
  -1.366187e+01
  -7.875891e+00
  -1.241286e+00
   4.893992e+00
   9.119509e+00
   1.062854e+01
   9.499254e+00
   6.623552e+00
   3.435678e+00
   1.432428e+00
   1.634302e+00
   4.355440e+00
   9.339762e+00
   1.589336e+01
   2.286075e+01
   2.880448e+01
   3.262105e+01
   3.415635e+01
   3.418709e+01
   3.375034e+01
   3.341853e+01
   3.301793e+01
   3.178358e+01
   2.874308e+01
   2.324353e+01
   1.546269e+01
   6.532780e+00
  -1.858822e+00
  -8.018958e+00
  -1.060471e+01
  -8.917544e+00
  -3.285720e+00
   4.797645e+00
   1.318538e+01
   2.000376e+01
   2.425236e+01
   2.569560e+01
   2.447864e+01
   2.107747e+01
   1.652716e+01
   1.238612e+01
   1.025346e+01
   1.121616e+01
   1.561211e+01
   2.312518e+01
   3.296541e+01
   4.391419e+01
   5.429991e+01
   6.223178e+01
   6.623881e+01
   6.592273e+01
   6.206065e+01
   5.612303e+01
   4.969116e+01
   4.408886e+01
   4.015096e+01
   3.810584e+01
   3.769631e+01
   3.842866e+01
   3.968274e+01
   4.073488e+01
   4.096372e+01
   4.018280e+01
   3.872706e+01
   3.716305e+01
   3.591934e+01
   3.513447e+01
   3.468507e+01
   3.422979e+01
   3.330111e+01
   3.154675e+01
   2.898056e+01
   2.599114e+01
   2.311406e+01
   2.078149e+01
   1.914996e+01
   1.798663e+01
   1.668853e+01
   1.454826e+01
   1.118348e+01
   6.869875e+00
   2.546088e+00
  -5.879216e-01
  -1.697963e+00
  -7.373829e-01
   1.619701e+00
   4.322618e+00
   6.197886e+00
   6.125744e+00
   3.377608e+00
  -1.966295e+00
  -8.903214e+00
  -1.588672e+01
  -2.149980e+01
  -2.502715e+01
  -2.652315e+01
  -2.626735e+01
  -2.414506e+01
  -1.974744e+01
  -1.318536e+01
  -5.628202e+00
   1.155176e+00
   5.759881e+00
   7.638989e+00
   6.911763e+00
   4.012464e+00
  -4.859342e-01
  -6.034936e+00
  -1.232881e+01
  -1.928052e+01
  -2.665729e+01
  -3.382631e+01
  -4.000385e+01
  -4.471133e+01
  -4.786234e+01
  -4.947600e+01
  -4.951226e+01
  -4.797739e+01
  -4.492231e+01
  -4.021210e+01
  -3.358211e+01
  -2.533016e+01
  -1.698498e+01
  -1.089867e+01
  -8.815383e+00
  -1.076800e+01
  -1.531773e+01
  -2.058442e+01
  -2.489230e+01
  -2.684134e+01
  -2.546119e+01
  -2.062370e+01
  -1.317706e+01
  -4.524930e+00
   3.951856e+00
   1.119172e+01
   1.649581e+01
   1.954575e+01
   2.043384e+01
   1.964966e+01
   1.807104e+01
   1.696205e+01
   1.777768e+01
   2.162474e+01
   2.864484e+01
   3.786552e+01
   4.770243e+01
   5.661150e+01
   6.330194e+01
   6.661456e+01
   6.564652e+01
   6.023531e+01
