Corrected acceleration    (Format v01.20 with 13 text lines)
Record of Point MacKenzie Earthquake of Fri Nov 30, 2018 17:29 UTC
Hypocenter: 61.34000 -149.93660 H= 40km Mw=7.0
Origin: 2018/11/30 17:29:28    UTC
Statn No: 02-008037 Code:NP-8037   USGS  AK:Anchorage;NOAA Weather Fac
Coords: 61.1562 -149.9849  Site geology:
Recorder: (see cmnt)      ( 3 Chns of   3 at Sta) Sensor: (see comment)    
Rcrd start time: 2018/11/30 17:29:04.966 UTC (Q=5) RcrdId: (see comment)
Sta Chan   3: 90 Deg (Rcrdr Chan  ?) Location:Ground
Raw record length = 210.000 sec, Uncor max =    533958, at  46.885 sec.
Processed:2018-12-03 21:55:01 GMT, UNKN, Max =  272.169 cm/sec2 at   46.885 sec
Record filtered below  0.10 Hz (periods over 10.00 secs), and above 40.0 Hz
Values used when parameter or data value is unknown/unspecified:   -999, -999.00
 100 Integer-header values follow on  10 lines, Format= (10I8)
       2       1       4     120       1    -999    -999    8037    -999    -999
       2       2    -999       8    -999       1    -999    -999       4    -999
    -999       1       3    -999    -999    -999    -999    -999    -999    1000
       3     391       3    -999       0       0    -999    -999    -999    2018
     334      11      30      17      29       5       5    -999    -999       3
    -999      20    -999      90    -999    -999    -999    -999    -999    -999
       5       5    -999       1    -999    -999    -999    -999    -999    -999
    -999    -999    -999    -999       1       0    -999    -999    -999    -999
    -999    -999    -999    -999    -999    -999    -999    -999    -999    -999
    -999    -999    -999    -999    -999    -999    -999    -999    -999    -999
 100 Real-header values follow on  20 lines, Format= (5F15.6)
      61.156240    -149.984950      40.000000    -999.000000    -999.000000
    -999.000000    -999.000000    -999.000000    -999.000000      61.340000
    -149.936600      40.900000       7.000000    -999.000000    -999.000000
    -999.000000      20.596178     187.213146    -999.000000    -999.000000
    -999.000000       2.384188       0.000000      30.000000     180.000000
      80.000000    -999.000000    -999.000000    -999.000000       4.966400
    -999.000000       0.000000    -999.000000       0.005000     210.000000
     -21.734637    -999.000000    -999.000000    -999.000000     223.976073
       0.697089       4.991600      19.966400       4.000000      80.000000
    -999.000000       1.000000    -999.000000    -999.000000    -999.000000
    -999.000000    -999.000000    -999.000000       0.100000    -999.000000
    -999.000000      40.000000    -999.000000    -999.000000    -999.000000
    -999.000000       5.000000     210.000000     272.168661      46.885000
      -0.000133    -999.000000      -0.000026      -0.000076    -999.000000
    -999.000000    -999.000000    -999.000000    -999.000000    -999.000000
    -999.000000    -999.000000    -999.000000    -999.000000      20.325000
      15.860000       1.024606      11.437887    -999.000000       1.496051
    -999.000000    -999.000000     980.665000    -999.000000    -999.000000
    -999.000000    -999.000000    -999.000000    -999.000000    -999.000000
    -999.000000    -999.000000    -999.000000    -999.000000    -999.000000
  11 Comment line(s) follow, each starting with a "|":
| Recorder: Basalt-4x 
| Sensor: Episensor (4 g max 5.0 v/g)
| RcrdId: US.1000hyfh.NP.8037.HNE.--
|<SCNL>8037.HNE.NP.--    <AUTH> 2018/11/03 21:54:50.000
|<PROCESS> AUTO
|<EONSET> event onset(sec)=  35.2950
|<ABLC>SF:   0.0000, EF:  35.2950, SA:   0.0000, EA: 210.0000, ORDER:  MEAN
|<ABLC>SF:   0.0000, EF: 210.0000, SA:   0.0000, EA: 210.0000, ORDER:ORDER1
|<ABLABC1>SF:   0.0000, EF:  35.2950, SA:   0.0000, EA:  35.2950, ORDER:ORDER1
|<ABLABC2>SF:  35.2950, EF: 167.2950, SA:  35.2950, EA: 167.2950, ORDER:ORDER2
|<ABLABC3>SF: 167.2950, EF: 210.0000, SA: 167.2950, EA: 210.0000, ORDER:ORDER2
   42000 acceleration pts, approx  210 secs, units=cm/sec2(04),Format=(1E15.6)
[...]
  -1.360350e+02
  -1.235841e+02
  -1.109222e+02
  -9.857572e+01
  -8.540039e+01
  -6.973630e+01
  -5.107608e+01
  -3.025586e+01
  -8.071690e+00
   1.563722e+01
   4.086608e+01
   6.560714e+01
   8.630327e+01
   1.010940e+02
   1.122640e+02
   1.245221e+02
   1.406964e+02
   1.595483e+02
   1.776663e+02
   1.927747e+02
   2.049236e+02
   2.150932e+02
   2.235150e+02
   2.295673e+02
   2.328336e+02
   2.339032e+02
   2.342969e+02
   2.357761e+02
   2.393798e+02
   2.445681e+02
   2.491443e+02
   2.503417e+02
   2.464226e+02
   2.375101e+02
   2.250988e+02
   2.110001e+02
   1.968089e+02
   1.839457e+02
   1.733835e+02
   1.647799e+02
   1.560934e+02
   1.446410e+02
   1.288169e+02
   1.088131e+02
   8.599048e+01
   6.208799e+01
   3.905695e+01
   1.890793e+01
   2.938614e+00
  -8.928590e+00
  -1.759800e+01
  -2.353433e+01
  -2.658658e+01
  -2.734339e+01
  -2.796130e+01
  -3.069480e+01
  -3.563460e+01
  -4.075393e+01
  -4.444390e+01
  -4.722546e+01
  -5.054216e+01
  -5.468109e+01
  -5.869414e+01
  -6.198625e+01
  -6.524640e+01
  -6.987951e+01
  -7.695635e+01
  -8.663928e+01
  -9.818785e+01
  -1.103061e+02
  -1.215175e+02
  -1.302343e+02
  -1.346727e+02
  -1.333342e+02
  -1.262229e+02
  -1.155634e+02
  -1.044881e+02
  -9.413108e+01
  -8.228694e+01
  -6.624614e+01
  -4.724060e+01
  -3.066713e+01
  -2.123459e+01
  -1.908438e+01
  -2.126780e+01
  -2.552541e+01
  -3.118973e+01
  -3.699652e+01
  -3.972985e+01
  -3.606020e+01
  -2.558454e+01
  -1.143899e+01
   2.265682e+00
   1.330289e+01
   2.175678e+01
   2.846348e+01
   3.368373e+01
   3.704322e+01
   3.805790e+01
   3.634762e+01
   3.148899e+01
   2.306054e+01
   1.122685e+01
  -2.600764e+00
  -1.606636e+01
  -2.738456e+01
  -3.656036e+01
  -4.465722e+01
  -5.187955e+01
  -5.692471e+01
  -5.830262e+01
  -5.577981e+01
  -5.043941e+01
  -4.391911e+01
  -3.795940e+01
  -3.432862e+01
  -3.453515e+01
  -3.920044e+01
  -4.761716e+01
  -5.797933e+01
  -6.815477e+01
  -7.645098e+01
  -8.201703e+01
  -8.490814e+01
  -8.592859e+01
  -8.625756e+01
  -8.690072e+01
  -8.825661e+01
  -9.012286e+01
  -9.199240e+01
  -9.312840e+01
  -9.242910e+01
  -8.877525e+01
  -8.195439e+01
  -7.300387e+01
  -6.322442e+01
  -5.307432e+01
  -4.252198e+01
  -3.228210e+01
  -2.402975e+01
  -1.932481e+01
  -1.890636e+01
  -2.316889e+01
  -3.241932e+01
  -4.572901e+01
  -5.996296e+01
  -7.119854e+01
  -7.738672e+01
  -7.912048e+01
  -7.818310e+01
  -7.627884e+01
  -7.497969e+01
  -7.573187e+01
  -7.914196e+01
  -8.422024e+01
  -8.854577e+01
  -8.944610e+01
  -8.531528e+01
  -7.610156e+01
  -6.293629e+01
  -4.759806e+01
  -3.209108e+01
  -1.818532e+01
  -7.108450e+00
   4.531714e-01
   4.442590e+00
   5.731171e+00
   6.065798e+00
   7.405175e+00
   1.106292e+01
   1.712375e+01
   2.452863e+01
   3.204722e+01
   3.940471e+01
   4.733081e+01
   5.660848e+01
   6.732021e+01
   7.861350e+01
   8.864278e+01
   9.517088e+01
   9.708026e+01
   9.538259e+01
   9.242476e+01
   9.016566e+01
   8.932723e+01
   8.983098e+01
   9.149058e+01
   9.407863e+01
   9.691361e+01
   9.866357e+01
   9.777517e+01
   9.332796e+01
   8.570120e+01
   7.649852e+01
   6.775704e+01
   6.106486e+01
   5.712126e+01
   5.568470e+01
   5.566254e+01
   5.544445e+01
   5.363336e+01
   4.979940e+01
   4.460392e+01
   3.915079e+01
   3.412081e+01
   2.936827e+01
   2.419051e+01
   1.791398e+01
   1.025988e+01
   1.284907e+00
  -8.859878e+00
  -2.005972e+01
  -3.224206e+01
  -4.535371e+01
  -5.926544e+01
  -7.357006e+01
  -8.743936e+01
  -9.969714e+01
  -1.090429e+02
  -1.143384e+02
  -1.150114e+02
  -1.114405e+02
  -1.048176e+02
  -9.632960e+01
  -8.640620e+01
  -7.482657e+01
  -6.144498e+01
  -4.671971e+01
  -3.168811e+01
  -1.755852e+01
  -5.182837e+00
   5.304487e+00
   1.440479e+01
   2.278266e+01
   3.084741e+01
   3.874022e+01
   4.660843e+01
   5.482250e+01
   6.394411e+01
   7.441619e+01
   8.605003e+01
   9.765114e+01
   1.072777e+02
   1.130871e+02
   1.139239e+02
   1.091189e+02
   9.836544e+01
   8.264553e+01
   6.515952e+01
   5.022879e+01
   4.049845e+01
   3.534185e+01
   3.221839e+01
   2.932718e+01
   2.677876e+01
   2.566819e+01
   2.659814e+01
   2.903134e+01
   3.155867e+01
   3.259164e+01
   3.105796e+01
   2.667397e+01
   1.952164e+01
   9.369322e+00
  -4.274559e+00
  -2.103525e+01
  -3.854761e+01
  -5.287695e+01
  -6.069608e+01
  -6.144364e+01
  -5.726344e+01
  -5.066271e+01
  -4.234620e+01
  -3.133141e+01
  -1.671850e+01
   9.682555e-01
   1.985753e+01
   3.771468e+01
   5.297809e+01
   6.530742e+01
   7.542303e+01
   8.437328e+01
   9.272610e+01
   1.002746e+02
   1.065055e+02
   1.113587e+02
   1.153228e+02
   1.185897e+02
   1.205227e+02
   1.208878e+02
   1.218359e+02
   1.272441e+02
   1.383372e+02
   1.503625e+02
   1.558556e+02
   1.519242e+02
   1.427217e+02
   1.341890e+02
   1.280319e+02
   1.216334e+02
   1.121879e+02
   9.926783e+01
   8.385983e+01
   6.657938e+01
   4.760318e+01
   2.777077e+01
   8.916548e+00
  -7.117943e+00
  -1.964260e+01
  -2.931215e+01
  -3.742798e+01
  -4.516777e+01
  -5.323281e+01
  -6.178902e+01
  -7.051478e+01
  -7.884737e+01
  -8.644364e+01
  -9.349415e+01
  -1.005453e+02
  -1.079633e+02
  -1.154832e+02
  -1.221690e+02
  -1.268482e+02
  -1.288175e+02
  -1.283588e+02
  -1.265900e+02
  -1.247147e+02
  -1.233778e+02
  -1.227289e+02
  -1.229295e+02
  -1.243322e+02
  -1.270444e+02
  -1.304480e+02
  -1.334274e+02
  -1.353166e+02
  -1.367018e+02
  -1.391108e+02
  -1.434334e+02
  -1.482621e+02
  -1.501857e+02
  -1.466042e+02
  -1.381772e+02
  -1.274025e+02
  -1.147917e+02
  -9.790250e+01
  -7.456051e+01
  -4.587951e+01
  -1.568584e+01
   1.213117e+01
   3.530175e+01
   5.307949e+01
   6.544522e+01
   7.261814e+01
   7.504790e+01
   7.355890e+01
   6.925879e+01
   6.310304e+01
   5.545304e+01
   4.614718e+01
   3.519966e+01
   2.354394e+01
   1.301589e+01
   5.405110e+00
   1.307373e+00
  -2.568511e-01
  -1.140488e+00
  -2.838080e+00
  -5.642760e+00
  -8.724016e+00
  -1.088521e+01
  -1.134633e+01
  -1.011220e+01
  -7.861796e+00
  -5.567811e+00
  -4.221850e+00
  -4.757023e+00
  -7.716115e+00
  -1.246539e+01
  -1.680491e+01
  -1.795627e+01
  -1.430584e+01
  -6.101149e+00
   5.341951e+00
   1.849767e+01
   3.177265e+01
   4.369722e+01
   5.346949e+01
   6.104947e+01
   6.659885e+01
   7.018336e+01
   7.223939e+01
   7.390443e+01
   7.603901e+01
   7.752890e+01
   7.524920e+01
   6.673721e+01
   5.297628e+01
   3.792471e+01
   2.521525e+01
   1.562103e+01
   7.388019e+00
  -1.796120e+00
  -1.323907e+01
  -2.668025e+01
  -4.039581e+01
  -5.183453e+01
  -5.864419e+01
  -5.952741e+01
  -5.444158e+01
  -4.428547e+01
  -3.051781e+01
  -1.485399e+01
   1.065140e+00
   1.597746e+01
   2.909878e+01
   4.007802e+01
   4.901991e+01
   5.650536e+01
   6.330956e+01
   6.982677e+01
   7.566909e+01
   7.985315e+01
   8.144165e+01
   8.009548e+01
   7.615222e+01
   7.035135e+01
   6.360088e+01
   5.695955e+01
   5.157604e+01
   4.825515e+01
   4.686155e+01
   4.628586e+01
   4.531277e+01
   4.373909e+01
   4.270904e+01
   4.394482e+01
   4.856712e+01
   5.648349e+01
   6.666778e+01
   7.784322e+01
   8.895836e+01
   9.930858e+01
   1.084685e+02
   1.161236e+02
   1.218509e+02
   1.250459e+02
   1.251432e+02
   1.219422e+02
   1.156563e+02
   1.065485e+02
   9.450294e+01
   7.910132e+01
   6.027415e+01
   3.880295e+01
   1.606687e+01
  -6.573272e+00
  -2.802087e+01
  -4.728364e+01
  -6.333553e+01
  -7.520495e+01
  -8.223170e+01
  -8.429617e+01
  -8.174527e+01
  -7.504556e+01
  -6.465179e+01
  -5.134634e+01
  -3.655370e+01
  -2.207908e+01
  -9.519304e+00
   2.281242e-02
   5.839506e+00
   7.560894e+00
   5.333188e+00
  -3.895492e-02
  -7.257535e+00
  -1.486441e+01
  -2.142198e+01
  -2.560976e+01
  -2.662846e+01
  -2.481879e+01
  -2.174496e+01
  -1.934280e+01
  -1.874349e+01
  -1.969204e+01
  -2.083502e+01
  -2.049003e+01
  -1.741305e+01
  -1.129094e+01
  -2.837621e+00
   6.537053e+00
   1.535136e+01
   2.261632e+01
   2.794096e+01
   3.112030e+01
   3.168174e+01
   2.895142e+01
   2.259482e+01
   1.302206e+01
   1.301474e+00
  -1.112952e+01
  -2.258730e+01
  -3.118435e+01
  -3.506091e+01
  -3.281653e+01
  -2.402639e+01
  -9.853190e+00
   6.515588e+00
   2.054861e+01
   2.869282e+01
   3.082091e+01
   3.020430e+01
   3.061529e+01
   3.335072e+01
   3.698162e+01
   3.953010e+01
   4.047040e+01
   4.070901e+01
   4.101616e+01
   4.074064e+01
   3.811489e+01
   3.182265e+01
   2.231200e+01
   1.171864e+01
   2.712705e+00
  -2.560003e+00
  -2.784637e+00
   2.641461e+00
   1.356847e+01
   2.887184e+01
   4.651842e+01
   6.415235e+01
   7.983799e+01
   9.246178e+01
   1.016996e+02
   1.077586e+02
   1.110045e+02
   1.115091e+02
   1.088062e+02
   1.022637e+02
   9.194805e+01
   7.916764e+01
   6.603712e+01
   5.436814e+01
   4.484497e+01
   3.714287e+01
   3.081861e+01
   2.611832e+01
   2.383407e+01
   2.416898e+01
   2.565854e+01
   2.551571e+01
   2.161308e+01
   1.433755e+01
   6.175405e+00
  -6.874089e-01
  -6.120530e+00
  -1.146050e+01
  -1.760975e+01
  -2.382907e+01
  -2.800990e+01
  -2.791137e+01
  -2.248732e+01
  -1.251285e+01
  -4.571975e-02
   1.296022e+01
   2.575777e+01
   3.859748e+01
   5.144952e+01
   6.304283e+01
   7.113809e+01
   7.355277e+01
   6.906018e+01
   5.791336e+01
   4.200932e+01
   2.449383e+01
   8.739156e+00
  -2.854744e+00
  -9.560041e+00
  -1.227772e+01
  -1.306019e+01
  -1.443801e+01
  -1.846581e+01
  -2.571379e+01
  -3.494053e+01
  -4.378557e+01
  -4.989972e+01
  -5.177598e+01
  -4.912635e+01
  -4.292922e+01
  -3.507626e+01
  -2.754756e+01
  -2.144753e+01
  -1.656888e+01
  -1.190416e+01
  -6.705391e+00
  -1.096487e+00
   4.282754e+00
   9.000381e+00
   1.295849e+01
   1.580685e+01
   1.649436e+01
   1.371569e+01
   6.938207e+00
  -3.092131e+00
  -1.489550e+01
  -2.709487e+01
  -3.852986e+01
  -4.785758e+01
  -5.388695e+01
  -5.693615e+01
  -5.944338e+01
  -6.425054e+01
  -7.206697e+01
  -8.114066e+01
  -8.937796e+01
  -9.609857e+01
  -1.016231e+02
  -1.059487e+02
  -1.085001e+02
  -1.090509e+02
  -1.083880e+02
  -1.078110e+02
  -1.080115e+02
  -1.084316e+02
  -1.075065e+02
  -1.034267e+02
  -9.500380e+01
  -8.232112e+01
  -6.672974e+01
  -5.009401e+01
  -3.396285e+01
  -1.932700e+01
  -6.712252e+00
   3.991209e+00
   1.384256e+01
   2.461976e+01
   3.784170e+01
   5.378200e+01
   7.141950e+01
   8.933454e+01
   1.065202e+02
   1.222884e+02
   1.357311e+02
   1.459251e+02
   1.531270e+02
   1.593395e+02
   1.663838e+02
   1.726040e+02
   1.724017e+02
   1.604486e+02
   1.362807e+02
   1.040564e+02
   6.845687e+01
   3.189829e+01
  -4.734752e+00
  -4.010759e+01
  -7.188845e+01
  -9.787661e+01
  -1.172936e+02
  -1.309600e+02
  -1.404417e+02
  -1.471850e+02
  -1.523049e+02
  -1.567157e+02
  -1.610106e+02
  -1.650831e+02
  -1.680314e+02
  -1.686816e+02
  -1.663372e+02
  -1.610542e+02
  -1.534471e+02
  -1.446741e+02
  -1.366654e+02
  -1.317583e+02
  -1.314509e+02
  -1.354014e+02
  -1.417659e+02
  -1.482389e+02
  -1.523394e+02
  -1.509595e+02
  -1.407772e+02
  -1.202740e+02
  -9.160756e+01
  -5.986356e+01
  -2.983518e+01
  -3.417791e+00
   2.018688e+01
   4.272358e+01
   6.582614e+01
   9.081146e+01
   1.183633e+02
   1.480767e+02
   1.784419e+02
   2.072902e+02
   2.323110e+02
   2.515563e+02
   2.640646e+02
   2.703507e+02
   2.721687e+02
   2.713736e+02
   2.685481e+02
   2.624029e+02
   2.504401e+02
   2.303879e+02
   2.013405e+02
   1.639239e+02
   1.198160e+02
   7.142958e+01
   2.193646e+01
  -2.498589e+01
  -6.608020e+01
  -9.957040e+01
  -1.254569e+02
  -1.448499e+02
  -1.590744e+02
  -1.692966e+02
  -1.765700e+02
  -1.817261e+02
  -1.850694e+02
  -1.864535e+02
  -1.859558e+02
  -1.844162e+02
  -1.829515e+02
  -1.816625e+02
  -1.788890e+02
  -1.720119e+02
  -1.592182e+02
  -1.406925e+02
  -1.183180e+02
  -9.425135e+01
  -6.963206e+01
  -4.457510e+01
  -1.922743e+01
   5.611830e+00
   2.911521e+01
   5.125538e+01
   7.253564e+01
   9.299088e+01
   1.118892e+02
   1.285138e+02
   1.428602e+02
   1.552428e+02
   1.653304e+02
   1.718924e+02
   1.735912e+02
   1.698102e+02
   1.605923e+02
   1.461632e+02
   1.270315e+02
   1.043821e+02
   7.958683e+01
   5.301382e+01
   2.402905e+01
  -7.003672e+00
  -3.697981e+01
  -6.138517e+01
  -7.792439e+01
  -8.851914e+01
  -9.759961e+01
  -1.087774e+02
  -1.228894e+02
  -1.382445e+02
  -1.524097e+02
  -1.643385e+02
  -1.750715e+02
  -1.861832e+02
  -1.977111e+02
  -2.079260e+02
  -2.148709e+02
  -2.176928e+02
  -2.166713e+02
  -2.124900e+02
  -2.056473e+02
  -1.964356e+02
  -1.854303e+02
  -1.739269e+02
  -1.636629e+02
  -1.559016e+02
  -1.507778e+02
  -1.476027e+02
  -1.456954e+02
  -1.446616e+02
  -1.438996e+02
  -1.423514e+02
  -1.391452e+02
  -1.342598e+02
  -1.281096e+02
  -1.205230e+02
  -1.105652e+02
  -9.750387e+01
  -8.160838e+01
  -6.373269e+01
  -4.430017e+01
  -2.303099e+01
   3.045195e-01
   2.504551e+01
   4.957603e+01
   7.200762e+01
   9.107613e+01
   1.067951e+02
   1.204997e+02
   1.340042e+02
   1.481768e+02
   1.619707e+02
   1.728125e+02
   1.781421e+02
   1.769528e+02
   1.702193e+02
   1.600358e+02
   1.483741e+02
   1.365631e+02
   1.255820e+02
   1.162404e+02
   1.085627e+02
   1.009132e+02
   9.023820e+01
   7.407491e+01
   5.279225e+01
   2.958291e+01
   8.073498e+00
  -9.790078e+00
  -2.367445e+01
  -3.359407e+01
  -3.933776e+01
  -4.092190e+01
  -3.910095e+01
  -3.522881e+01
  -3.060713e+01
  -2.588393e+01
  -2.098677e+01
  -1.556326e+01
  -9.352950e+00
  -2.143048e+00
   6.261261e+00
   1.563977e+01
   2.499045e+01
   3.279718e+01
   3.763956e+01
   3.844654e+01
   3.440455e+01
   2.514380e+01
   1.134296e+01
  -5.047347e+00
  -2.171646e+01
  -3.749297e+01
  -5.290991e+01
  -6.915865e+01
  -8.655889e+01
  -1.041430e+02
  -1.205286e+02
  -1.348615e+02
  -1.468906e+02
  -1.564782e+02
  -1.633816e+02
  -1.675443e+02
  -1.694304e+02
  -1.699621e+02
  -1.701235e+02
  -1.705539e+02
  -1.713807e+02
  -1.723938e+02
  -1.734142e+02
  -1.744577e+02
  -1.754590e+02
  -1.758467e+02
  -1.744528e+02
  -1.698376e+02
  -1.606932e+02
  -1.460792e+02
  -1.256112e+02
  -9.982759e+01
  -7.056185e+01
  -4.071146e+01
  -1.306200e+01
   1.111101e+01
   3.231417e+01
   5.157690e+01
   6.893788e+01
   8.326982e+01
   9.346363e+01
   9.950632e+01
   1.023406e+02
   1.028491e+02
   1.011180e+02
   9.676936e+01
   9.011721e+01
   8.291761e+01
   7.750710e+01
   7.471599e+01
   7.277742e+01
   6.887884e+01
   6.194258e+01
   5.359279e+01
   4.657321e+01
   4.285670e+01
   4.319391e+01
   4.733728e+01
   5.385048e+01
   6.020025e+01
   6.405610e+01
   6.476872e+01
   6.326538e+01
   6.053946e+01
   5.662363e+01
   5.104275e+01
   4.384065e+01
   3.593998e+01
   2.874570e+01
   2.369041e+01
   2.203167e+01
   2.459157e+01
   3.131508e+01
   4.113741e+01
   5.256724e+01
   6.451247e+01
   7.638637e+01
   8.738586e+01
   9.614777e+01
   1.016360e+02
   1.041225e+02
   1.046408e+02
   1.034493e+02
   9.947625e+01
   9.130275e+01
   7.843533e+01
   6.178865e+01
   4.333387e+01
   2.516697e+01
   8.240832e+00
  -8.436100e+00
  -2.702717e+01
  -4.875173e+01
  -7.255973e+01
  -9.617070e+01
  -1.180881e+02
  -1.380720e+02
  -1.560163e+02
  -1.712996e+02
  -1.834216e+02
  -1.926028e+02
  -1.992373e+02
  -2.028695e+02
  -2.020889e+02
  -1.956389e+02
  -1.835541e+02
  -1.670521e+02
  -1.473731e+02
  -1.249620e+02
  -9.972982e+01
  -7.180044e+01
  -4.208301e+01
  -1.253907e+01
   1.418651e+01
   3.597340e+01
   5.242407e+01
   6.492923e+01
   7.553077e+01
   8.549291e+01
   9.461295e+01
   1.016738e+02
   1.054380e+02
   1.051320e+02
   1.001215e+02
   8.966220e+01
   7.364427e+01
   5.378875e+01
   3.367376e+01
   1.704424e+01
   5.915051e+00
   2.617878e-01
  -7.772286e-01
   2.082986e+00
   7.872183e+00
   1.450600e+01
   1.932951e+01
   2.111630e+01
   2.119354e+01
   2.197940e+01
   2.447606e+01
   2.771757e+01
   3.066057e+01
   3.389027e+01
   3.886886e+01
   4.567667e+01
   5.212964e+01
   5.541236e+01
   5.431507e+01
   4.973230e+01
   4.335630e+01
   3.618152e+01
   2.805707e+01
   1.848606e+01
   8.007583e+00
  -1.342912e+00
  -7.572975e+00
  -1.086999e+01
  -1.353598e+01
  -1.754932e+01
