Corrected acceleration    (Format v01.20 with 13 text lines)
Record of Point MacKenzie Earthquake of Fri Nov 30, 2018 17:29 UTC
Hypocenter: 61.34000 -149.93660 H= 40km Mw=7.0
Origin: 2018/11/30 17:29:28    UTC
Statn No: 02-008038 Code:NP-8038   USGS  AK:Anchorage;FS 01 (Central)
Coords: 61.2184 -149.8827  Site geology:
Recorder: (see cmnt)      ( 3 Chns of   3 at Sta) Sensor: (see comment)    
Rcrd start time: 2018/11/30 17:29:04.577 UTC (Q=5) RcrdId: (see comment)
Sta Chan   2:360 Deg (Rcrdr Chan  ?) Location:Ground
Raw record length = 210.000 sec, Uncor max =    513714, at  44.335 sec.
Processed:2018-12-03 22:00:13 GMT, UNKN, Max = -249.157 cm/sec2 at   44.335 sec
Record filtered below  0.10 Hz (periods over 10.00 secs), and above 40.0 Hz
Values used when parameter or data value is unknown/unspecified:   -999, -999.00
 100 Integer-header values follow on  10 lines, Format= (10I8)
       2       1       4     120       1    -999    -999    8038    -999    -999
       2       2    -999       8    -999       1    -999    -999       4    -999
    -999       1       3    -999    -999    -999    -999    -999    -999    1000
       3     364       3    -999       0       0    -999    -999    -999    2018
     334      11      30      17      29       5       5    -999    -999       2
    -999      20    -999     360    -999    -999    -999    -999    -999    -999
       5       5    -999       1    -999    -999    -999    -999    -999    -999
    -999    -999    -999    -999       1       0    -999    -999    -999    -999
    -999    -999    -999    -999    -999    -999    -999    -999    -999    -999
    -999    -999    -999    -999    -999    -999    -999    -999    -999    -999
 100 Real-header values follow on  20 lines, Format= (5F15.6)
      61.218380    -149.882720      32.000000    -999.000000    -999.000000
    -999.000000    -999.000000    -999.000000    -999.000000      61.340000
    -149.936600      40.900000       7.000000    -999.000000    -999.000000
    -999.000000      13.826585     167.981778    -999.000000    -999.000000
    -999.000000       2.384188       0.000000      30.000000     180.000000
      80.000000    -999.000000    -999.000000    -999.000000       4.576680
    -999.000000       0.000000    -999.000000       0.005000     210.000000
       6.575532    -999.000000    -999.000000    -999.000000     223.976073
       0.697089       4.991600      19.966400       4.000000      80.000000
    -999.000000       1.000000    -999.000000    -999.000000    -999.000000
    -999.000000    -999.000000    -999.000000       0.100000    -999.000000
    -999.000000      40.000000    -999.000000    -999.000000    -999.000000
    -999.000000       5.000000     210.000000    -249.156743      44.335000
      -0.000092    -999.000000       0.000023       0.000116    -999.000000
    -999.000000    -999.000000    -999.000000    -999.000000    -999.000000
    -999.000000    -999.000000    -999.000000    -999.000000      19.255000
      16.335000       1.041673      11.894706    -999.000000       1.593151
    -999.000000    -999.000000     980.665000    -999.000000    -999.000000
    -999.000000    -999.000000    -999.000000    -999.000000    -999.000000
    -999.000000    -999.000000    -999.000000    -999.000000    -999.000000
  11 Comment line(s) follow, each starting with a "|":
| Recorder: Basalt-4x 
| Sensor: Episensor (4 g max 5.0 v/g)
| RcrdId: US.1000hyfh.NP.8038.HNN.--
|<SCNL>8038.HNN.NP.--    <AUTH> 2018/11/03 21:54:50.000
|<PROCESS> AUTO
|<EONSET> event onset(sec)=  34.2600
|<ABLC>SF:   0.0000, EF:  34.2600, SA:   0.0000, EA: 210.0000, ORDER:  MEAN
|<ABLC>SF:   0.0000, EF: 210.0000, SA:   0.0000, EA: 210.0000, ORDER:ORDER1
|<ABLABC1>SF:   0.0000, EF:  34.2600, SA:   0.0000, EA:  34.2600, ORDER:ORDER1
|<ABLABC2>SF:  34.2600, EF: 167.2600, SA:  34.2600, EA: 167.2600, ORDER:ORDER2
|<ABLABC3>SF: 167.2600, EF: 210.0000, SA: 167.2600, EA: 210.0000, ORDER:  MEAN
   42000 acceleration pts, approx  210 secs, units=cm/sec2(04),Format=(1E15.6)
[...]
  -2.769345e+01
  -2.707184e+01
  -2.766272e+01
  -2.894032e+01
  -2.992415e+01
  -2.967455e+01
  -2.755611e+01
  -2.323822e+01
  -1.680891e+01
  -9.079644e+00
  -1.676526e+00
   3.399971e+00
   4.539982e+00
   1.072740e+00
  -6.717633e+00
  -1.784361e+01
  -3.062597e+01
  -4.247360e+01
  -5.011136e+01
  -5.076914e+01
  -4.376694e+01
  -3.110596e+01
  -1.631159e+01
  -2.463220e+00
   8.873612e+00
   1.723053e+01
   2.228169e+01
   2.339495e+01
   1.984521e+01
   1.139089e+01
  -1.127932e+00
  -1.571285e+01
  -3.000595e+01
  -4.241002e+01
  -5.256076e+01
  -6.098609e+01
  -6.854008e+01
  -7.585407e+01
  -8.263004e+01
  -8.718186e+01
  -8.714289e+01
  -8.122847e+01
  -7.030981e+01
  -5.628829e+01
  -3.977847e+01
  -1.949071e+01
   5.513977e+00
   3.322376e+01
   5.888709e+01
   7.767364e+01
   8.682662e+01
   8.596687e+01
   7.673529e+01
   6.263620e+01
   4.832000e+01
   3.784074e+01
   3.303568e+01
   3.323392e+01
   3.592608e+01
   3.746396e+01
   3.403908e+01
   2.362916e+01
   7.899454e+00
  -8.235854e+00
  -1.975906e+01
  -2.454527e+01
  -2.331827e+01
  -1.720379e+01
  -6.059172e+00
   1.070993e+01
   3.228492e+01
   5.587380e+01
   7.792941e+01
   9.566197e+01
   1.075371e+02
   1.130483e+02
   1.127663e+02
   1.086650e+02
   1.036597e+02
   9.996886e+01
   9.764433e+01
   9.494554e+01
   9.036073e+01
   8.416132e+01
   7.783937e+01
   7.217577e+01
   6.616801e+01
   5.788619e+01
   4.608808e+01
   3.088556e+01
   1.325441e+01
  -5.558979e+00
  -2.413894e+01
  -4.092688e+01
  -5.457184e+01
  -6.435462e+01
  -7.039026e+01
  -7.372148e+01
  -7.630098e+01
  -8.043327e+01
  -8.758550e+01
  -9.747301e+01
  -1.084820e+02
  -1.191278e+02
  -1.288554e+02
  -1.370544e+02
  -1.413726e+02
  -1.376716e+02
  -1.225186e+02
  -9.634089e+01
  -6.426145e+01
  -3.344583e+01
  -8.882812e+00
   9.013314e+00
   2.319567e+01
   3.658441e+01
   4.962719e+01
   6.069799e+01
   6.833272e+01
   7.272684e+01
   7.510076e+01
   7.596857e+01
   7.430056e+01
   6.823875e+01
   5.630341e+01
   3.804466e+01
   1.446324e+01
  -1.114317e+01
  -3.278181e+01
  -4.358208e+01
  -3.954127e+01
  -2.201474e+01
   3.691286e+00
   3.219487e+01
   6.032784e+01
   8.603280e+01
   1.063175e+02
   1.176184e+02
   1.185163e+02
   1.114576e+02
   1.011106e+02
   9.100340e+01
   8.202583e+01
   7.376799e+01
   6.617288e+01
   5.925262e+01
   5.173386e+01
   4.088752e+01
   2.407086e+01
   5.300810e-01
  -2.797913e+01
  -5.797881e+01
  -8.577018e+01
  -1.087144e+02
  -1.256560e+02
  -1.365392e+02
  -1.418361e+02
  -1.422642e+02
  -1.386440e+02
  -1.316054e+02
  -1.213465e+02
  -1.077941e+02
  -9.098542e+01
  -7.126670e+01
  -4.931588e+01
  -2.620563e+01
  -3.449068e+00
   1.714161e+01
   3.374376e+01
   4.475919e+01
   4.884161e+01
   4.487391e+01
   3.238177e+01
   1.251264e+01
  -1.125784e+01
  -3.379122e+01
  -5.031220e+01
  -5.845446e+01
  -5.888848e+01
  -5.423775e+01
  -4.722282e+01
  -3.934418e+01
  -3.085298e+01
  -2.176559e+01
  -1.291104e+01
  -6.082389e+00
  -3.283170e+00
  -5.790752e+00
  -1.349220e+01
  -2.450888e+01
  -3.549003e+01
  -4.305872e+01
  -4.557947e+01
  -4.347202e+01
  -3.782600e+01
  -2.919118e+01
  -1.788634e+01
  -4.845680e+00
   8.546086e+00
   2.141216e+01
   3.372335e+01
   4.566932e+01
   5.719084e+01
   6.840775e+01
   8.005211e+01
   9.263893e+01
   1.047570e+02
   1.125270e+02
   1.116041e+02
   1.004367e+02
   8.182877e+01
   6.129514e+01
   4.362080e+01
   3.027842e+01
   1.924182e+01
   6.958450e+00
  -8.949466e+00
  -2.808759e+01
  -4.793518e+01
  -6.606379e+01
  -8.171717e+01
  -9.515910e+01
  -1.057334e+02
  -1.111742e+02
  -1.092869e+02
  -1.002908e+02
  -8.722595e+01
  -7.386847e+01
  -6.216677e+01
  -5.149840e+01
  -4.002451e+01
  -2.649468e+01
  -1.091278e+01
   5.947877e+00
   2.302861e+01
   3.879990e+01
   5.106416e+01
   5.766623e+01
   5.772413e+01
   5.198273e+01
   4.187425e+01
   2.859042e+01
   1.335880e+01
  -1.734318e+00
  -1.389662e+01
  -2.095217e+01
  -2.246893e+01
  -1.957430e+01
  -1.383265e+01
  -6.376753e+00
   2.062238e+00
   1.058265e+01
   1.781833e+01
   2.245987e+01
   2.428787e+01
   2.459703e+01
   2.514566e+01
   2.635478e+01
   2.673455e+01
   2.452499e+01
   2.002963e+01
   1.605150e+01
   1.569615e+01
   1.965516e+01
   2.575720e+01
   3.120856e+01
   3.512023e+01
   3.886412e+01
   4.440706e+01
   5.270698e+01
   6.349509e+01
   7.597890e+01
   8.943845e+01
   1.031353e+02
   1.153739e+02
   1.223001e+02
   1.181487e+02
   9.824040e+01
   6.312663e+01
   1.990567e+01
  -2.140703e+01
  -5.381690e+01
  -7.665624e+01
  -9.398747e+01
  -1.102527e+02
  -1.268657e+02
  -1.414202e+02
  -1.488222e+02
  -1.433981e+02
  -1.216029e+02
  -8.436350e+01
  -3.736287e+01
   1.128777e+01
   5.442551e+01
   8.801164e+01
   1.109963e+02
   1.235215e+02
   1.253162e+02
   1.157937e+02
   9.555782e+01
   6.761336e+01
   3.702302e+01
   9.201366e+00
  -1.207280e+01
  -2.589129e+01
  -3.417500e+01
  -4.036315e+01
  -4.730048e+01
  -5.537503e+01
  -6.231612e+01
  -6.510476e+01
  -6.243177e+01
  -5.552349e+01
  -4.709849e+01
  -4.006618e+01
  -3.685055e+01
  -3.875023e+01
  -4.524920e+01
  -5.438211e+01
  -6.445646e+01
  -7.558704e+01
  -8.944281e+01
  -1.073851e+02
  -1.285224e+02
  -1.491154e+02
  -1.639521e+02
  -1.691866e+02
  -1.647909e+02
  -1.545122e+02
  -1.432842e+02
  -1.345800e+02
  -1.299512e+02
  -1.302020e+02
  -1.359145e+02
  -1.463879e+02
  -1.583726e+02
  -1.664113e+02
  -1.650507e+02
  -1.515726e+02
  -1.274186e+02
  -9.726750e+01
  -6.638125e+01
  -3.810568e+01
  -1.306944e+01
   9.893221e+00
   3.218259e+01
   5.432830e+01
   7.580839e+01
   9.560054e+01
   1.129030e+02
   1.275489e+02
   1.400129e+02
   1.511656e+02
   1.618235e+02
   1.719140e+02
   1.793359e+02
   1.795102e+02
   1.669994e+02
   1.390400e+02
   9.841243e+01
   5.290160e+01
   1.160453e+01
  -1.889228e+01
  -3.604144e+01
  -4.059798e+01
  -3.493288e+01
  -2.164943e+01
  -3.349915e+00
   1.656523e+01
   3.345322e+01
   4.261922e+01
   4.159679e+01
   3.165742e+01
   1.743937e+01
   5.077860e+00
  -2.344981e-01
   3.647564e+00
   1.507485e+01
   2.980915e+01
   4.345402e+01
   5.346024e+01
   5.953158e+01
   6.249944e+01
   6.278845e+01
   5.992374e+01
   5.357711e+01
   4.482199e+01
   3.573950e+01
   2.750921e+01
   1.924041e+01
   8.973671e+00
  -4.487215e+00
  -2.107940e+01
  -4.026862e+01
  -6.103906e+01
  -8.018016e+01
  -9.105113e+01
  -8.578756e+01
  -6.048212e+01
  -1.882687e+01
   2.959696e+01
   7.497194e+01
   1.117956e+02
   1.391645e+02
   1.580500e+02
   1.687777e+02
   1.704814e+02
   1.621299e+02
   1.439202e+02
   1.181401e+02
   8.905087e+01
   6.175002e+01
   4.054156e+01
   2.772506e+01
   2.334610e+01
   2.567880e+01
   3.191106e+01
   3.876603e+01
   4.310745e+01
   4.274316e+01
   3.744910e+01
   2.954420e+01
   2.307070e+01
   2.169221e+01
   2.679242e+01
   3.719539e+01
   5.052133e+01
   6.488128e+01
   7.935035e+01
   9.274148e+01
   1.021016e+02
   1.031121e+02
   9.275328e+01
   7.190734e+01
   4.529648e+01
   1.875460e+01
  -3.657229e+00
  -2.043581e+01
  -3.145126e+01
  -3.668353e+01
  -3.623420e+01
  -3.110938e+01
  -2.337282e+01
  -1.525521e+01
  -8.171824e+00
  -2.546667e+00
   1.762544e+00
   5.105505e+00
   7.840378e+00
   9.948838e+00
   1.055217e+01
   8.006818e+00
   9.326178e-01
  -1.056443e+01
  -2.467037e+01
  -3.885044e+01
  -5.096813e+01
  -5.955302e+01
  -6.346905e+01
  -6.184038e+01
  -5.445397e+01
  -4.212418e+01
  -2.655637e+01
  -9.762683e+00
   6.546431e+00
   2.121805e+01
   3.355558e+01
   4.318568e+01
   5.017547e+01
   5.524522e+01
   5.950745e+01
   6.343596e+01
   6.574561e+01
   6.344762e+01
   5.353996e+01
   3.518640e+01
   1.056358e+01
  -1.635228e+01
  -4.202494e+01
  -6.487786e+01
  -8.516042e+01
  -1.036133e+02
  -1.201612e+02
  -1.335809e+02
  -1.421901e+02
  -1.448877e+02
  -1.418480e+02
  -1.346004e+02
  -1.255176e+02
  -1.168089e+02
  -1.094707e+02
  -1.030334e+02
  -9.637610e+01
  -8.875079e+01
  -8.006108e+01
  -7.041654e+01
  -5.963386e+01
  -4.720386e+01
  -3.267775e+01
  -1.592273e+01
   3.062246e+00
   2.421671e+01
   4.681017e+01
   6.883154e+01
   8.763124e+01
   1.017503e+02
   1.122354e+02
   1.219253e+02
   1.330855e+02
   1.453752e+02
   1.559003e+02
   1.612869e+02
   1.599882e+02
   1.529885e+02
   1.426664e+02
   1.311431e+02
   1.194656e+02
   1.077669e+02
   9.569324e+01
   8.262351e+01
   6.778161e+01
   5.038829e+01
   2.978318e+01
   5.497503e+00
  -2.255840e+01
  -5.366681e+01
  -8.576374e+01
  -1.152203e+02
  -1.374518e+02
  -1.484113e+02
  -1.462438e+02
  -1.320245e+02
  -1.090814e+02
  -8.154030e+01
  -5.331710e+01
  -2.799962e+01
  -8.814380e+00
   2.051127e+00
   4.231020e+00
  -9.026659e-01
  -1.114400e+01
  -2.431710e+01
  -3.860563e+01
  -5.247132e+01
  -6.441190e+01
  -7.285958e+01
  -7.660687e+01
  -7.566600e+01
  -7.164524e+01
  -6.689159e+01
  -6.304037e+01
  -6.041358e+01
  -5.868480e+01
  -5.775924e+01
  -5.776392e+01
  -5.820444e+01
  -5.731589e+01
  -5.259259e+01
  -4.238392e+01
  -2.714831e+01
  -9.053701e+00
   9.618914e+00
   2.751275e+01
   4.387243e+01
   5.791374e+01
   6.911843e+01
   7.814123e+01
   8.696151e+01
   9.753437e+01
   1.096386e+02
   1.196304e+02
   1.216315e+02
   1.110482e+02
   8.815451e+01
   5.883144e+01
   3.150456e+01
   1.239280e+01
   2.579609e+00
  -1.260633e+00
  -3.774727e+00
  -8.248505e+00
  -1.586719e+01
  -2.645136e+01
  -3.945576e+01
  -5.447392e+01
  -7.109229e+01
  -8.833412e+01
  -1.042373e+02
  -1.160470e+02
  -1.209632e+02
  -1.170083e+02
  -1.037089e+02
  -8.239172e+01
  -5.584294e+01
  -2.739806e+01
  -3.390586e-02
   2.408327e+01
   4.373646e+01
   5.879233e+01
   7.021040e+01
   7.958639e+01
   8.837705e+01
   9.743018e+01
   1.070410e+02
   1.170577e+02
   1.267068e+02
   1.345065e+02
   1.387580e+02
   1.384539e+02
   1.337640e+02
   1.254188e+02
   1.135620e+02
   9.762117e+01
   7.773318e+01
   5.605480e+01
   3.601485e+01
   2.000417e+01
   7.921393e+00
  -2.217652e+00
  -1.281168e+01
  -2.587238e+01
  -4.283003e+01
  -6.410253e+01
  -8.848665e+01
  -1.132579e+02
  -1.352512e+02
  -1.519947e+02
  -1.617946e+02
  -1.628783e+02
  -1.529803e+02
  -1.304693e+02
  -9.622830e+01
  -5.421890e+01
  -9.848400e+00
   3.235546e+01
   6.969514e+01
   1.006832e+02
   1.243516e+02
   1.404743e+02
   1.500522e+02
   1.549177e+02
   1.564523e+02
   1.546539e+02
   1.486430e+02
   1.381678e+02
   1.244155e+02
   1.090812e+02
   9.270199e+01
   7.423651e+01
   5.238479e+01
   2.709710e+01
  -1.861213e-01
  -2.722178e+01
  -5.145386e+01
  -7.011941e+01
  -8.057741e+01
  -8.106717e+01
  -7.141705e+01
  -5.317146e+01
  -2.907561e+01
  -2.294181e+00
   2.425953e+01
   4.845315e+01
   6.942166e+01
   8.772661e+01
   1.046348e+02
   1.206301e+02
   1.343543e+02
   1.430999e+02
   1.445553e+02
   1.384342e+02
   1.269219e+02
   1.137872e+02
   1.026917e+02
   9.560165e+01
   9.223645e+01
   9.094966e+01
   9.045382e+01
   9.094682e+01
   9.339353e+01
   9.738009e+01
   9.977035e+01
   9.602698e+01
   8.331396e+01
   6.236827e+01
   3.634159e+01
   8.063699e+00
  -2.145908e+01
  -5.240872e+01
  -8.482308e+01
  -1.180012e+02
  -1.505752e+02
  -1.805738e+02
  -2.055778e+02
  -2.236743e+02
  -2.350170e+02
  -2.421632e+02
  -2.474975e+02
  -2.491567e+02
  -2.400391e+02
  -2.127865e+02
  -1.670087e+02
  -1.111074e+02
  -5.619622e+01
  -8.457093e+00
   3.216567e+01
   6.642182e+01
   9.024144e+01
   9.581979e+01
   7.862413e+01
   4.315469e+01
   1.673291e+00
  -3.258454e+01
  -5.173000e+01
  -5.512165e+01
  -4.710765e+01
  -3.321785e+01
  -1.759051e+01
  -2.824307e+00
   8.993602e+00
   1.618068e+01
   1.857942e+01
   1.819948e+01
   1.811449e+01
   2.045720e+01
   2.530196e+01
   3.111761e+01
   3.603334e+01
   3.880525e+01
   3.888424e+01
   3.580819e+01
   2.879286e+01
   1.712139e+01
   9.006143e-01
  -1.862007e+01
  -3.933903e+01
  -5.891410e+01
  -7.543653e+01
  -8.778873e+01
  -9.530838e+01
  -9.702737e+01
  -9.141466e+01
  -7.731808e+01
  -5.573927e+01
  -3.104606e+01
  -1.016434e+01
   3.835395e-01
  -2.228839e+00
  -1.602850e+01
  -3.614521e+01
  -5.795810e+01
  -7.898223e+01
  -9.857398e+01
  -1.164007e+02
  -1.310904e+02
  -1.398617e+02
  -1.393023e+02
  -1.270461e+02
  -1.034591e+02
  -7.195813e+01
  -3.737939e+01
  -3.608969e+00
   2.762837e+01
   5.626525e+01
   8.269987e+01
   1.069724e+02
   1.284650e+02
   1.459723e+02
   1.582715e+02
   1.651434e+02
   1.681055e+02
   1.699444e+02
   1.730722e+02
   1.779796e+02
   1.831795e+02
   1.867028e+02
   1.876777e+02
   1.864070e+02
   1.828937e+02
   1.755051e+02
   1.615229e+02
   1.393985e+02
   1.105493e+02
   7.874414e+01
   4.739767e+01
   1.707424e+01
  -1.456574e+01
  -5.011848e+01
  -8.925495e+01
  -1.279389e+02
  -1.609118e+02
  -1.851482e+02
  -2.011863e+02
  -2.116508e+02
  -2.188179e+02
  -2.230847e+02
  -2.227924e+02
  -2.151502e+02
  -1.978739e+02
  -1.706901e+02
  -1.356543e+02
  -9.611460e+01
  -5.527632e+01
  -1.539550e+01
   2.212776e+01
   5.607848e+01
   8.476739e+01
   1.060602e+02
   1.182512e+02
   1.210235e+02
   1.156760e+02
   1.046226e+02
   9.055306e+01
   7.553566e+01
   6.057199e+01
   4.603962e+01
   3.246037e+01
   2.059141e+01
   1.083294e+01
   2.828100e+00
  -4.276191e+00
  -1.126300e+01
  -1.854870e+01
  -2.633686e+01
  -3.487561e+01
  -4.436906e+01
  -5.456162e+01
  -6.446725e+01
  -7.261216e+01
  -7.768197e+01
  -7.911271e+01
  -7.720001e+01
  -7.270190e+01
  -6.639607e+01
  -5.910522e+01
  -5.211844e+01
  -4.734468e+01
  -4.673395e+01
  -5.134291e+01
  -6.090814e+01
  -7.426342e+01
  -8.995716e+01
  -1.063088e+02
  -1.211725e+02
  -1.323498e+02
  -1.387374e+02
  -1.410530e+02
  -1.412042e+02
  -1.408953e+02
  -1.409434e+02
  -1.417839e+02
  -1.439488e+02
  -1.471596e+02
  -1.485964e+02
  -1.426147e+02
  -1.231918e+02
  -8.758350e+01
  -3.836213e+01
   1.754375e+01
   7.189537e+01
   1.181779e+02
   1.529430e+02
   1.754240e+02
   1.867545e+02
   1.896411e+02
   1.879005e+02
   1.851825e+02
   1.835299e+02
   1.829861e+02
   1.823908e+02
   1.804167e+02
   1.761757e+02
   1.695543e+02
   1.614207e+02
   1.533280e+02
   1.466465e+02
   1.418690e+02
   1.386653e+02
   1.362651e+02
   1.335781e+02
   1.292858e+02
   1.223648e+02
   1.125861e+02
   1.002093e+02
   8.518678e+01
   6.695724e+01
   4.506083e+01
   1.968946e+01
  -8.551853e+00
  -3.931031e+01
  -7.261717e+01
  -1.081842e+02
  -1.446160e+02
  -1.792729e+02
  -2.086080e+02
  -2.285835e+02
  -2.355391e+02
  -2.279472e+02
  -2.080830e+02
  -1.817096e+02
  -1.554919e+02
  -1.343764e+02
  -1.209711e+02
  -1.161980e+02
  -1.193342e+02
  -1.275287e+02
  -1.364539e+02
  -1.424521e+02
  -1.444517e+02
  -1.437296e+02
  -1.413311e+02
  -1.353707e+02
  -1.214619e+02
  -9.680975e+01
  -6.383042e+01
  -2.893413e+01
   2.257635e+00
   2.802278e+01
   4.942975e+01
   6.709174e+01
   7.890476e+01
   8.028779e+01
   6.687685e+01
   3.813622e+01
  -8.949100e-01
  -4.158723e+01
  -7.609669e+01
  -1.006359e+02
  -1.155709e+02
  -1.232899e+02
  -1.258690e+02
  -1.235794e+02
  -1.146236e+02
  -9.654066e+01
  -6.880093e+01
  -3.456607e+01
   1.867999e-01
   2.969102e+01
   5.123040e+01
   6.574950e+01
   7.591156e+01
   8.299869e+01
   8.495909e+01
   7.747595e+01
   5.780212e+01
   2.835930e+01
  -3.440019e+00
  -2.950952e+01
  -4.583646e+01
  -5.358683e+01
  -5.631605e+01
  -5.659066e+01
  -5.492631e+01
  -5.089219e+01
  -4.433521e+01
  -3.544483e+01
  -2.414221e+01
  -9.938343e+00
   7.384512e+00
   2.697063e+01
   4.683343e+01
   6.464663e+01
   7.868251e+01
   8.813886e+01
   9.278707e+01
   9.255071e+01
   8.755989e+01
   7.856138e+01
   6.710733e+01
   5.518062e+01
   4.452482e+01
   3.624867e+01
   3.093813e+01
   2.891820e+01
   3.016241e+01
   3.383822e+01
   3.801108e+01
   3.998633e+01
   3.723755e+01
   2.841805e+01
   1.391558e+01
  -4.276349e+00
  -2.320282e+01
  -3.972627e+01
  -5.111139e+01
  -5.535534e+01
  -5.149305e+01
  -4.003068e+01
  -2.316034e+01
  -4.222893e+00
   1.351868e+01
   2.806741e+01
   3.918146e+01
   4.803718e+01
   5.627636e+01
   6.477046e+01
   7.270748e+01
   7.778795e+01
