Corrected acceleration    (Format v01.20 with 13 text lines)
Record of Point MacKenzie Earthquake of Fri Nov 30, 2018 17:29 UTC
Hypocenter: 61.34000 -149.93660 H= 40km Mw=7.0
Origin: 2018/11/30 17:29:28    UTC
Statn No: 02-008030 Code:NP-8030   USGS  AK:Anchorage;Police HQ
Coords: 61.1795 -149.8058  Site geology:
Recorder: (see cmnt)      ( 3 Chns of   3 at Sta) Sensor: (see comment)    
Rcrd start time: 2018/11/30 17:29:04.874 UTC (Q=5) RcrdId: (see comment)
Sta Chan   3: 90 Deg (Rcrdr Chan  ?) Location:Ground
Raw record length = 199.125 sec, Uncor max =    483789, at  43.875 sec.
Processed:2018-12-03 21:58:39 GMT, UNKN, Max = -222.920 cm/sec2 at   43.880 sec
Record filtered below  0.10 Hz (periods over 10.00 secs), and above 40.0 Hz
Values used when parameter or data value is unknown/unspecified:   -999, -999.00
 100 Integer-header values follow on  10 lines, Format= (10I8)
       2       1       4     120       1    -999    -999    8030    -999    -999
       2       2    -999       8    -999       1    -999    -999       4    -999
    -999       1       3    -999    -999    -999    -999    -999    -999    1000
       3     360       3    -999       0       0    -999    -999    -999    2018
     334      11      30      17      29       5       5    -999    -999       3
    -999      20    -999      90    -999    -999    -999    -999    -999    -999
       5       5    -999       1    -999    -999    -999    -999    -999    -999
    -999    -999    -999    -999       1       0    -999    -999    -999    -999
    -999    -999    -999    -999    -999    -999    -999    -999    -999    -999
    -999    -999    -999    -999    -999    -999    -999    -999    -999    -999
 100 Real-header values follow on  20 lines, Format= (5F15.6)
      61.179500    -149.805800      53.000000    -999.000000    -999.000000
    -999.000000    -999.000000    -999.000000    -999.000000      61.340000
    -149.936600      40.900000       7.000000    -999.000000    -999.000000
    -999.000000      19.168108     158.601703    -999.000000    -999.000000
    -999.000000       2.384188       0.000000      30.000000     169.126466
      80.000000    -999.000000    -999.000000    -999.000000       4.873530
    -999.000000       0.000000    -999.000000       0.005000     199.125000
      -4.351384    -999.000000    -999.000000    -999.000000     223.976073
       0.697089       4.991600      19.966400       4.000000      80.000000
    -999.000000       1.000000    -999.000000    -999.000000    -999.000000
    -999.000000    -999.000000    -999.000000       0.100000    -999.000000
    -999.000000      40.000000    -999.000000    -999.000000    -999.000000
    -999.000000       5.000000     199.126466    -222.919658      43.880000
      -0.000079    -999.000000      -0.000046      -0.000121    -999.000000
    -999.000000    -999.000000    -999.000000    -999.000000    -999.000000
    -999.000000    -999.000000    -999.000000    -999.000000      15.515000
      13.110000       1.040808       9.959152    -999.000000       1.276880
    -999.000000    -999.000000     980.665000    -999.000000    -999.000000
    -999.000000    -999.000000    -999.000000    -999.000000    -999.000000
    -999.000000    -999.000000    -999.000000    -999.000000    -999.000000
  11 Comment line(s) follow, each starting with a "|":
| Recorder: Basalt-4x 
| Sensor: Episensor (4 g max 5.0 v/g)
| RcrdId: US.1000hyfh.NP.8030.HNE.--
|<SCNL>8030.HNE.NP.--    <AUTH> 2018/11/03 21:54:50.000
|<PROCESS> AUTO
|<EONSET> event onset(sec)=  34.7600
|<ABLC>SF:   0.0000, EF:  34.7600, SA:   0.0000, EA: 199.1250, ORDER:  MEAN
|<ABLC>SF:   0.0000, EF: 199.1250, SA:   0.0000, EA: 199.1250, ORDER:ORDER1
|<ABLABC1>SF:   0.0000, EF:  34.7600, SA:   0.0000, EA:  34.7600, ORDER:ORDER1
|<ABLABC2>SF:  34.7600, EF: 158.7600, SA:  34.7600, EA: 158.7600, ORDER:ORDER2
|<ABLABC3>SF: 158.7600, EF: 199.1250, SA: 158.7600, EA: 199.1250, ORDER:  MEAN
   39825 acceleration pts, approx  199 secs, units=cm/sec2(04),Format=(1E15.6)
[...]
  -2.180988e+01
  -3.727266e+01
  -4.839448e+01
  -5.939158e+01
  -7.301130e+01
  -8.869354e+01
  -1.034429e+02
  -1.139400e+02
  -1.181054e+02
  -1.159576e+02
  -1.100814e+02
  -1.048439e+02
  -1.038018e+02
  -1.071754e+02
  -1.119984e+02
  -1.147977e+02
  -1.139925e+02
  -1.099662e+02
  -1.035548e+02
  -9.506577e+01
  -8.474931e+01
  -7.365606e+01
  -6.340649e+01
  -5.490340e+01
  -4.749503e+01
  -3.970341e+01
  -3.081719e+01
  -2.162547e+01
  -1.354696e+01
  -7.101317e+00
  -1.283069e+00
   5.410433e+00
   1.320072e+01
   2.050550e+01
   2.546627e+01
   2.781804e+01
   2.905224e+01
   3.105535e+01
   3.494341e+01
   4.099440e+01
   4.910267e+01
   5.897020e+01
   7.006256e+01
   8.162556e+01
   9.254360e+01
   1.009784e+02
   1.047411e+02
   1.031449e+02
   9.891437e+01
   9.741122e+01
   1.027272e+02
   1.141661e+02
   1.271313e+02
   1.376711e+02
   1.452471e+02
   1.501651e+02
   1.490497e+02
   1.351836e+02
   1.051676e+02
   6.447940e+01
   2.409840e+01
  -8.602562e+00
  -3.357173e+01
  -5.311526e+01
  -6.735793e+01
  -7.720676e+01
  -8.900445e+01
  -1.112905e+02
  -1.452870e+02
  -1.809738e+02
  -2.050607e+02
  -2.122994e+02
  -2.071601e+02
  -1.953149e+02
  -1.770109e+02
  -1.503819e+02
  -1.185054e+02
  -8.956172e+01
  -6.965548e+01
  -5.741887e+01
  -4.643813e+01
  -3.203976e+01
  -1.502616e+01
   7.927715e-01
   1.374161e+01
   2.607066e+01
   4.050893e+01
   5.605283e+01
   6.840266e+01
   7.455361e+01
   7.578906e+01
   7.547572e+01
   7.467823e+01
   7.109281e+01
   6.234433e+01
   4.953731e+01
   3.724728e+01
   3.028441e+01
   3.030691e+01
   3.489278e+01
   3.951244e+01
   4.065459e+01
   3.754798e+01
   3.148922e+01
   2.434742e+01
   1.813419e+01
   1.518663e+01
   1.720665e+01
   2.340610e+01
   3.043573e+01
   3.548648e+01
   3.962022e+01
   4.681530e+01
   5.888478e+01
   7.212423e+01
   8.026407e+01
   8.090526e+01
   7.838266e+01
   8.011018e+01
   9.046940e+01
   1.077227e+02
   1.249297e+02
   1.329239e+02
   1.248519e+02
   1.014289e+02
   7.228613e+01
   4.982895e+01
   4.011282e+01
   3.972079e+01
   4.126804e+01
   4.069709e+01
   3.868967e+01
   3.649950e+01
   3.266439e+01
   2.447221e+01
   1.155759e+01
  -3.071126e+00
  -1.561961e+01
  -2.454435e+01
  -3.075755e+01
  -3.526606e+01
  -3.732854e+01
  -3.525278e+01
  -2.880143e+01
  -2.043314e+01
  -1.380019e+01
  -1.072953e+01
  -9.606568e+00
  -6.701987e+00
   1.071279e+00
   1.434469e+01
   3.087868e+01
   4.609896e+01
   5.518549e+01
   5.652570e+01
   5.340706e+01
   5.105525e+01
   5.119573e+01
   4.993445e+01
   4.149743e+01
   2.389370e+01
   7.729341e-01
  -2.159764e+01
  -3.839893e+01
  -4.794120e+01
  -5.119302e+01
  -5.086838e+01
  -5.053865e+01
  -5.341411e+01
  -6.084880e+01
  -7.116557e+01
  -7.982634e+01
  -8.170365e+01
  -7.440104e+01
  -5.986707e+01
  -4.274253e+01
  -2.717117e+01
  -1.506772e+01
  -6.528814e+00
  -6.722645e-01
   4.138457e+00
   9.901382e+00
   1.790602e+01
   2.789658e+01
   3.825069e+01
   4.682299e+01
   5.186821e+01
   5.277439e+01
   5.033714e+01
   4.645819e+01
   4.346167e+01
   4.314339e+01
   4.582461e+01
   5.028124e+01
   5.498272e+01
   5.953470e+01
   6.481357e+01
   7.166069e+01
   7.934059e+01
   8.513917e+01
   8.578115e+01
   7.995877e+01
   6.981300e+01
   5.961440e+01
   5.269909e+01
   4.969169e+01
   4.922670e+01
   4.936835e+01
   4.814639e+01
   4.404662e+01
   3.749158e+01
   3.190654e+01
   3.198476e+01
   3.963063e+01
   5.152004e+01
   6.122787e+01
   6.399502e+01
   5.957584e+01
   5.122370e+01
   4.273995e+01
   3.619616e+01
   3.116109e+01
   2.514468e+01
   1.512370e+01
  -3.981498e-01
  -2.042001e+01
  -4.243164e+01
  -6.383144e+01
  -8.218317e+01
  -9.525591e+01
  -1.021738e+02
  -1.045255e+02
  -1.056689e+02
  -1.087191e+02
  -1.149335e+02
  -1.233602e+02
  -1.319132e+02
  -1.394626e+02
  -1.470429e+02
  -1.560865e+02
  -1.648874e+02
  -1.678579e+02
  -1.599194e+02
  -1.419257e+02
  -1.206261e+02
  -1.024903e+02
  -8.816697e+01
  -7.372932e+01
  -5.645569e+01
  -3.778464e+01
  -2.075158e+01
  -6.337538e+00
   6.733237e+00
   1.961090e+01
   3.199596e+01
   4.288122e+01
   5.127192e+01
   5.572981e+01
   5.430917e+01
   4.630630e+01
   3.431738e+01
   2.361662e+01
   1.834391e+01
   1.796684e+01
   1.795586e+01
   1.428071e+01
   7.163686e+00
   5.016925e-01
  -2.062137e+00
  -4.723772e-01
   1.969951e+00
   1.889556e+00
  -1.267124e+00
  -5.512521e+00
  -8.694089e+00
  -9.652070e+00
  -7.368619e+00
  -6.441306e-01
   1.021516e+01
   2.191386e+01
   2.968138e+01
   3.090566e+01
   2.715593e+01
   2.279366e+01
   2.207219e+01
   2.699049e+01
   3.617477e+01
   4.485505e+01
   4.691213e+01
   3.871251e+01
   2.191551e+01
   2.329863e+00
  -1.480384e+01
  -2.892425e+01
  -4.338186e+01
  -6.047580e+01
  -7.798592e+01
  -9.119986e+01
  -9.766019e+01
  -9.906023e+01
  -9.903179e+01
  -9.998785e+01
  -1.014750e+02
  -1.002647e+02
  -9.236884e+01
  -7.650886e+01
  -5.592497e+01
  -3.594976e+01
  -2.003652e+01
  -9.100411e+00
  -3.848466e+00
  -5.352040e+00
  -1.265512e+01
  -2.156117e+01
  -2.712964e+01
  -2.697436e+01
  -2.172632e+01
  -1.307172e+01
  -2.191416e+00
   1.014637e+01
   2.297865e+01
   3.540041e+01
   4.739924e+01
   5.982783e+01
   7.302265e+01
   8.529790e+01
   9.271225e+01
   9.060322e+01
   7.666693e+01
   5.380678e+01
   2.940658e+01
   1.009881e+01
  -3.367498e+00
  -1.547125e+01
  -3.015728e+01
  -4.665206e+01
  -6.110652e+01
  -7.105594e+01
  -7.738900e+01
  -8.276850e+01
  -8.914080e+01
  -9.632559e+01
  -1.019323e+02
  -1.026626e+02
  -9.670451e+01
  -8.527454e+01
  -7.130362e+01
  -5.654819e+01
  -4.077649e+01
  -2.397474e+01
  -8.264809e+00
   3.378471e+00
   1.016063e+01
   1.445251e+01
   1.929529e+01
   2.499617e+01
   2.859549e+01
   2.708114e+01
   2.103995e+01
   1.463156e+01
   1.189399e+01
   1.370236e+01
   1.838698e+01
   2.405288e+01
   2.936444e+01
   3.297283e+01
   3.363988e+01
   3.106477e+01
   2.590580e+01
   1.904133e+01
   1.148694e+01
   4.953100e+00
   1.363537e+00
   1.044900e+00
   1.848231e+00
   7.675719e-01
  -3.660617e+00
  -1.075737e+01
  -1.899970e+01
  -2.741758e+01
  -3.575042e+01
  -4.351611e+01
  -4.935104e+01
  -5.171218e+01
  -5.041140e+01
  -4.745562e+01
  -4.625058e+01
  -4.961326e+01
  -5.798956e+01
  -6.896777e+01
  -7.835662e+01
  -8.248683e+01
  -8.024018e+01
  -7.281354e+01
  -6.170639e+01
  -4.781634e+01
  -3.230967e+01
  -1.674660e+01
  -1.682993e+00
   1.373655e+01
   3.010850e+01
   4.643781e+01
   6.111695e+01
   7.397801e+01
   8.696837e+01
   1.025449e+02
   1.210783e+02
   1.396930e+02
   1.538850e+02
   1.606360e+02
   1.604537e+02
   1.570074e+02
   1.546779e+02
   1.552727e+02
   1.562239e+02
   1.524971e+02
   1.412705e+02
   1.248857e+02
   1.085593e+02
   9.489038e+01
   8.130482e+01
   6.367827e+01
   4.191218e+01
   2.066968e+01
   4.786546e+00
  -4.630214e+00
  -9.602304e+00
  -1.271906e+01
  -1.605922e+01
  -2.115604e+01
  -2.825898e+01
  -3.549439e+01
  -3.961863e+01
  -3.819464e+01
  -3.128352e+01
  -2.132496e+01
  -1.159901e+01
  -4.562865e+00
  -1.109112e+00
  -1.000507e+00
  -3.773276e+00
  -8.976581e+00
  -1.553421e+01
  -2.125482e+01
  -2.327720e+01
  -1.921857e+01
  -8.667321e+00
   5.488868e+00
   1.741313e+01
   2.131543e+01
   1.513746e+01
   1.652083e+00
  -1.383062e+01
  -2.714362e+01
  -3.776717e+01
  -4.821003e+01
  -6.026418e+01
  -7.176582e+01
  -7.819049e+01
  -7.782303e+01
  -7.404524e+01
  -7.141023e+01
  -6.989855e+01
  -6.414412e+01
  -4.892868e+01
  -2.535250e+01
  -1.002628e+00
   1.645155e+01
   2.547554e+01
   3.016379e+01
   3.468954e+01
   3.978903e+01
   4.419848e+01
   4.754543e+01
   5.104635e+01
   5.618894e+01
   6.337248e+01
   7.160191e+01
   7.916110e+01
   8.468009e+01
   8.794633e+01
   8.994858e+01
   9.190382e+01
   9.373547e+01
   9.355810e+01
   8.935451e+01
   8.118691e+01
   7.064588e+01
   5.780328e+01
   4.054244e+01
   1.880472e+01
  -1.423526e+00
  -1.152812e+01
  -9.448775e+00
  -3.870119e+00
  -6.825909e+00
  -2.218039e+01
  -4.302384e+01
  -6.033311e+01
  -7.231235e+01
  -8.416704e+01
  -9.962354e+01
  -1.146627e+02
  -1.210842e+02
  -1.156813e+02
  -1.037901e+02
  -9.325549e+01
  -8.712885e+01
  -8.372775e+01
  -8.159552e+01
  -8.138011e+01
  -8.345705e+01
  -8.680888e+01
  -9.119095e+01
  -9.836511e+01
  -1.097139e+02
  -1.234960e+02
  -1.357663e+02
  -1.439752e+02
  -1.485627e+02
  -1.503094e+02
  -1.470805e+02
  -1.348443e+02
  -1.119031e+02
  -8.081155e+01
  -4.624839e+01
  -1.255390e+01
   1.686429e+01
   4.036667e+01
   5.964587e+01
   7.859965e+01
   9.902614e+01
   1.183969e+02
   1.330304e+02
   1.425874e+02
   1.499616e+02
   1.569447e+02
   1.616744e+02
   1.609274e+02
   1.533735e+02
   1.395516e+02
   1.204244e+02
   9.843663e+01
   7.923052e+01
   6.836962e+01
   6.449510e+01
   5.888184e+01
   4.502065e+01
   2.701837e+01
   1.539918e+01
   1.513273e+01
   2.022765e+01
   2.007378e+01
   9.029001e+00
  -1.063965e+01
  -3.289169e+01
  -5.288819e+01
  -6.908838e+01
  -8.337059e+01
  -9.983885e+01
  -1.214767e+02
  -1.464066e+02
  -1.683107e+02
  -1.819076e+02
  -1.877007e+02
  -1.900294e+02
  -1.897984e+02
  -1.799424e+02
  -1.505938e+02
  -1.010089e+02
  -4.501658e+01
  -1.255304e+00
   2.207966e+01
   3.092462e+01
   3.594865e+01
   4.318154e+01
   5.257816e+01
   6.139965e+01
   6.778948e+01
   7.263389e+01
   7.870212e+01
   8.796472e+01
   1.000068e+02
   1.124334e+02
   1.214438e+02
   1.228128e+02
   1.153608e+02
   1.039832e+02
   9.612009e+01
   9.412100e+01
   9.386611e+01
   9.163141e+01
   8.874527e+01
   8.753678e+01
   8.541438e+01
   7.587904e+01
   5.517988e+01
   2.659704e+01
  -2.141683e+00
  -2.520356e+01
  -4.219196e+01
  -5.601722e+01
  -6.870701e+01
  -8.021036e+01
  -9.034383e+01
  -1.001629e+02
  -1.109516e+02
  -1.224298e+02
  -1.320739e+02
  -1.359351e+02
  -1.303519e+02
  -1.136904e+02
  -8.752379e+01
  -5.686396e+01
  -2.884347e+01
  -9.946654e+00
  -3.408879e+00
  -8.420156e+00
  -2.139970e+01
  -3.843101e+01
  -5.671529e+01
  -7.343406e+01
  -8.439015e+01
  -8.617140e+01
  -8.014819e+01
  -7.280686e+01
  -7.134363e+01
  -7.879961e+01
  -9.234568e+01
  -1.052556e+02
  -1.113486e+02
  -1.088806e+02
  -1.003956e+02
  -8.894859e+01
  -7.531503e+01
  -5.896909e+01
  -4.053860e+01
  -2.241891e+01
  -7.276340e+00
   3.812436e+00
   1.218695e+01
   2.082135e+01
   3.226888e+01
   4.667216e+01
   6.122686e+01
   7.162161e+01
   7.489151e+01
   7.173344e+01
   6.608624e+01
   6.232336e+01
   6.287798e+01
   6.791568e+01
   7.610241e+01
   8.546228e+01
   9.439933e+01
   1.025355e+02
   1.105248e+02
   1.189755e+02
   1.274738e+02
   1.344156e+02
   1.377670e+02
   1.364005e+02
   1.313462e+02
   1.261202e+02
   1.249275e+02
   1.283461e+02
   1.298473e+02
   1.191379e+02
   9.227126e+01
   5.801301e+01
   3.138153e+01
   2.069366e+01
   2.271835e+01
   2.947213e+01
   3.640614e+01
   4.334766e+01
   5.038420e+01
   5.534518e+01
   5.533500e+01
   4.969854e+01
   4.076014e+01
   3.146615e+01
   2.277386e+01
   1.366287e+01
   2.478146e+00
  -1.317778e+01
  -3.662892e+01
  -6.937084e+01
  -1.076425e+02
  -1.436401e+02
  -1.709034e+02
  -1.874847e+02
  -1.944110e+02
  -1.942230e+02
  -1.921410e+02
  -1.949344e+02
  -2.051001e+02
  -2.173291e+02
  -2.229197e+02
  -2.166518e+02
  -1.978971e+02
  -1.670183e+02
  -1.244697e+02
  -7.470171e+01
  -2.808487e+01
   5.143226e+00
   2.347114e+01
   3.412172e+01
   4.407609e+01
   5.354244e+01
   5.867495e+01
   5.805339e+01
   5.491930e+01
   5.398558e+01
   5.713738e+01
   6.232402e+01
   6.637609e+01
   6.851954e+01
   7.074775e+01
   7.517213e+01
   8.209286e+01
   9.063464e+01
   9.973454e+01
   1.078580e+02
   1.131091e+02
   1.146647e+02
   1.132682e+02
   1.094716e+02
   1.022946e+02
   9.064519e+01
   7.506144e+01
   5.684900e+01
   3.689785e+01
   1.702124e+01
   7.732670e-01
  -9.715188e+00
  -1.698060e+01
  -2.551437e+01
  -3.512599e+01
  -3.917464e+01
  -3.180312e+01
  -1.684435e+01
  -6.927145e+00
  -1.193269e+01
  -2.963893e+01
  -4.922280e+01
  -6.214162e+01
  -6.728146e+01
  -6.732114e+01
  -6.415801e+01
  -5.878342e+01
  -5.292924e+01
  -4.864946e+01
  -4.672022e+01
  -4.660793e+01
  -4.771074e+01
  -4.969397e+01
  -5.188691e+01
  -5.320237e+01
  -5.253151e+01
  -4.900970e+01
  -4.279875e+01
  -3.609527e+01
  -3.206369e+01
  -3.156621e+01
  -3.164765e+01
  -2.840142e+01
  -2.115924e+01
  -1.301216e+01
  -7.006021e+00
  -2.590229e+00
   3.128487e+00
   1.090352e+01
   1.816109e+01
   2.320323e+01
   2.826824e+01
   3.613114e+01
   4.511981e+01
   5.001229e+01
   4.724625e+01
   3.756282e+01
   2.479680e+01
   1.403158e+01
   9.341663e+00
   1.073959e+01
   1.419662e+01
   1.652186e+01
   1.900838e+01
   2.444915e+01
   3.208771e+01
   3.817170e+01
   4.079182e+01
   4.147222e+01
   4.202595e+01
   4.229401e+01
   4.148735e+01
   3.976737e+01
   3.751414e+01
   3.428888e+01
   2.960768e+01
   2.402351e+01
   1.840134e+01
   1.257327e+01
   5.848639e+00
  -1.159126e+00
  -6.153077e+00
  -7.032391e+00
  -4.090996e+00
  -4.600010e-01
  -3.646457e-01
  -6.453958e+00
  -1.812613e+01
  -3.181025e+01
  -4.274025e+01
  -4.740828e+01
  -4.585486e+01
  -4.215700e+01
  -4.161240e+01
  -4.614261e+01
  -5.249423e+01
  -5.561699e+01
  -5.345855e+01
  -4.765417e+01
  -4.016921e+01
  -3.093570e+01
  -1.912230e+01
  -5.402025e+00
   8.029375e+00
   1.938803e+01
   2.855479e+01
   3.616048e+01
   4.184296e+01
   4.424790e+01
   4.323889e+01
   4.166919e+01
   4.411626e+01
   5.335471e+01
   6.786913e+01
   8.273626e+01
   9.321203e+01
   9.810995e+01
   1.001251e+02
   1.027527e+02
   1.067367e+02
   1.097219e+02
   1.093905e+02
   1.064629e+02
   1.042076e+02
   1.049034e+02
   1.067378e+02
   1.043462e+02
   9.294250e+01
   7.247436e+01
   4.793348e+01
   2.546693e+01
   7.906229e+00
  -6.148589e+00
  -1.927086e+01
  -3.191201e+01
  -4.230562e+01
  -4.889154e+01
  -5.225564e+01
  -5.524881e+01
  -6.207940e+01
  -7.694089e+01
  -1.015497e+02
  -1.320753e+02
  -1.594842e+02
  -1.763958e+02
  -1.842590e+02
  -1.903378e+02
  -1.969206e+02
  -1.980763e+02
  -1.891475e+02
  -1.749748e+02
  -1.648728e+02
  -1.617925e+02
  -1.602662e+02
  -1.545789e+02
  -1.457275e+02
  -1.389125e+02
  -1.358150e+02
  -1.318611e+02
  -1.216506e+02
  -1.051638e+02
  -8.712636e+01
  -7.148266e+01
  -5.843832e+01
  -4.647685e+01
  -3.491944e+01
  -2.339956e+01
  -1.025207e+01
   6.720039e+00
   2.775478e+01
   5.044272e+01
   7.212133e+01
   9.265883e+01
   1.141323e+02
   1.375011e+02
   1.604098e+02
   1.790876e+02
   1.918623e+02
   1.998143e+02
   2.044107e+02
   2.059245e+02
   2.045529e+02
   2.019760e+02
   2.006108e+02
   2.010970e+02
   2.012263e+02
   1.982659e+02
   1.924731e+02
   1.872777e+02
   1.847417e+02
   1.810413e+02
   1.684460e+02
   1.435085e+02
   1.126048e+02
   8.730990e+01
   7.372181e+01
   6.739711e+01
   5.909812e+01
   4.443536e+01
   2.726026e+01
   1.451385e+01
   8.969522e+00
   7.078729e+00
   2.920361e+00
  -6.558322e+00
  -1.983478e+01
  -3.300375e+01
  -4.284112e+01
  -4.828640e+01
  -5.006671e+01
  -4.920321e+01
  -4.550836e+01
  -3.749213e+01
  -2.409480e+01
  -6.587523e+00
   1.158263e+01
   2.711680e+01
   3.908562e+01
   4.915189e+01
   6.013339e+01
   7.407513e+01
   9.066361e+01
   1.072023e+02
   1.207595e+02
   1.305648e+02
   1.380914e+02
   1.449534e+02
   1.509438e+02
   1.541487e+02
   1.531634e+02
   1.490755e+02
   1.445250e+02
   1.406282e+02
   1.356444e+02
   1.268900e+02
   1.129731e+02
   9.387603e+01
   7.037428e+01
   4.459395e+01
   2.015782e+01
   7.832746e-02
  -1.578812e+01
  -3.052328e+01
  -4.715735e+01
  -6.606379e+01
  -8.513750e+01
  -1.020281e+02
  -1.159740e+02
  -1.277069e+02
  -1.379792e+02
  -1.466381e+02
  -1.534728e+02
  -1.596282e+02
  -1.671994e+02
  -1.768798e+02
  -1.864805e+02
  -1.924706e+02
  -1.930332e+02
  -1.892720e+02
  -1.834987e+02
  -1.770863e+02
  -1.705138e+02
  -1.645392e+02
  -1.594147e+02
  -1.525816e+02
  -1.391257e+02
  -1.162522e+02
  -8.679176e+01
  -5.715774e+01
  -3.213182e+01
  -1.226111e+01
   4.347433e+00
   1.889303e+01
   3.079531e+01
