Corrected acceleration    (Format v01.20 with 13 text lines)
Record of Point MacKenzie Earthquake of Fri Nov 30, 2018 17:29 UTC
Hypocenter: 61.34000 -149.93660 H= 40km Mw=7.0
Origin: 2018/11/30 17:29:28    UTC
Statn No: 02-008036 Code:NP-8036   USGS  AK:Anchorage;DOI OAS
Coords: 61.1780 -149.9657  Site geology:
Recorder: (see cmnt)      ( 3 Chns of   3 at Sta) Sensor: (see comment)    
Rcrd start time: 2018/11/30 17:29:04.807 UTC (Q=5) RcrdId: (see comment)
Sta Chan   2:360 Deg (Rcrdr Chan  ?) Location:Ground
Raw record length = 210.000 sec, Uncor max =    871525, at  48.225 sec.
Processed:2018-12-03 22:00:31 GMT, UNKN, Max = -384.965 cm/sec2 at   48.240 sec
Record filtered below  0.10 Hz (periods over 10.00 secs), and above 40.0 Hz
Values used when parameter or data value is unknown/unspecified:   -999, -999.00
 100 Integer-header values follow on  10 lines, Format= (10I8)
       2       1       4     120       1    -999    -999    8036    -999    -999
       2       2    -999       8    -999       1    -999    -999       4    -999
    -999       1       3    -999    -999    -999    -999    -999    -999    1000
       3     216       3    -999       0       0    -999    -999    -999    2018
     334      11      30      17      29       5       5    -999    -999       2
    -999      20    -999     360    -999    -999    -999    -999    -999    -999
       5       5    -999       1    -999    -999    -999    -999    -999    -999
    -999    -999    -999    -999       1       0    -999    -999    -999    -999
    -999    -999    -999    -999    -999    -999    -999    -999    -999    -999
    -999    -999    -999    -999    -999    -999    -999    -999    -999    -999
 100 Real-header values follow on  20 lines, Format= (5F15.6)
      61.177950    -149.965730      24.000000    -999.000000    -999.000000
    -999.000000    -999.000000    -999.000000    -999.000000      61.340000
    -149.936600      40.900000       7.000000    -999.000000    -999.000000
    -999.000000      18.086325     184.940203    -999.000000    -999.000000
    -999.000000       2.384188       0.000000      30.000000     180.000000
      80.000000    -999.000000    -999.000000    -999.000000       4.806830
    -999.000000       0.000000    -999.000000       0.005000     210.000000
      -4.104252    -999.000000    -999.000000    -999.000000     223.976073
       0.697089       4.991600      19.966400       4.000000      80.000000
    -999.000000       1.000000    -999.000000    -999.000000    -999.000000
    -999.000000    -999.000000    -999.000000       0.100000    -999.000000
    -999.000000      40.000000    -999.000000    -999.000000    -999.000000
    -999.000000       5.000000     210.000000    -384.965362      48.240000
      -0.000487    -999.000000       0.000012       0.000127    -999.000000
    -999.000000    -999.000000    -999.000000    -999.000000    -999.000000
    -999.000000    -999.000000    -999.000000    -999.000000      20.970000
      14.990000       1.240643      13.623467    -999.000000       2.073351
    -999.000000    -999.000000     980.665000    -999.000000    -999.000000
    -999.000000    -999.000000    -999.000000    -999.000000    -999.000000
    -999.000000    -999.000000    -999.000000    -999.000000    -999.000000
  11 Comment line(s) follow, each starting with a "|":
| Recorder: Obsidian-4x 
| Sensor: Episensor (4 g max 5.0 v/g)
| RcrdId: US.1000hyfh.NP.8036.HNN.--
|<SCNL>8036.HNN.NP.--    <AUTH> 2018/11/03 21:54:50.000
|<PROCESS> AUTO
|<EONSET> event onset(sec)=  34.5250
|<ABLC>SF:   0.0000, EF:  34.5250, SA:   0.0000, EA: 210.0000, ORDER:  MEAN
|<ABLC>SF:   0.0000, EF: 210.0000, SA:   0.0000, EA: 210.0000, ORDER:ORDER1
|<ABLABC1>SF:   0.0000, EF:  34.5250, SA:   0.0000, EA:  34.5250, ORDER:ORDER1
|<ABLABC2>SF:  34.5250, EF: 167.5250, SA:  34.5250, EA: 167.5250, ORDER:ORDER2
|<ABLABC3>SF: 167.5250, EF: 210.0000, SA: 167.5250, EA: 210.0000, ORDER:ORDER1
   42000 acceleration pts, approx  210 secs, units=cm/sec2(04),Format=(1E15.6)
[...]
  -7.761682e+01
  -8.697138e+01
  -9.131941e+01
  -9.190942e+01
  -9.046873e+01
  -8.852022e+01
  -8.645508e+01
  -8.279328e+01
  -7.450336e+01
  -5.883752e+01
  -3.568748e+01
  -8.434229e+00
   1.774450e+01
   3.882563e+01
   5.377709e+01
   6.421042e+01
   7.281718e+01
   8.211512e+01
   9.395253e+01
   1.091797e+02
   1.271478e+02
   1.455880e+02
   1.614691e+02
   1.724581e+02
   1.779349e+02
   1.789136e+02
   1.770840e+02
   1.737232e+02
   1.692833e+02
   1.639824e+02
   1.586406e+02
   1.542712e+02
   1.501044e+02
   1.422324e+02
   1.255815e+02
   9.847321e+01
   6.524271e+01
   3.370711e+01
   9.795445e+00
  -5.598168e+00
  -1.560363e+01
  -2.443601e+01
  -3.513032e+01
  -4.855375e+01
  -6.340321e+01
  -7.715108e+01
  -8.758599e+01
  -9.390087e+01
  -9.653150e+01
  -9.604936e+01
  -9.216096e+01
  -8.369174e+01
  -6.961053e+01
  -5.026710e+01
  -2.778983e+01
  -5.309803e+00
   1.433404e+01
   2.943065e+01
   3.932031e+01
   4.379725e+01
   4.280336e+01
   3.672908e+01
   2.670598e+01
   1.421520e+01
   4.164224e-01
  -1.383473e+01
  -2.737818e+01
  -3.875068e+01
  -4.721826e+01
  -5.360622e+01
  -5.965296e+01
  -6.633542e+01
  -7.281757e+01
  -7.697861e+01
  -7.691248e+01
  -7.208239e+01
  -6.344877e+01
  -5.290262e+01
  -4.258886e+01
  -3.427215e+01
  -2.873549e+01
  -2.549041e+01
  -2.305969e+01
  -1.960600e+01
  -1.350625e+01
  -3.879005e+00
   8.821948e+00
   2.265974e+01
   3.516637e+01
   4.485497e+01
   5.181901e+01
   5.695180e+01
   6.091248e+01
   6.387159e+01
   6.578026e+01
   6.650363e+01
   6.586619e+01
   6.395898e+01
   6.143802e+01
   5.918049e+01
   5.736814e+01
   5.496004e+01
   5.035069e+01
   4.284614e+01
   3.366115e+01
   2.545518e+01
   2.072563e+01
   2.037817e+01
   2.354102e+01
   2.856066e+01
   3.423976e+01
   4.037969e+01
   4.736308e+01
   5.526845e+01
   6.329986e+01
   6.999738e+01
   7.406294e+01
   7.510922e+01
   7.368018e+01
   7.063831e+01
   6.664510e+01
   6.210272e+01
   5.721253e+01
   5.193457e+01
   4.617814e+01
   4.028416e+01
   3.516438e+01
   3.168990e+01
   2.989218e+01
   2.883446e+01
   2.725899e+01
   2.432438e+01
   1.979377e+01
   1.373538e+01
   6.268355e+00
  -2.380551e+00
  -1.176216e+01
  -2.131887e+01
  -3.063738e+01
  -3.955359e+01
  -4.800447e+01
  -5.581512e+01
  -6.271850e+01
  -6.867419e+01
  -7.412274e+01
  -7.969920e+01
  -8.545444e+01
  -9.031451e+01
  -9.247757e+01
  -9.054969e+01
  -8.440274e+01
  -7.500142e+01
  -6.350629e+01
  -5.057405e+01
  -3.638938e+01
  -2.120007e+01
  -5.754434e+00
   8.764831e+00
   2.120493e+01
   3.082907e+01
   3.730010e+01
   4.043721e+01
   4.011334e+01
   3.632215e+01
   2.917339e+01
   1.881386e+01
   5.511808e+00
  -1.014007e+01
  -2.725724e+01
  -4.496875e+01
  -6.259475e+01
  -7.956405e+01
  -9.542286e+01
  -1.100109e+02
  -1.233539e+02
  -1.351553e+02
  -1.444906e+02
  -1.501794e+02
  -1.514634e+02
  -1.482308e+02
  -1.405002e+02
  -1.276821e+02
  -1.085624e+02
  -8.248795e+01
  -5.096161e+01
  -1.799202e+01
   1.152365e+01
   3.409094e+01
   4.862567e+01
   5.572637e+01
   5.649120e+01
   5.216625e+01
   4.449000e+01
   3.561232e+01
   2.712415e+01
   1.909804e+01
   1.019492e+01
  -1.364947e+00
  -1.700062e+01
  -3.745361e+01
  -6.228971e+01
  -8.898404e+01
  -1.125607e+02
  -1.268017e+02
  -1.266945e+02
  -1.106986e+02
  -8.157631e+01
  -4.543154e+01
  -9.508925e+00
   2.009866e+01
   3.979218e+01
   4.867343e+01
   4.814305e+01
   4.121408e+01
   3.138563e+01
   2.118705e+01
   1.119939e+01
   3.034713e-01
  -1.309875e+01
  -2.995913e+01
  -5.031110e+01
  -7.359547e+01
  -9.883450e+01
  -1.244057e+02
  -1.479130e+02
  -1.667256e+02
  -1.791027e+02
  -1.851397e+02
  -1.867253e+02
  -1.864428e+02
  -1.862688e+02
  -1.870713e+02
  -1.890465e+02
  -1.922767e+02
  -1.966685e+02
  -2.015766e+02
  -2.060453e+02
  -2.096957e+02
  -2.127176e+02
  -2.137327e+02
  -2.073949e+02
  -1.859579e+02
  -1.458014e+02
  -9.304474e+01
  -4.125691e+01
  -2.463988e+00
   1.984552e+01
   3.009068e+01
   3.529009e+01
   4.084492e+01
   4.927438e+01
   6.050490e+01
   7.274270e+01
   8.381486e+01
   9.228884e+01
   9.757440e+01
   9.943048e+01
   9.793596e+01
   9.404819e+01
   8.986265e+01
   8.795610e+01
   9.021715e+01
   9.709485e+01
   1.077825e+02
   1.210518e+02
   1.360202e+02
   1.523064e+02
   1.695568e+02
   1.868671e+02
   2.027241e+02
   2.155853e+02
   2.246100e+02
   2.300038e+02
   2.328161e+02
   2.344093e+02
   2.360182e+02
   2.386402e+02
   2.428275e+02
   2.476457e+02
   2.491900e+02
   2.406877e+02
   2.157319e+02
   1.730400e+02
   1.186683e+02
   6.322802e+01
   1.606927e+01
  -1.909636e+01
  -4.437830e+01
  -6.452974e+01
  -8.324996e+01
  -1.012978e+02
  -1.169308e+02
  -1.275613e+02
  -1.311479e+02
  -1.267436e+02
  -1.145965e+02
  -9.618779e+01
  -7.409941e+01
  -5.153912e+01
  -3.161412e+01
  -1.654661e+01
  -7.178577e+00
  -3.279422e+00
  -4.601288e+00
  -1.160377e+01
  -2.493587e+01
  -4.432306e+01
  -6.834881e+01
  -9.549038e+01
  -1.251701e+02
  -1.575355e+02
  -1.921714e+02
  -2.271944e+02
  -2.597769e+02
  -2.875810e+02
  -3.096421e+02
  -3.257960e+02
  -3.350791e+02
  -3.348138e+02
  -3.222038e+02
  -2.974040e+02
  -2.636787e+02
  -2.233324e+02
  -1.753412e+02
  -1.191531e+02
  -5.916607e+01
  -2.775115e+00
   4.542083e+01
   8.597701e+01
   1.221810e+02
   1.565944e+02
   1.890161e+02
   2.162797e+02
   2.340994e+02
   2.401619e+02
   2.360382e+02
   2.261512e+02
   2.147504e+02
   2.036064e+02
   1.922265e+02
   1.797152e+02
   1.656915e+02
   1.492187e+02
   1.278923e+02
   9.944482e+01
   6.459443e+01
   2.757429e+01
  -6.594526e+00
  -3.516913e+01
  -5.816201e+01
  -7.651935e+01
  -9.045612e+01
  -9.946598e+01
  -1.032917e+02
  -1.023869e+02
  -9.753759e+01
  -8.943152e+01
  -7.873562e+01
  -6.638173e+01
  -5.349339e+01
  -4.089928e+01
  -2.872439e+01
  -1.648440e+01
  -3.583640e+00
   1.021939e+01
   2.465979e+01
   3.904288e+01
   5.229465e+01
   6.289301e+01
   6.892003e+01
   6.859800e+01
   6.122588e+01
   4.773506e+01
   3.021504e+01
   1.091928e+01
  -8.173621e+00
  -2.519387e+01
  -3.854699e+01
  -4.767082e+01
  -5.344261e+01
  -5.747873e+01
  -6.085614e+01
  -6.344921e+01
  -6.441253e+01
  -6.326060e+01
  -6.059769e+01
  -5.797133e+01
  -5.705236e+01
  -5.883757e+01
  -6.346528e+01
  -7.061023e+01
  -7.987971e+01
  -9.072007e+01
  -1.019677e+02
  -1.116864e+02
  -1.177408e+02
  -1.187987e+02
  -1.149619e+02
  -1.075302e+02
  -9.810402e+01
  -8.768361e+01
  -7.637186e+01
  -6.378264e+01
  -4.966206e+01
  -3.415587e+01
  -1.764009e+01
  -4.213543e-01
   1.741645e+01
   3.593334e+01
   5.513533e+01
   7.490944e+01
   9.517185e+01
   1.159366e+02
   1.370441e+02
   1.578540e+02
   1.774994e+02
   1.956376e+02
   2.127212e+02
   2.291583e+02
   2.442467e+02
   2.563248e+02
   2.641280e+02
   2.678540e+02
   2.690106e+02
   2.696099e+02
   2.712888e+02
   2.738191e+02
   2.729959e+02
   2.603757e+02
   2.275958e+02
   1.732659e+02
   1.058129e+02
   3.862990e+01
  -1.799855e+01
  -6.090765e+01
  -9.225489e+01
  -1.157336e+02
  -1.340771e+02
  -1.479673e+02
  -1.556842e+02
  -1.538505e+02
  -1.395560e+02
  -1.127517e+02
  -7.701398e+01
  -3.787227e+01
  -7.005993e-02
   3.392305e+01
   6.331768e+01
   8.764764e+01
   1.062139e+02
   1.183804e+02
   1.238045e+02
   1.222902e+02
   1.138142e+02
   9.904520e+01
   7.980240e+01
   5.869346e+01
   3.797333e+01
   1.859589e+01
   3.839427e-01
  -1.695496e+01
  -3.326633e+01
  -4.849659e+01
  -6.338413e+01
  -7.903372e+01
  -9.562779e+01
  -1.117303e+02
  -1.250166e+02
  -1.338066e+02
  -1.381561e+02
  -1.398069e+02
  -1.412092e+02
  -1.443593e+02
  -1.501265e+02
  -1.583062e+02
  -1.681978e+02
  -1.792249e+02
  -1.911356e+02
  -2.036682e+02
  -2.160926e+02
  -2.272736e+02
  -2.363881e+02
  -2.433768e+02
  -2.480035e+02
  -2.480597e+02
  -2.391999e+02
  -2.180101e+02
  -1.860294e+02
  -1.502229e+02
  -1.186484e+02
  -9.532619e+01
  -7.889145e+01
  -6.519058e+01
  -5.055559e+01
  -3.326151e+01
  -1.315434e+01
   9.311063e+00
   3.358518e+01
   5.883075e+01
   8.358074e+01
   1.060822e+02
   1.253822e+02
   1.420963e+02
   1.579543e+02
   1.746389e+02
   1.930843e+02
   2.134454e+02
   2.351342e+02
   2.567677e+02
   2.763832e+02
   2.919269e+02
   3.017569e+02
   3.051498e+02
   3.026311e+02
   2.954012e+02
   2.835858e+02
   2.646201e+02
   2.339391e+02
   1.885380e+02
   1.306977e+02
   6.792747e+01
   8.588214e+00
  -4.268611e+01
  -8.570022e+01
  -1.220349e+02
  -1.524736e+02
  -1.764243e+02
  -1.924691e+02
  -1.987663e+02
  -1.933873e+02
  -1.752272e+02
  -1.452471e+02
  -1.069860e+02
  -6.567659e+01
  -2.640113e+01
   7.598447e+00
   3.549185e+01
   5.814232e+01
   7.679474e+01
   9.203427e+01
   1.033205e+02
   1.090540e+02
   1.072965e+02
   9.706426e+01
   7.935553e+01
   5.698383e+01
   3.334515e+01
   1.117532e+01
  -7.987666e+00
  -2.384219e+01
  -3.720372e+01
  -4.947260e+01
  -6.148460e+01
  -7.253606e+01
  -8.067423e+01
  -8.404633e+01
  -8.193178e+01
  -7.474765e+01
  -6.367212e+01
  -5.055216e+01
  -3.777417e+01
  -2.756559e+01
  -2.105822e+01
  -1.799626e+01
  -1.736539e+01
  -1.824235e+01
  -2.003100e+01
  -2.204561e+01
  -2.315724e+01
  -2.214435e+01
  -1.856585e+01
  -1.320768e+01
  -7.400312e+00
  -1.764121e+00
   4.241706e+00
   1.144857e+01
   1.987372e+01
   2.873088e+01
   3.745117e+01
   4.634348e+01
   5.604070e+01
   6.642248e+01
   7.631061e+01
   8.425731e+01
   8.949809e+01
   9.208915e+01
   9.230536e+01
   9.017559e+01
   8.564917e+01
   7.895193e+01
   7.054083e+01
   6.080880e+01
   5.006858e+01
   3.881514e+01
   2.781987e+01
   1.794764e+01
   1.003360e+01
   4.978929e+00
   3.782539e+00
   7.202427e+00
   1.516213e+01
   2.640684e+01
   3.884117e+01
   5.042421e+01
   5.997249e+01
   6.730609e+01
   7.277968e+01
   7.669655e+01
   7.901980e+01
   7.946792e+01
   7.787451e+01
   7.454383e+01
   7.024150e+01
   6.574636e+01
   6.144000e+01
   5.744257e+01
   5.410238e+01
   5.216516e+01
   5.238734e+01
   5.503092e+01
   5.966011e+01
   6.520042e+01
   7.011646e+01
   7.280876e+01
   7.229101e+01
   6.878260e+01
   6.366615e+01
   5.871685e+01
   5.510909e+01
   5.274186e+01
   5.004125e+01
   4.424586e+01
   3.227105e+01
   1.204868e+01
  -1.627248e+01
  -5.008491e+01
  -8.534083e+01
  -1.182309e+02
  -1.464519e+02
  -1.693986e+02
  -1.874725e+02
  -2.012138e+02
  -2.108494e+02
  -2.163997e+02
  -2.181050e+02
  -2.167826e+02
  -2.137617e+02
  -2.103112e+02
  -2.068923e+02
  -2.026951e+02
  -1.956803e+02
  -1.832687e+02
  -1.636835e+02
  -1.371808e+02
  -1.059637e+02
  -7.274308e+01
  -3.938712e+01
  -6.699865e+00
   2.517770e+01
   5.652726e+01
   8.777723e+01
   1.188350e+02
   1.486672e+02
   1.759985e+02
   2.005963e+02
   2.234271e+02
   2.451175e+02
   2.645829e+02
   2.798981e+02
   2.905741e+02
   2.982753e+02
   3.049790e+02
   3.109703e+02
   3.150291e+02
   3.161156e+02
   3.143919e+02
   3.109157e+02
   3.066298e+02
   3.007852e+02
   2.891270e+02
   2.641075e+02
   2.192766e+02
   1.553399e+02
   8.159243e+01
   1.028061e+01
  -5.087418e+01
  -1.013928e+02
  -1.453924e+02
  -1.874563e+02
  -2.296331e+02
  -2.700984e+02
  -3.044605e+02
  -3.298863e+02
  -3.480443e+02
  -3.624473e+02
  -3.737536e+02
  -3.805855e+02
  -3.837466e+02
  -3.849654e+02
  -3.808988e+02
  -3.619304e+02
  -3.190018e+02
  -2.518303e+02
  -1.707934e+02
  -9.120242e+01
  -2.538414e+01
   2.154660e+01
   5.141173e+01
   7.052291e+01
   8.626984e+01
   1.034486e+02
   1.223329e+02
   1.397594e+02
   1.517502e+02
   1.553959e+02
   1.495052e+02
   1.348126e+02
   1.139844e+02
   9.087446e+01
   6.893520e+01
   4.994056e+01
   3.442716e+01
   2.341998e+01
   1.906389e+01
   2.290353e+01
   3.383021e+01
   4.844913e+01
   6.345891e+01
   7.708220e+01
   8.815717e+01
   9.460159e+01
   9.343855e+01
   8.256938e+01
   6.270400e+01
   3.759731e+01
   1.204264e+01
  -1.075507e+01
  -3.007767e+01
  -4.654462e+01
  -6.075720e+01
  -7.297249e+01
  -8.316663e+01
  -9.076011e+01
  -9.456350e+01
  -9.358511e+01
  -8.799777e+01
  -7.903568e+01
  -6.788660e+01
  -5.494820e+01
  -4.022076e+01
  -2.400838e+01
  -6.880106e+00
   1.080081e+01
   2.880618e+01
   4.650100e+01
   6.278347e+01
   7.670422e+01
   8.794887e+01
   9.670806e+01
   1.033504e+02
   1.083459e+02
   1.122719e+02
   1.155244e+02
   1.178782e+02
   1.185186e+02
   1.167379e+02
   1.125813e+02
   1.066720e+02
   9.942810e+01
   9.061918e+01
   7.974520e+01
   6.668874e+01
   5.183029e+01
   3.565299e+01
   1.856922e+01
   1.251595e+00
  -1.510465e+01
  -2.911343e+01
  -3.986032e+01
  -4.726651e+01
  -5.192390e+01
  -5.469156e+01
  -5.645151e+01
  -5.810055e+01
  -6.048497e+01
  -6.408513e+01
  -6.872589e+01
  -7.365737e+01
  -7.787916e+01
  -8.037639e+01
  -8.026443e+01
  -7.698361e+01
  -7.042477e+01
  -6.086102e+01
  -4.885460e+01
  -3.520846e+01
  -2.073996e+01
  -5.972142e+00
   8.698789e+00
   2.226471e+01
   3.265451e+01
   3.744944e+01
   3.543427e+01
   2.750003e+01
   1.583856e+01
   2.195017e+00
  -1.302050e+01
  -3.010649e+01
  -4.901395e+01
  -6.905971e+01
  -8.936949e+01
  -1.092603e+02
  -1.281820e+02
  -1.455630e+02
  -1.610071e+02
  -1.746734e+02
  -1.871574e+02
  -1.986441e+02
  -2.081210e+02
  -2.135917e+02
  -2.132133e+02
  -2.063510e+02
  -1.937299e+02
  -1.768060e+02
  -1.570968e+02
  -1.359381e+02
  -1.144145e+02
  -9.306408e+01
  -7.156646e+01
  -4.903745e+01
  -2.503606e+01
  -4.762690e-01
   2.248221e+01
   4.153926e+01
   5.535481e+01
   6.378008e+01
   6.738990e+01
   6.708611e+01
   6.404307e+01
   5.957231e+01
   5.466111e+01
   4.960929e+01
   4.419370e+01
   3.808388e+01
   3.096278e+01
   2.241561e+01
   1.210506e+01
   2.933218e-01
  -1.183551e+01
  -2.243017e+01
  -2.959856e+01
  -3.202039e+01
  -2.937999e+01
  -2.255331e+01
  -1.340412e+01
  -4.166258e+00
   3.266416e+00
   7.762670e+00
   9.087376e+00
   7.953815e+00
   5.916861e+00
   4.839752e+00
   6.044537e+00
   9.738748e+00
   1.520483e+01
   2.152821e+01
   2.809316e+01
   3.446460e+01
   4.016702e+01
   4.491610e+01
   4.891936e+01
   5.251087e+01
   5.534884e+01
   5.624529e+01
   5.405053e+01
   4.867534e+01
   4.110197e+01
   3.246271e+01
   2.336308e+01
   1.415665e+01
   5.523717e+00
  -1.644404e+00
  -6.980407e+00
  -1.104257e+01
  -1.494464e+01
  -1.973484e+01
  -2.606873e+01
  -3.409138e+01
  -4.325362e+01
  -5.219957e+01
  -5.917622e+01
  -6.304087e+01
  -6.413749e+01
  -6.417063e+01
  -6.516351e+01
  -6.839762e+01
  -7.386287e+01
  -8.012154e+01
  -8.462592e+01
  -8.468966e+01
  -7.872800e+01
  -6.693130e+01
  -5.103486e+01
  -3.351678e+01
  -1.659015e+01
  -1.249754e+00
   1.316549e+01
   2.847047e+01
   4.640082e+01
   6.748241e+01
   9.075572e+01
   1.143484e+02
   1.362128e+02
   1.545063e+02
   1.678035e+02
   1.755008e+02
   1.781335e+02
   1.769438e+02
   1.727462e+02
   1.651562e+02
   1.531261e+02
   1.363460e+02
   1.160408e+02
   9.431685e+01
   7.277481e+01
   5.181246e+01
   3.123792e+01
   1.145723e+01
  -6.056913e+00
  -1.954213e+01
  -2.817373e+01
  -3.255504e+01
  -3.422469e+01
  -3.483692e+01
  -3.552375e+01
  -3.651392e+01
  -3.710237e+01
  -3.605509e+01
  -3.222048e+01
  -2.503232e+01
  -1.482813e+01
  -2.960739e+00
   8.462121e+00
   1.725045e+01
   2.190756e+01
   2.209527e+01
   1.859634e+01
   1.285013e+01
   6.316879e+00
  -1.264656e-02
  -5.753525e+00
  -1.093400e+01
  -1.570430e+01
  -2.018550e+01
  -2.447927e+01
  -2.866239e+01
  -3.263687e+01
  -3.588128e+01
  -3.727840e+01
  -3.526504e+01
  -2.844826e+01
  -1.643773e+01
  -2.905901e-01
   1.783743e+01
   3.559618e+01
   5.124056e+01
   6.382477e+01
   7.278063e+01
   7.731746e+01
   7.624725e+01
   6.853555e+01
   5.421812e+01
   3.488180e+01
   1.319380e+01
  -8.225725e+00
  -2.772888e+01
  -4.476490e+01
  -5.940375e+01
  -7.186346e+01
  -8.227615e+01
  -9.051389e+01
  -9.611823e+01
  -9.867768e+01
  -9.853416e+01
  -9.698344e+01
  -9.541838e+01
  -9.407522e+01
  -9.165462e+01
  -8.623284e+01
  -7.656936e+01
  -6.270197e+01
  -4.567733e+01
  -2.703194e+01
  -8.387365e+00
   8.979608e+00
   2.455867e+01
   3.859616e+01
   5.153339e+01
