Corrected acceleration    (Format v01.20 with 13 text lines)
Record of Point MacKenzie Earthquake of Fri Nov 30, 2018 17:29 UTC
Hypocenter: 61.34000 -149.93660 H= 40km Mw=7.0
Origin: 2018/11/30 17:29:28    UTC
Statn No: 02-008021 Code:NP-8021   USGS  AK:Anchorage;Klatt Elem Sch
Coords: 61.1129 -149.9095  Site geology:
Recorder: (see cmnt)      ( 3 Chns of   3 at Sta) Sensor: (see comment)    
Rcrd start time: 2018/11/30 17:29:05.306 UTC (Q=5) RcrdId: (see comment)
Sta Chan   3: 90 Deg (Rcrdr Chan  ?) Location:Ground
Raw record length = 205.695 sec, Uncor max =    276505, at  48.105 sec.
Processed:2018-12-03 21:59:46 GMT, UNKN, Max = -120.510 cm/sec2 at   46.900 sec
Record filtered below  0.10 Hz (periods over 10.00 secs), and above 40.0 Hz
Values used when parameter or data value is unknown/unspecified:   -999, -999.00
 100 Integer-header values follow on  10 lines, Format= (10I8)
       2       1       4     120       1    -999    -999    8021    -999    -999
       2       2    -999       8    -999       1    -999    -999       4    -999
    -999       1       3    -999    -999    -999    -999    -999    -999    1000
       3     293       3    -999       0       0    -999    -999    -999    2018
     334      11      30      17      29       5       5    -999    -999       3
    -999      20    -999      90    -999    -999    -999    -999    -999    -999
       5       5    -999       1    -999    -999    -999    -999    -999    -999
    -999    -999    -999    -999       1       0    -999    -999    -999    -999
    -999    -999    -999    -999    -999    -999    -999    -999    -999    -999
    -999    -999    -999    -999    -999    -999    -999    -999    -999    -999
 100 Real-header values follow on  20 lines, Format= (5F15.6)
      61.112900    -149.909500      21.000000    -999.000000    -999.000000
    -999.000000    -999.000000    -999.000000    -999.000000      61.340000
    -149.936600      40.900000       7.000000    -999.000000    -999.000000
    -999.000000      25.293988     176.712583    -999.000000    -999.000000
    -999.000000       2.384188       0.000000      30.000000     175.693952
      80.000000    -999.000000    -999.000000    -999.000000       5.306050
    -999.000000       0.000000    -999.000000       0.005000     205.695000
      14.216594    -999.000000    -999.000000    -999.000000     223.976073
       0.697089       4.972000      19.888000       4.000000      80.000000
    -999.000000       1.000000    -999.000000    -999.000000    -999.000000
    -999.000000    -999.000000    -999.000000       0.100000    -999.000000
    -999.000000      40.000000    -999.000000    -999.000000    -999.000000
    -999.000000       5.000000     205.693952    -120.510062      46.900000
      -0.000206    -999.000000       0.000019      -0.000049    -999.000000
    -999.000000    -999.000000    -999.000000    -999.000000    -999.000000
    -999.000000    -999.000000    -999.000000    -999.000000      13.960000
      16.875000       0.507050       5.411257    -999.000000       0.389934
    -999.000000    -999.000000     980.665000    -999.000000    -999.000000
    -999.000000    -999.000000    -999.000000    -999.000000    -999.000000
    -999.000000    -999.000000    -999.000000    -999.000000    -999.000000
   8 Comment line(s) follow, each starting with a "|":
| Recorder: Basalt-4x 
| Sensor: Episensor (4 g max 5.0 v/g)
| RcrdId: US.1000hyfh.NP.8021.HNE.--
|<SCNL>8021.HNE.NP.--    <AUTH> 2018/11/03 21:54:49.000
|<PROCESS> AUTO
|<EONSET> event onset(sec)=  34.6200
|<ABLC>SF:   0.0000, EF:  34.6200, SA:   0.0000, EA: 205.6950, ORDER:  MEAN
|<ABLC>SF:   0.0000, EF: 205.6950, SA:   0.0000, EA: 205.6950, ORDER:ORDER1
   41139 acceleration pts, approx  205 secs, units=cm/sec2(04),Format=(1E15.6)
[...]
  -2.991111e+01
  -4.108679e+01
  -5.062685e+01
  -5.778860e+01
  -6.208001e+01
  -6.379741e+01
  -6.375830e+01
  -6.278715e+01
  -6.173786e+01
  -6.172065e+01
  -6.366709e+01
  -6.748074e+01
  -7.195288e+01
  -7.565144e+01
  -7.764376e+01
  -7.740834e+01
  -7.467143e+01
  -6.978292e+01
  -6.391200e+01
  -5.818460e+01
  -5.241671e+01
  -4.503903e+01
  -3.455485e+01
  -2.101098e+01
  -5.989258e+00
   8.586693e+00
   2.132670e+01
   3.112857e+01
   3.655531e+01
   3.605440e+01
   2.908947e+01
   1.694671e+01
   2.262348e+00
  -1.215718e+01
  -2.399089e+01
  -3.138569e+01
  -3.323160e+01
  -3.003440e+01
  -2.419688e+01
  -1.870230e+01
  -1.518029e+01
  -1.329527e+01
  -1.180882e+01
  -9.825452e+00
  -7.119863e+00
  -3.937509e+00
  -8.537392e-01
   1.471686e+00
   2.719418e+00
   3.031337e+00
   2.732721e+00
   2.233255e+00
   2.211341e+00
   3.390615e+00
   5.724795e+00
   7.921501e+00
   8.082273e+00
   4.950211e+00
  -1.365697e+00
  -9.666860e+00
  -1.854727e+01
  -2.720599e+01
  -3.566884e+01
  -4.428757e+01
  -5.296016e+01
  -6.080205e+01
  -6.653437e+01
  -6.912277e+01
  -6.807062e+01
  -6.327788e+01
  -5.484897e+01
  -4.321510e+01
  -2.949699e+01
  -1.561653e+01
  -3.756658e+00
   4.644343e+00
   9.654730e+00
   1.270749e+01
   1.549956e+01
   1.859912e+01
   2.076233e+01
   1.961646e+01
   1.346241e+01
   3.054643e+00
  -7.998907e+00
  -1.482129e+01
  -1.401019e+01
  -5.581629e+00
   7.426906e+00
   2.121378e+01
   3.319495e+01
   4.223273e+01
   4.780163e+01
   4.964226e+01
   4.809797e+01
   4.412703e+01
   3.874976e+01
   3.277768e+01
   2.707578e+01
   2.249750e+01
   1.910625e+01
   1.569463e+01
   1.061266e+01
   3.258808e+00
  -5.477965e+00
  -1.442517e+01
  -2.357379e+01
  -3.397698e+01
  -4.616043e+01
  -5.899168e+01
  -7.045813e+01
  -7.941940e+01
  -8.622153e+01
  -9.167698e+01
  -9.601303e+01
  -9.906235e+01
  -1.009945e+02
  -1.022795e+02
  -1.029243e+02
  -1.021032e+02
  -9.873552e+01
  -9.237169e+01
  -8.344820e+01
  -7.279009e+01
  -6.109226e+01
  -4.891165e+01
  -3.679139e+01
  -2.495816e+01
  -1.290677e+01
   3.495287e-01
   1.541434e+01
   3.195665e+01
   4.895681e+01
   6.523272e+01
   7.969601e+01
   9.146981e+01
   1.000535e+02
   1.052180e+02
   1.064739e+02
   1.027713e+02
   9.317176e+01
   7.811209e+01
   5.993509e+01
   4.195973e+01
   2.688254e+01
   1.594955e+01
   9.381737e+00
   7.173028e+00
   9.242452e+00
   1.500024e+01
   2.313156e+01
   3.194413e+01
   3.984657e+01
   4.553243e+01
   4.802545e+01
   4.694750e+01
   4.295667e+01
   3.786337e+01
   3.403823e+01
   3.334310e+01
   3.632546e+01
   4.221635e+01
   4.951371e+01
   5.648389e+01
   6.132871e+01
   6.244166e+01
   5.904487e+01
   5.167624e+01
   4.181788e+01
   3.091529e+01
   1.980852e+01
   9.013281e+00
  -8.275259e-01
  -9.082337e+00
  -1.563985e+01
  -2.099515e+01
  -2.576400e+01
  -3.034077e+01
  -3.515852e+01
  -4.097957e+01
  -4.846285e+01
  -5.735846e+01
  -6.644185e+01
  -7.440852e+01
  -8.059521e+01
  -8.463604e+01
  -8.575142e+01
  -8.293693e+01
  -7.591041e+01
  -6.540916e+01
  -5.241544e+01
  -3.767664e+01
  -2.241983e+01
  -8.910750e+00
   7.456406e-01
   6.562330e+00
   1.090286e+01
   1.655346e+01
   2.469512e+01
   3.443243e+01
   4.357302e+01
   4.975040e+01
   5.158148e+01
   4.951376e+01
   4.560285e+01
   4.216759e+01
   4.050619e+01
   4.070712e+01
   4.224924e+01
   4.451837e+01
   4.700081e+01
   4.936785e+01
   5.141055e+01
   5.273455e+01
   5.259842e+01
   5.030377e+01
   4.575343e+01
   3.943646e+01
   3.196955e+01
   2.403286e+01
   1.680388e+01
   1.206184e+01
   1.156176e+01
   1.621403e+01
   2.565544e+01
   3.831537e+01
   5.187689e+01
   6.392399e+01
   7.240105e+01
   7.572660e+01
   7.286454e+01
   6.355798e+01
   4.840254e+01
   2.852386e+01
   5.310357e+00
  -1.933316e+01
  -4.267501e+01
  -6.167869e+01
  -7.428452e+01
  -8.032315e+01
  -8.131027e+01
  -7.952833e+01
  -7.712649e+01
  -7.552764e+01
  -7.525492e+01
  -7.618062e+01
  -7.769926e+01
  -7.846121e+01
  -7.645691e+01
  -7.030107e+01
  -6.064495e+01
  -4.981672e+01
  -4.002813e+01
  -3.243583e+01
  -2.773359e+01
  -2.648100e+01
  -2.818583e+01
  -3.072345e+01
  -3.157576e+01
  -2.974139e+01
  -2.612621e+01
  -2.215086e+01
  -1.830412e+01
  -1.402448e+01
  -8.614459e+00
  -2.059564e+00
   4.882613e+00
   1.119609e+01
   1.629591e+01
   2.040621e+01
   2.422902e+01
   2.813250e+01
   3.178994e+01
   3.476246e+01
   3.726697e+01
   4.013972e+01
   4.412273e+01
   4.935396e+01
   5.545229e+01
   6.186061e+01
   6.805353e+01
   7.354163e+01
   7.777362e+01
   8.002378e+01
   7.937818e+01
   7.496630e+01
   6.639050e+01
   5.403319e+01
   3.899232e+01
   2.274376e+01
   6.798172e+00
  -7.492426e+00
  -1.899101e+01
  -2.681587e+01
  -3.049883e+01
  -3.025454e+01
  -2.715160e+01
  -2.292897e+01
  -1.936608e+01
  -1.745641e+01
  -1.702455e+01
  -1.730083e+01
  -1.798782e+01
  -1.957781e+01
  -2.243596e+01
  -2.576324e+01
  -2.785757e+01
  -2.750627e+01
  -2.487828e+01
  -2.093517e+01
  -1.625040e+01
  -1.067814e+01
  -4.057677e+00
   3.018684e+00
   9.165922e+00
   1.283648e+01
   1.308505e+01
   1.004965e+01
   5.001030e+00
  -1.300671e-01
  -3.739589e+00
  -5.542738e+00
  -6.645831e+00
  -8.322049e+00
  -1.045094e+01
  -1.124141e+01
  -8.774583e+00
  -2.978420e+00
   3.925366e+00
   8.870435e+00
   9.765870e+00
   6.123951e+00
  -1.555628e+00
  -1.254634e+01
  -2.591522e+01
  -3.998603e+01
  -5.220219e+01
  -5.998471e+01
  -6.200225e+01
  -5.863676e+01
  -5.119177e+01
  -4.071216e+01
  -2.759502e+01
  -1.219997e+01
   4.277777e+00
   1.942760e+01
   3.009411e+01
   3.369802e+01
   2.977856e+01
   2.055532e+01
   9.829169e+00
   9.776438e-01
  -4.433740e+00
  -6.601147e+00
  -6.439339e+00
  -4.657070e+00
  -1.768022e+00
   1.176295e+00
   2.301807e+00
  -1.285724e-01
  -6.326563e+00
  -1.468927e+01
  -2.280532e+01
  -2.853571e+01
  -3.041969e+01
  -2.786535e+01
  -2.149144e+01
  -1.303816e+01
  -4.347828e+00
   3.825434e+00
   1.188288e+01
   2.024381e+01
   2.834398e+01
   3.484679e+01
   3.865342e+01
   3.951411e+01
   3.774595e+01
   3.369505e+01
   2.773570e+01
   2.068906e+01
   1.389827e+01
   8.724024e+00
   6.041744e+00
   6.178306e+00
   9.036820e+00
   1.412381e+01
   2.067170e+01
   2.796628e+01
   3.542745e+01
   4.214704e+01
   4.652848e+01
   4.685669e+01
   4.242534e+01
   3.394449e+01
   2.283119e+01
   1.041611e+01
  -2.014892e+00
  -1.276459e+01
  -1.981412e+01
  -2.161102e+01
  -1.787313e+01
  -9.812986e+00
   2.509408e-01
   9.628549e+00
   1.603156e+01
   1.806199e+01
   1.529578e+01
   8.222219e+00
  -1.779711e+00
  -1.274099e+01
  -2.290759e+01
  -3.149359e+01
  -3.860349e+01
  -4.446352e+01
  -4.890460e+01
  -5.155800e+01
  -5.223491e+01
  -5.093430e+01
  -4.774238e+01
  -4.313796e+01
  -3.842628e+01
  -3.540679e+01
  -3.506690e+01
  -3.638992e+01
  -3.658779e+01
  -3.277600e+01
  -2.370088e+01
  -1.017039e+01
   5.803252e+00
   2.208915e+01
   3.695880e+01
   4.909113e+01
   5.742886e+01
   6.110047e+01
   5.953234e+01
   5.279948e+01
   4.200760e+01
   2.932368e+01
   1.743728e+01
   8.651613e+00
   4.164106e+00
   3.979815e+00
   7.281114e+00
   1.273243e+01
   1.864374e+01
   2.336358e+01
   2.590201e+01
   2.626542e+01
   2.527595e+01
   2.423929e+01
   2.471590e+01
   2.817490e+01
   3.540823e+01
   4.607665e+01
   5.878998e+01
   7.165195e+01
   8.289583e+01
   9.133516e+01
   9.648664e+01
   9.828288e+01
   9.659104e+01
   9.111067e+01
   8.195741e+01
   7.038512e+01
   5.867958e+01
   4.899307e+01
   4.212682e+01
   3.753341e+01
   3.455832e+01
   3.349174e+01
   3.516157e+01
   3.950518e+01
   4.476954e+01
   4.826200e+01
   4.788238e+01
   4.297888e+01
   3.393999e+01
   2.125076e+01
   5.164323e+00
  -1.365476e+01
  -3.325367e+01
  -5.028752e+01
  -6.103324e+01
  -6.301671e+01
  -5.627696e+01
  -4.337981e+01
  -2.801693e+01
  -1.310329e+01
   1.865443e-01
   1.178058e+01
   2.134178e+01
   2.773217e+01
   2.986338e+01
   2.789518e+01
   2.344337e+01
   1.866296e+01
   1.511152e+01
   1.313744e+01
   1.197375e+01
   1.049080e+01
   8.266143e+00
   6.152334e+00
   5.703253e+00
   7.905722e+00
   1.245516e+01
   1.822588e+01
   2.428735e+01
   3.033014e+01
   3.610700e+01
   4.059830e+01
   4.200668e+01
   3.887609e+01
   3.131231e+01
   2.103179e+01
   1.024762e+01
   6.142651e-01
  -6.900896e+00
  -1.158936e+01
  -1.286737e+01
  -1.065307e+01
  -5.736175e+00
   3.193001e-01
   5.618271e+00
   8.429113e+00
   7.745802e+00
   3.885011e+00
  -1.398208e+00
  -5.720019e+00
  -7.343015e+00
  -5.852123e+00
  -1.769183e+00
   4.240126e+00
   1.165888e+01
   1.980097e+01
   2.751024e+01
   3.337234e+01
   3.632882e+01
   3.624792e+01
   3.406880e+01
   3.134080e+01
   2.929431e+01
   2.801317e+01
   2.642042e+01
   2.319160e+01
   1.782363e+01
   1.096058e+01
   3.844646e+00
  -2.539478e+00
  -8.016195e+00
  -1.319204e+01
  -1.896100e+01
  -2.595027e+01
  -3.431722e+01
  -4.397637e+01
  -5.492124e+01
  -6.714294e+01
  -8.004191e+01
  -9.198109e+01
  -1.007494e+02
  -1.047512e+02
  -1.038505e+02
  -9.913348e+01
  -9.191817e+01
  -8.293974e+01
  -7.232553e+01
  -6.020242e+01
  -4.730464e+01
  -3.507741e+01
  -2.518218e+01
  -1.864040e+01
  -1.507672e+01
  -1.263474e+01
  -8.891570e+00
  -2.349073e+00
   6.596484e+00
   1.597563e+01
   2.342044e+01
   2.709890e+01
   2.596891e+01
   1.980253e+01
   9.347256e+00
  -3.650386e+00
  -1.688770e+01
  -2.819589e+01
  -3.606106e+01
  -3.990252e+01
  -4.012948e+01
  -3.775996e+01
  -3.361689e+01
  -2.769721e+01
  -1.924305e+01
  -7.421568e+00
   7.776668e+00
   2.487258e+01
   4.111536e+01
   5.387521e+01
   6.228487e+01
   6.757002e+01
   7.171957e+01
   7.592428e+01
   8.026714e+01
   8.451363e+01
   8.874507e+01
   9.315280e+01
   9.743002e+01
   1.005154e+02
   1.009841e+02
   9.779558e+01
   9.076269e+01
   8.030071e+01
   6.679721e+01
   5.049645e+01
   3.222521e+01
   1.414939e+01
  -5.250998e-01
  -9.000313e+00
  -1.038147e+01
  -6.011242e+00
   1.460205e+00
   9.331529e+00
   1.562935e+01
   1.935665e+01
   2.040778e+01
   1.923082e+01
   1.645361e+01
   1.277065e+01
   9.025238e+00
   6.158390e+00
   4.945702e+00
   5.738227e+00
   8.411569e+00
   1.256984e+01
   1.783694e+01
   2.394684e+01
   3.056699e+01
   3.710614e+01
   4.273383e+01
   4.658503e+01
   4.798309e+01
   4.655827e+01
   4.223192e+01
   3.510184e+01
   2.536496e+01
   1.345219e+01
   2.633568e-01
  -1.293578e+01
  -2.510787e+01
  -3.599908e+01
  -4.599901e+01
  -5.534696e+01
  -6.344963e+01
  -6.899254e+01
  -7.070712e+01
  -6.803997e+01
  -6.126958e+01
  -5.132750e+01
  -3.968741e+01
  -2.818594e+01
  -1.851700e+01
  -1.165921e+01
  -7.718985e+00
  -6.184772e+00
  -6.234399e+00
  -6.977808e+00
  -7.709832e+00
  -8.064952e+00
  -7.901509e+00
  -7.025067e+00
  -5.099505e+00
  -1.963902e+00
   1.819964e+00
   4.695687e+00
   4.572343e+00
  -1.054160e-01
  -9.490219e+00
  -2.240686e+01
  -3.716937e+01
  -5.230059e+01
  -6.670296e+01
  -7.942158e+01
  -8.919595e+01
  -9.407728e+01
  -9.179257e+01
  -8.123152e+01
  -6.398933e+01
  -4.409821e+01
  -2.565901e+01
  -1.059124e+01
   1.177125e+00
   9.595234e+00
   1.324745e+01
   1.053381e+01
   1.707571e+00
  -1.074582e+01
  -2.374492e+01
  -3.538644e+01
  -4.526692e+01
  -5.365664e+01
  -6.079417e+01
  -6.683766e+01
  -7.206330e+01
  -7.693424e+01
  -8.206121e+01
  -8.804862e+01
  -9.518495e+01
  -1.031938e+02
  -1.112040e+02
  -1.177142e+02
  -1.205101e+02
  -1.171029e+02
  -1.059783e+02
  -8.774279e+01
  -6.496555e+01
  -4.084748e+01
  -1.801433e+01
   1.800888e+00
   1.758454e+01
   2.896747e+01
   3.630842e+01
   4.073163e+01
   4.391468e+01
   4.746408e+01
   5.209127e+01
   5.727930e+01
   6.183971e+01
   6.480801e+01
   6.579972e+01
   6.474251e+01
   6.165745e+01
   5.685934e+01
   5.119229e+01
   4.582202e+01
   4.165967e+01
   3.890996e+01
   3.709015e+01
   3.538893e+01
   3.300263e+01
   2.933643e+01
   2.420997e+01
   1.802900e+01
   1.164790e+01
   5.899572e+00
   1.239346e+00
  -2.106007e+00
  -3.723507e+00
  -2.970652e+00
   4.535341e-01
   5.822310e+00
   1.128808e+01
   1.452865e+01
   1.363238e+01
   7.707588e+00
  -2.880992e+00
  -1.660570e+01
  -3.128462e+01
  -4.487699e+01
  -5.601036e+01
  -6.385943e+01
  -6.774933e+01
  -6.716360e+01
  -6.222006e+01
  -5.394237e+01
  -4.382258e+01
  -3.309984e+01
  -2.260950e+01
  -1.326869e+01
  -6.297744e+00
  -2.614425e+00
  -2.105485e+00
  -3.786295e+00
  -6.667367e+00
  -1.022772e+01
  -1.411707e+01
  -1.788428e+01
  -2.131797e+01
  -2.482144e+01
  -2.906718e+01
  -3.426283e+01
  -3.993546e+01
  -4.532612e+01
  -4.966999e+01
  -5.209865e+01
  -5.173776e+01
  -4.827528e+01
  -4.232804e+01
  -3.506635e+01
  -2.766891e+01
  -2.134130e+01
  -1.750366e+01
  -1.732520e+01
  -2.084606e+01
  -2.670563e+01
  -3.281368e+01
  -3.732930e+01
  -3.926367e+01
  -3.854338e+01
  -3.574668e+01
  -3.180940e+01
  -2.786788e+01
  -2.516858e+01
  -2.483094e+01
  -2.736684e+01
  -3.220781e+01
  -3.771803e+01
  -4.186671e+01
  -4.309575e+01
  -4.073278e+01
  -3.485967e+01
  -2.609648e+01
  -1.556631e+01
  -4.812035e+00
   4.532343e+00
   1.116316e+01
   1.449051e+01
   1.499841e+01
   1.429726e+01
   1.440923e+01
   1.656855e+01
   2.062838e+01
   2.563498e+01
   3.078442e+01
   3.568443e+01
   3.994754e+01
   4.300819e+01
   4.456326e+01
   4.504188e+01
   4.541234e+01
   4.641721e+01
   4.792802e+01
   4.899512e+01
   4.862514e+01
   4.671932e+01
   4.434493e+01
   4.301772e+01
   4.361683e+01
   4.584061e+01
   4.847018e+01
   5.007912e+01
   4.972875e+01
   4.725363e+01
   4.291553e+01
   3.672699e+01
   2.818276e+01
   1.679707e+01
   2.952087e+00
  -1.183382e+01
  -2.548672e+01
  -3.621649e+01
  -4.298462e+01
  -4.555414e+01
  -4.433580e+01
  -4.013369e+01
  -3.397218e+01
  -2.719912e+01
  -2.157589e+01
  -1.882373e+01
  -1.982921e+01
  -2.440476e+01
  -3.185573e+01
  -4.150356e+01
  -5.254642e+01
  -6.379982e+01
  -7.399542e+01
  -8.229318e+01
  -8.831163e+01
  -9.184275e+01
  -9.287339e+01
  -9.177809e+01
  -8.905071e+01
  -8.474529e+01
  -7.849588e+01
  -7.019937e+01
  -6.038500e+01
  -4.973285e+01
  -3.846287e+01
  -2.646828e+01
  -1.396531e+01
  -1.695889e+00
   9.689421e+00
   2.033274e+01
   3.099626e+01
   4.205538e+01
   5.278761e+01
   6.187438e+01
   6.858178e+01
   7.315124e+01
   7.587045e+01
   7.605716e+01
   7.242537e+01
   6.454196e+01
   5.359252e+01
   4.150044e+01
   2.950342e+01
   1.782867e+01
   6.560075e+00
  -3.590999e+00
  -1.146708e+01
  -1.622753e+01
  -1.792670e+01
  -1.756405e+01
  -1.667702e+01
  -1.673181e+01
  -1.862839e+01
  -2.252457e+01
  -2.797255e+01
  -3.421769e+01
  -4.045664e+01
  -4.592282e+01
  -4.989626e+01
  -5.187676e+01
  -5.193962e+01
  -5.092988e+01
  -5.016212e+01
  -5.076423e+01
  -5.320169e+01
  -5.733089e+01
  -6.276999e+01
  -6.913030e+01
  -7.594346e+01
  -8.249954e+01
  -8.787766e+01
  -9.123923e+01
  -9.218487e+01
  -9.088222e+01
  -8.788117e+01
  -8.383194e+01
  -7.934101e+01
  -7.495425e+01
  -7.112749e+01
  -6.816696e+01
  -6.620783e+01
  -6.519319e+01
  -6.476597e+01
  -6.416378e+01
  -6.234041e+01
  -5.833893e+01
  -5.163402e+01
  -4.216186e+01
  -3.006451e+01
  -1.546254e+01
   1.447829e+00
   2.006155e+01
   3.925818e+01
   5.777757e+01
   7.470822e+01
   8.954238e+01
   1.017927e+02
   1.106989e+02
   1.154675e+02
   1.159245e+02
   1.129690e+02
   1.082974e+02
   1.035790e+02
   9.984056e+01
   9.751993e+01
   9.683688e+01
   9.792294e+01
   1.006672e+02
   1.045752e+02
   1.087324e+02
   1.118389e+02
   1.125086e+02
   1.099565e+02
   1.045932e+02
   9.778570e+01
   9.080210e+01
   8.391817e+01
   7.655303e+01
   6.817979e+01
   5.898539e+01
   4.969166e+01
   4.089199e+01
   3.257180e+01
   2.413073e+01
   1.484640e+01
   4.477820e+00
  -6.441422e+00
  -1.686256e+01
  -2.572499e+01
  -3.216411e+01
  -3.539291e+01
  -3.481813e+01
  -3.066987e+01
  -2.454320e+01
  -1.906750e+01
  -1.678271e+01
  -1.905076e+01
  -2.565423e+01
  -3.514998e+01
  -4.563425e+01
  -5.535448e+01
  -6.275593e+01
  -6.621355e+01
  -6.416828e+01
  -5.592504e+01
  -4.246070e+01
  -2.635656e+01
  -1.070250e+01
   2.255531e+00
   1.175554e+01
   1.819102e+01
   2.239966e+01
   2.522404e+01
   2.742689e+01
   2.967735e+01
   3.244405e+01
   3.585588e+01
   3.967098e+01
   4.341219e+01
   4.655231e+01
   4.862111e+01
   4.930904e+01
   4.863991e+01
